HIERARCHY
ROOT LowerTorso_07
{
  OFFSET 0.000000 0.000000 0.000000
  CHANNELS 6 Xposition Yposition Zposition Zrotation Xrotation Yrotation
  JOINT UpperLeg_L_02
  {
    OFFSET 2.036808 0.854966 0.085795
    CHANNELS 3 Zrotation Xrotation Yrotation
    JOINT LowerLeg_L_03
    {
      OFFSET -0.000001 -2.884076 0.622130
      CHANNELS 3 Zrotation Xrotation Yrotation
      JOINT Foot_L_04
      {
        OFFSET -0.000000 -3.438148 -0.772169
        CHANNELS 3 Zrotation Xrotation Yrotation
        JOINT Toe_L_08
        {
          OFFSET -0.000001 -0.530390 1.339712
          CHANNELS 3 Zrotation Xrotation Yrotation
          End Site
          {
            OFFSET -0.000000 -0.132598 0.334928
          }
        }
      }
    }
  }
  JOINT UpperLeg_R_05
  {
    OFFSET -2.036808 0.854967 0.085795
    CHANNELS 3 Zrotation Xrotation Yrotation
    JOINT LowerLeg_R_06
    {
      OFFSET -0.000000 -2.884076 0.622130
      CHANNELS 3 Zrotation Xrotation Yrotation
      JOINT Foot_R_09
      {
        OFFSET -0.000000 -3.438146 -0.772166
        CHANNELS 3 Zrotation Xrotation Yrotation
        JOINT Toe_R_010
        {
          OFFSET 0.000001 -0.530390 1.339710
          CHANNELS 3 Zrotation Xrotation Yrotation
          End Site
          {
            OFFSET 0.000000 -0.132598 0.334927
          }
        }
      }
    }
  }
  JOINT UpperTorso_011
  {
    OFFSET 0.000000 2.240616 0.000000
    CHANNELS 3 Zrotation Xrotation Yrotation
    JOINT Shoulder_L_012
    {
      OFFSET 3.389295 3.069550 -0.297481
      CHANNELS 3 Zrotation Xrotation Yrotation
      JOINT UpperArm_L_013
      {
        OFFSET 0.000000 0.000000 -0.000001
        CHANNELS 3 Zrotation Xrotation Yrotation
        JOINT LowerArm_L_014
        {
          OFFSET -0.000000 -1.849889 -0.000000
          CHANNELS 3 Zrotation Xrotation Yrotation
          End Site
          {
            OFFSET -0.000000 -0.462472 -0.000000
          }
        }
      }
    }
    JOINT Shoulder_R_015
    {
      OFFSET -3.389295 3.069553 -0.297481
      CHANNELS 3 Zrotation Xrotation Yrotation
      JOINT UpperArm_R_016
      {
        OFFSET 0.000000 -0.000000 -0.000000
        CHANNELS 3 Zrotation Xrotation Yrotation
        JOINT LowerArm_R_017
        {
          OFFSET -0.000000 -1.849888 -0.000000
          CHANNELS 3 Zrotation Xrotation Yrotation
          End Site
          {
            OFFSET -0.000000 -0.462472 -0.000000
          }
        }
      }
    }
  }
}
MOTION
Frames: 31
Frame Time: 0.03333333
-0.269945 5.930914 0.590014 0.545977 2.012771 -1.730659 0.363614 -14.558460 1.632946 0.394058 18.399242 -4.379424 3.447886 4.461192 2.595845 0.488899 6.916958 -2.492537 5.919676 19.958975 -7.681762 1.569600 -12.747509 1.179206 -10.039495 -3.946513 -0.508086 3.276650 -2.064670 1.306975 -1.209202 -2.520592 0.108324 1.290177 -1.873989 0.404993 -1.771215 6.551503 0.487066 2.045853 6.317581 -2.108190 12.231950 6.018124 -7.335814 -11.394711 -4.973221 7.692253 2.990403 1.411096 -2.710085
-0.257712 5.935693 0.886252 0.599975 2.300978 -1.285864 0.234833 -15.035940 1.818672 0.399564 19.685214 -4.531591 4.212958 3.849916 3.173878 0.123946 7.059504 -1.629778 7.516349 23.688619 -9.297260 0.692837 -14.751694 1.327632 -9.691803 -3.594853 -0.191903 3.807727 -3.505388 1.543400 -1.098091 -2.389646 0.794901 1.514749 -1.505568 0.198646 -1.818763 6.973726 0.475868 1.761651 6.637964 -1.515045 13.807841 6.432689 -8.398154 -12.788432 -5.770719 7.796727 3.370577 1.025078 -1.856658
-0.276556 6.017229 1.398600 0.626084 2.413539 -1.515881 0.222892 -14.014636 2.162118 0.350533 11.427884 -3.077337 1.438351 7.214032 2.274293 1.536645 8.144032 -1.589760 6.723208 23.171837 -9.525489 1.026376 -14.898244 1.657989 -9.337273 0.505794 -0.312348 3.839452 -4.755745 1.693571 -1.124595 -2.599762 1.257749 1.410393 -1.882721 0.146731 -1.828404 6.719706 0.901298 1.785418 8.078024 -1.767167 13.796632 5.350296 -6.777775 -12.731927 -5.191106 7.309386 3.089741 1.986464 -1.658121
-0.295057 6.138806 2.004961 1.050575 2.459640 -2.080046 -0.012672 -17.178045 2.200293 1.278036 9.587013 -2.307806 -1.088078 9.104175 1.736233 2.306920 9.262609 -2.554416 4.887140 21.760179 -8.969623 1.309352 -14.380201 1.747839 -8.570295 2.285379 -0.247747 3.418567 -3.250512 0.962991 -1.416319 -2.726668 1.782952 1.075258 -2.543742 0.253438 -1.877155 6.400552 1.556969 2.027148 8.931254 -1.972222 13.542539 4.259498 -5.019344 -12.550562 -4.565087 6.825350 2.768993 2.613225 -1.707153
-0.305235 6.199076 2.597082 1.200076 2.506092 -2.535188 -0.285658 -17.056185 2.843546 1.685542 6.136209 -1.855706 -1.776447 11.021311 1.523334 2.615042 9.888110 -2.572637 3.630651 19.079679 -7.741306 1.601344 -12.315096 1.578857 -7.780728 2.344747 -0.177768 2.942294 -1.114337 0.277306 -1.560891 -2.808327 2.213170 1.011818 -2.874465 0.404120 -1.830839 6.092601 1.950565 2.129415 9.241997 -1.935163 13.259619 3.666610 -3.878723 -12.255563 -4.332272 6.506151 2.664970 2.822942 -1.644923
-0.293366 6.233764 3.129381 1.323559 2.580575 -2.940449 -0.648182 -15.734947 3.424298 2.236881 4.165006 -1.470425 -2.231040 11.311040 1.575280 2.343276 9.353531 -2.355048 2.499287 14.367563 -5.597903 1.649829 -7.880985 1.043892 -6.439747 1.722386 -0.413361 2.425279 0.795345 -0.460998 -1.645311 -2.942808 2.422470 0.896639 -2.922378 0.574196 -1.763568 5.740318 2.265217 2.305822 9.427885 -1.889417 13.104164 3.263238 -3.002049 -11.955418 -4.349228 6.486055 2.595174 2.842743 -1.488828
-0.270939 6.258909 3.631018 1.521731 2.691237 -3.150972 -1.149787 -13.709593 3.891080 2.891344 3.425111 -1.210025 -2.944277 8.515615 1.758866 2.166200 8.588203 -1.982354 1.548970 7.692530 -2.910768 1.618119 -1.961561 0.341125 -5.009054 1.354871 -1.022552 2.028559 2.666386 -0.994133 -1.809396 -3.075924 2.459782 0.896171 -3.068338 0.833551 -1.783751 5.551001 2.362176 2.434541 9.379609 -1.813753 12.958286 3.043618 -2.441065 -11.611084 -4.618574 6.491338 2.614959 2.729786 -1.245748
-0.243194 6.283506 4.128522 1.665505 2.854860 -3.456120 -1.396035 -12.051292 4.405922 3.221514 3.269272 -0.970674 -3.392027 6.290146 1.961977 2.121995 7.392907 -1.964719 1.010354 0.468335 -0.339670 1.689501 3.623051 -0.309523 -4.058165 2.331451 -1.627420 1.961288 3.719406 -1.478022 -2.049937 -3.226135 2.560231 1.090922 -3.293172 0.909535 -1.830388 5.264484 2.600522 2.609789 9.339856 -1.676131 12.859208 2.925696 -2.023914 -11.375098 -4.869270 6.266274 2.626110 2.532873 -0.817887
-0.211869 6.292982 4.640045 1.735775 2.922512 -3.648165 -1.516893 -10.227986 4.752995 3.310804 3.222020 -0.942121 -3.571506 3.993487 2.093639 2.008706 6.684985 -1.858694 0.917387 -5.413213 1.196724 1.719040 7.137838 -0.473083 -3.543036 3.677586 -1.862574 1.807947 4.056594 -1.869399 -2.174147 -3.324286 2.580737 1.286586 -3.390157 0.927264 -1.848897 4.800681 2.864229 2.835025 9.041910 -1.777960 12.774445 2.993717 -1.918713 -11.258382 -5.072698 6.306605 2.680352 2.375906 -0.667828
-0.167950 6.284211 5.210948 1.801834 2.914804 -3.843733 -1.515447 -8.053148 4.990558 3.230338 2.772451 -0.772975 -3.828838 2.196661 1.843363 2.031777 5.479836 -1.695341 0.936304 -9.883147 2.253430 1.789179 8.891979 -0.350437 -3.247614 5.020460 -1.929223 1.392063 3.562905 -1.863221 -2.325567 -3.349929 2.560121 1.385263 -3.608948 0.971065 -1.897623 4.364492 2.991587 3.258365 9.003832 -1.605682 12.661904 3.225129 -1.802738 -11.060073 -5.174147 6.230905 2.563124 2.176370 -0.528342
-0.125211 6.256432 5.811013 1.801519 2.822270 -4.002893 -1.341739 -5.349439 5.041552 3.036738 2.392654 -0.917424 -4.075077 -0.196600 1.741378 1.961487 5.076987 -1.487713 1.161999 -12.598326 2.912635 1.470572 8.534933 0.124178 -3.248633 6.461568 -1.394661 1.268236 3.150279 -1.883087 -2.414667 -3.263632 2.518726 1.630067 -3.634226 0.879145 -1.870783 3.733103 3.101085 3.472351 8.852011 -1.376730 12.609596 3.552611 -1.979031 -10.851881 -5.181405 6.242437 2.426830 1.825794 -0.373539
-0.089336 6.209161 6.420819 1.793438 2.707025 -4.049192 -1.287763 -2.001990 4.912746 2.827330 1.710366 -1.220712 -3.808669 -2.691436 1.463937 1.729870 4.449526 -1.219204 1.065347 -11.949592 3.234143 0.430257 4.104233 0.543088 -3.225487 6.937012 0.005021 1.234101 4.000087 -1.217879 -2.504020 -3.288733 2.372925 1.774256 -3.679180 0.878176 -1.739638 2.996432 2.993508 3.915745 8.644072 -1.193820 12.508736 3.956773 -2.271567 -10.645728 -5.076082 6.029475 2.361393 1.439687 0.040856
-0.053649 6.158618 7.079666 1.764946 2.751499 -3.838154 -1.320633 2.903179 4.540655 2.839564 -0.589541 -1.717475 -3.436341 -5.139261 1.325785 1.559086 3.360215 -1.222544 0.554712 -10.740613 2.625913 -0.412447 -1.242037 1.072061 -3.254376 7.325065 1.626180 1.652450 5.949438 -0.059142 -2.438298 -3.271151 1.895080 1.953832 -3.569981 0.826008 -1.462482 2.008496 2.785176 3.949493 8.531273 -0.883395 12.367354 4.434607 -2.983179 -10.547410 -5.007792 6.106932 2.431498 0.896891 0.442793
-0.025354 6.132360 7.744084 1.704720 2.512876 -3.314876 -1.428382 8.308378 4.229184 2.910004 -3.362160 -2.694022 -3.031520 -6.566494 1.013547 1.534831 2.042450 -1.467304 0.176409 -19.985272 3.192931 -0.706090 3.706961 2.786725 -3.289226 6.091134 -0.115057 2.331403 8.278016 -0.555516 -2.465892 -3.074299 1.201513 2.110547 -4.091709 0.875136 -1.402247 1.087374 2.473943 4.358039 8.262477 -0.583828 12.404069 4.129565 -3.890556 -10.313984 -3.998676 6.335006 2.469950 0.200932 0.595202
0.010934 6.108986 8.370086 1.553399 2.018860 -2.387192 -1.264416 14.272534 3.486714 2.497338 -6.650172 -3.353429 -2.094942 -6.825660 0.566042 1.367719 0.548179 -1.658849 -0.076862 -26.867947 3.010926 -0.338314 6.355451 3.334178 -4.393074 4.646229 -0.922168 2.437977 9.848095 -0.927508 -2.530269 -2.831823 0.253464 2.331058 -4.393166 0.836895 -1.316395 -0.308458 2.356573 4.713429 8.492214 -0.534783 12.521368 4.161557 -5.166783 -9.978696 -3.037464 6.578175 2.436817 -0.518703 0.763661
0.048499 6.065665 8.979836 1.427454 1.520523 -1.306678 -0.530862 20.565138 2.536570 2.006370 -10.180877 -3.982201 -1.175480 -5.887506 0.302479 0.907918 -1.672801 -2.065461 -0.765144 -29.460216 1.981654 0.033146 5.971214 3.492323 -4.335186 8.214229 -0.618574 2.559182 8.342183 -0.998389 -2.583316 -2.660372 -0.891530 2.697134 -4.649523 0.825272 -1.271828 -1.987274 2.251878 4.849569 8.787271 -0.421764 12.707804 4.389978 -7.119545 -10.112190 -2.167953 7.185844 2.621019 -1.410135 1.062946
0.085965 5.997341 9.602560 1.384068 1.256672 -0.691071 0.678635 26.398687 1.758473 1.221072 -12.261776 -4.501274 0.569644 -3.005091 0.059217 -0.354560 -6.242279 -2.444282 -1.640753 -29.683386 0.884866 0.326024 4.040901 3.301077 -3.043488 15.279647 -0.021623 2.593647 5.856351 -0.997831 -2.520251 -2.696427 -1.762535 3.006593 -4.600480 1.035325 -1.425845 -3.476426 2.159321 5.027040 8.870439 -0.268082 12.987237 5.154621 -9.486013 -10.473791 -1.861597 8.148817 2.564912 -2.354003 1.686344
0.110190 5.913751 10.273301 1.322431 0.946138 -0.373119 2.413085 30.247258 0.507595 -0.067273 -9.700817 -4.702242 2.699282 0.533379 0.701157 -0.920755 -10.835831 -2.769327 -2.101643 -27.421427 0.372339 0.200580 2.548986 3.182000 -1.842815 19.318536 -0.305147 2.563794 4.003440 -0.894502 -2.292354 -2.763916 -2.445440 3.365328 -4.276755 1.376454 -1.628692 -4.476325 2.285330 5.168015 8.971170 -0.132267 13.082633 6.137495 -11.293582 -10.777629 -2.071634 9.123985 2.651530 -3.000854 2.119891
0.109685 5.817775 10.954117 1.150248 0.680963 -0.524514 3.697499 30.434239 -0.338644 -1.549013 -0.118116 -3.939619 3.414806 0.553351 2.113928 0.912705 -6.898611 -2.109293 -1.858862 -24.684240 0.944429 -0.197062 1.024771 3.504101 -0.444832 22.702497 -1.105777 2.056458 2.620966 -0.537790 -2.059066 -3.032037 -2.801289 3.413334 -3.830132 1.807998 -1.713919 -4.947510 2.463684 5.471103 9.119666 -0.029304 12.784354 6.717259 -12.325218 -10.603890 -2.116412 10.099962 2.814023 -3.477268 2.303780
0.109517 5.719146 11.645412 0.842200 0.315983 -0.605134 4.356395 27.425372 -0.728663 -2.361801 11.857841 -2.147331 2.969184 -0.299825 2.873743 2.383524 -2.017246 -0.987019 -1.680469 -23.613831 1.694926 0.211100 2.135838 3.877965 -0.148886 22.737643 -1.471128 1.768641 2.616299 -0.201750 -1.931206 -3.004737 -3.084968 3.517479 -3.437053 1.809619 -1.555459 -5.052096 2.854876 5.505965 9.564943 0.194725 12.366361 6.887190 -12.876169 -10.035561 -1.708395 10.592013 3.126379 -3.798685 2.778658
0.094531 5.623572 12.298592 0.457221 -0.003963 -0.720445 4.480405 22.021991 -0.830535 -2.369011 22.198712 -0.685494 2.608052 -3.222237 3.116851 2.446497 -0.417411 -0.832092 -1.090293 -24.415891 2.917202 1.547827 4.720008 4.485957 -0.126761 21.729295 -2.336891 0.196545 3.245157 1.121136 -1.737370 -3.040894 -3.302096 3.747620 -2.886222 1.536279 -1.488042 -4.531853 3.527561 5.480125 9.954167 0.520726 11.951816 6.801832 -12.809835 -9.235104 -0.874902 11.041103 3.433010 -4.239749 3.080424
0.063728 5.567420 12.883399 0.217255 0.184572 -1.121097 4.492883 14.606183 -0.649976 -2.172110 32.311104 0.484682 2.689897 -5.121319 3.117233 1.805190 0.667370 -0.508439 0.023222 -16.744925 3.494202 0.908061 -0.967777 2.589580 -1.103059 19.255001 -0.000778 0.645515 0.727630 0.274167 -1.491580 -3.065318 -3.016269 3.716625 -2.521217 0.974743 -1.545518 -3.066628 4.002886 5.076709 10.201596 0.991746 11.680489 6.551601 -11.319714 -8.556921 -0.447930 10.372895 3.905018 -4.120248 2.968719
0.056905 5.608103 13.475197 -0.103544 0.120600 -1.678096 4.387838 7.933693 -0.369718 -2.110118 39.084808 1.187081 3.253683 -3.855883 3.254125 1.239767 1.533307 -0.068793 0.343375 -11.871709 3.163502 1.405942 -1.760685 2.706300 -1.550765 15.940414 0.202511 0.744100 -0.994886 -0.174609 -1.103327 -2.708465 -2.433011 3.366381 -2.258573 0.563052 -1.771230 -1.704305 4.408497 4.524750 10.492309 1.322421 11.984349 6.211465 -9.670256 -8.410691 -1.015984 9.844345 4.299034 -3.437526 2.641834
0.046630 5.714440 14.085396 -0.221858 -0.090752 -2.091619 4.136333 2.005779 -0.117571 -1.836681 42.740309 1.390860 3.923055 -0.631919 3.432461 0.679855 2.218572 -0.388192 0.648164 -6.990327 2.736488 1.439592 -2.988190 2.839688 -1.803372 13.898024 0.542505 0.467136 -2.858955 -0.632160 -0.913308 -2.312624 -1.773209 3.020471 -1.976457 0.319400 -2.171768 -0.522029 4.388858 4.160586 11.059153 1.584194 12.779505 5.960837 -8.160193 -8.907423 -1.995008 9.279547 4.544978 -2.681436 2.251717
0.030313 5.866123 14.707274 -0.103595 0.073536 -2.506278 3.636743 -2.593911 -0.049498 -1.593010 42.209453 1.042161 4.665044 1.879062 3.781734 0.366552 2.546691 -0.852358 0.917691 -3.023030 1.999724 1.176361 -4.439174 2.989690 -2.102549 11.885603 0.961864 0.270749 -3.833172 -0.850008 -0.705765 -2.246519 -1.116829 2.657127 -1.717994 0.501997 -2.537915 0.510366 4.111466 3.978115 11.541890 1.480289 13.185513 5.688187 -6.838463 -9.391843 -3.075150 8.945374 4.479275 -1.958251 1.849649
0.026337 6.025020 15.381245 0.283813 0.220684 -3.004440 2.698711 -5.387339 -0.138980 -1.340172 38.305354 0.304103 5.427311 3.050637 4.278844 -0.289899 3.271293 -0.857029 0.780128 0.397049 1.257534 0.881693 -5.746002 2.992248 -2.514314 10.390288 1.582051 1.479451 -4.512731 -0.832773 -0.825473 -2.045965 -0.420115 2.427952 -1.269136 1.026730 -2.507028 0.802311 3.800341 3.793566 11.593426 1.068984 13.109643 6.006043 -5.609953 -9.546647 -4.341935 8.298092 4.237745 -1.478336 1.622099
0.011837 6.138876 16.005381 0.666449 0.417215 -3.324358 1.737356 -7.409399 -0.471085 -0.711846 32.593777 -1.151155 6.252525 3.871179 4.512697 -0.796853 4.162573 -0.399486 0.297645 3.096164 0.308068 1.312537 -7.644177 3.316227 -3.042183 8.109844 1.825468 1.047436 -4.063954 -0.095016 -1.081638 -1.878469 0.398973 2.347407 -0.868755 1.262204 -2.432886 0.814950 3.619099 3.691260 11.263587 0.715161 12.503701 6.418989 -4.730061 -9.342311 -5.309492 7.359448 4.049078 -1.309767 1.634892
-0.006307 6.201347 16.548989 1.090828 0.708468 -3.496756 0.792874 -8.570712 -1.040461 0.054834 25.118755 -3.161033 6.911258 6.738029 4.290102 -0.166978 5.549243 -0.568445 -0.282424 5.961776 -0.667600 1.740734 -9.437957 3.422406 -3.554609 7.093966 2.219449 1.087256 -4.662117 0.174543 -1.407908 -1.634083 1.200609 2.062716 -0.816067 1.563952 -2.286009 0.831495 3.479033 3.776123 10.976451 0.235900 11.706788 6.653828 -3.571384 -9.192598 -6.343878 6.316025 3.949057 -0.867163 1.409375
-0.023465 6.236371 17.005031 1.378058 0.927316 -3.689039 -0.269717 -9.124083 -1.336356 0.981906 18.225726 -4.902087 7.219275 10.986653 3.786618 0.813411 7.402386 -1.035285 -0.662550 8.284690 -1.457587 2.167333 -10.709374 3.485734 -4.075498 6.782451 2.428479 1.372813 -5.292361 0.022538 -1.733965 -1.442882 1.781377 1.913280 -0.882164 1.813400 -2.155426 1.133697 3.487792 3.793457 10.719893 -0.128880 10.973987 6.453720 -2.328510 -9.143224 -6.938525 5.348581 3.836045 -0.374833 1.266790
-0.031426 6.259931 17.353612 1.600867 1.070437 -4.021094 -1.314583 -9.502789 -1.373814 1.669836 11.293024 -6.234402 7.225652 16.473654 3.086596 2.286637 10.056719 -1.737235 -0.949334 9.942001 -1.702660 2.527884 -11.231348 3.206041 -4.563822 6.251516 2.739278 1.545021 -6.120606 -0.040295 -1.946228 -1.327960 2.124939 1.804268 -0.961248 1.979951 -2.136595 1.611544 3.675934 3.794349 10.320907 -0.358885 10.714171 5.784200 -1.496040 -9.342650 -6.883408 4.936479 3.786570 0.003478 1.116358
-0.035627 6.281081 17.599918 1.675805 1.087075 -4.466291 -1.899315 -9.564676 -1.002898 1.770704 4.381335 -6.443836 5.130205 21.603041 2.208607 3.824251 13.588524 -3.511125 -1.159764 10.967447 -1.583499 2.652890 -11.231182 2.811429 -4.959312 6.356195 2.984366 1.675930 -7.119070 -0.101570 -2.083684 -1.287869 2.390215 1.753995 -1.057191 2.026539 -1.979738 2.054169 3.870425 3.603662 10.252809 -0.526180 10.797496 5.292218 -1.163829 -9.608056 -6.632155 5.067436 3.833826 0.280816 0.928336
