HIERARCHY
ROOT LowerTorso_07
{
  OFFSET 0.000000 0.000000 0.000000
  CHANNELS 6 Xposition Yposition Zposition Zrotation Xrotation Yrotation
  JOINT UpperLeg_L_02
  {
    OFFSET 2.036808 0.854966 0.085795
    CHANNELS 3 Zrotation Xrotation Yrotation
    JOINT LowerLeg_L_03
    {
      OFFSET -0.000001 -2.884076 0.622130
      CHANNELS 3 Zrotation Xrotation Yrotation
      JOINT Foot_L_04
      {
        OFFSET -0.000000 -3.438148 -0.772169
        CHANNELS 3 Zrotation Xrotation Yrotation
        JOINT Toe_L_08
        {
          OFFSET -0.000001 -0.530390 1.339712
          CHANNELS 3 Zrotation Xrotation Yrotation
          End Site
          {
            OFFSET -0.000000 -0.132598 0.334928
          }
        }
      }
    }
  }
  JOINT UpperLeg_R_05
  {
    OFFSET -2.036808 0.854967 0.085795
    CHANNELS 3 Zrotation Xrotation Yrotation
    JOINT LowerLeg_R_06
    {
      OFFSET -0.000000 -2.884076 0.622130
      CHANNELS 3 Zrotation Xrotation Yrotation
      JOINT Foot_R_09
      {
        OFFSET -0.000000 -3.438146 -0.772166
        CHANNELS 3 Zrotation Xrotation Yrotation
        JOINT Toe_R_010
        {
          OFFSET 0.000001 -0.530390 1.339710
          CHANNELS 3 Zrotation Xrotation Yrotation
          End Site
          {
            OFFSET 0.000000 -0.132598 0.334927
          }
        }
      }
    }
  }
  JOINT UpperTorso_011
  {
    OFFSET 0.000000 2.240616 0.000000
    CHANNELS 3 Zrotation Xrotation Yrotation
    JOINT Shoulder_L_012
    {
      OFFSET 3.389295 3.069550 -0.297481
      CHANNELS 3 Zrotation Xrotation Yrotation
      JOINT UpperArm_L_013
      {
        OFFSET 0.000000 0.000000 -0.000001
        CHANNELS 3 Zrotation Xrotation Yrotation
        JOINT LowerArm_L_014
        {
          OFFSET -0.000000 -1.849889 -0.000000
          CHANNELS 3 Zrotation Xrotation Yrotation
          End Site
          {
            OFFSET -0.000000 -0.462472 -0.000000
          }
        }
      }
    }
    JOINT Shoulder_R_015
    {
      OFFSET -3.389295 3.069553 -0.297481
      CHANNELS 3 Zrotation Xrotation Yrotation
      JOINT UpperArm_R_016
      {
        OFFSET 0.000000 -0.000000 -0.000000
        CHANNELS 3 Zrotation Xrotation Yrotation
        JOINT LowerArm_R_017
        {
          OFFSET -0.000000 -1.849888 -0.000000
          CHANNELS 3 Zrotation Xrotation Yrotation
          End Site
          {
            OFFSET -0.000000 -0.462472 -0.000000
          }
        }
      }
    }
  }
}
MOTION
Frames: 26
Frame Time: 0.03333333
0.145179 6.468835 1.150409 1.988100 2.132418 -1.308375 -1.479071 -0.816000 3.131118 5.089376 5.082837 -7.574396 3.917602 4.392323 7.755182 0.328669 3.884959 -0.145493 4.636213 -3.622238 -8.000791 -0.396542 20.464509 -4.663585 -7.422562 -13.274161 3.372924 1.906902 3.082001 1.038695 -1.624330 -5.383378 2.406809 1.671931 -2.464037 0.994668 -2.947116 8.981654 -2.219404 0.563716 2.672435 -7.128152 24.745423 3.852847 2.526885 -21.937348 0.447029 1.602502 -1.098914 1.374016 -2.799334
0.115276 6.477060 1.217147 1.852735 2.286870 -1.666031 0.783694 -2.690400 4.566826 2.713190 4.942597 -6.345230 3.633607 4.734767 6.147880 0.649697 3.824296 -0.107312 2.798638 -10.562948 -7.452856 1.513848 20.910472 -6.920108 -7.860048 -6.616155 5.016760 1.481154 -0.284030 1.421021 -1.516623 -5.686917 2.821018 1.874608 -2.525252 0.899430 -2.988258 9.227825 -1.917506 0.313918 3.222231 -6.836414 25.777313 2.830807 3.804653 -22.454533 1.928344 1.308761 -1.201525 1.644703 -3.411411
0.073217 6.483533 1.304897 1.817841 2.820724 -2.396777 3.681584 -6.918576 7.107988 0.658835 5.462964 -5.138014 1.712413 5.423987 2.889981 1.761830 4.447369 -0.147086 0.987083 -21.566916 -4.869021 -0.375567 15.813243 -6.695224 -7.211543 5.337852 2.614695 3.001020 -3.653677 2.380531 -1.495359 -6.172487 3.361066 1.774494 -3.286054 0.719976 -2.997825 9.181538 -1.352934 0.280776 3.934845 -6.719485 26.058918 1.753075 5.456785 -22.119856 3.229337 0.790383 -1.391712 2.077103 -3.866466
0.033682 6.526754 1.404851 2.200949 3.061686 -2.876177 6.126968 -15.052401 8.456496 2.519893 11.558398 -4.715922 -1.712530 7.042485 0.587219 2.738365 7.298786 -0.489900 0.189375 -25.715343 -2.724539 -2.348366 0.297147 -3.753918 -7.308208 10.431407 0.200410 2.756704 -1.454116 3.471702 -1.674287 -6.563054 3.644992 1.495216 -4.749706 0.590502 -3.274938 9.911661 -0.489743 0.075166 4.531378 -6.507323 25.992594 0.950124 6.355177 -21.718948 4.215867 0.893194 -1.453150 2.533498 -4.276709
-0.002832 6.552486 1.532726 2.320711 2.885613 -3.410393 6.801316 -17.640756 9.811734 3.346960 11.475232 -3.840013 -3.775572 10.113951 -0.327998 3.107114 7.931115 -0.347861 -0.130004 -27.031391 -0.778791 -2.709266 -11.840937 -3.665374 -6.557300 13.341641 1.397118 1.618682 -0.418333 3.154194 -1.666030 -6.603526 3.876138 1.338865 -6.267467 0.845931 -3.550601 10.741870 0.429330 -0.063428 4.804746 -6.076673 25.183336 0.372657 6.503073 -20.599603 4.563090 1.355280 -1.497190 2.307338 -4.391625
-0.025551 6.581139 1.643934 2.530217 2.558605 -4.093970 6.346775 -16.485517 11.198573 4.779300 8.977318 -3.327669 -7.516580 10.942917 0.666164 2.620743 7.102215 -0.150745 -0.228106 -27.865344 1.015685 -2.884195 -18.542640 -3.222520 -3.152932 16.511768 4.135006 0.819086 0.245980 1.889283 -1.562268 -6.562067 3.994108 1.109912 -8.111200 1.233969 -3.940623 12.013752 1.511863 -0.070729 5.343120 -5.690686 24.088816 -0.005127 6.228752 -19.093495 4.434674 2.535960 -1.502398 2.054116 -4.458163
-0.036145 6.614634 1.765458 2.696147 2.175098 -4.420892 5.081169 -13.840756 12.034465 5.917274 5.294650 -2.229706 -8.860574 11.281078 1.047085 1.988736 6.468073 0.008030 -0.206711 -28.807473 2.159708 -2.379708 -19.367206 -1.710239 -0.638349 20.733527 4.446116 1.076019 1.640541 0.611459 -1.506884 -6.528688 3.733866 1.246799 -10.285827 1.726953 -4.581271 13.471593 2.798880 0.091039 5.428690 -5.197803 22.730027 -0.215076 5.598662 -17.234487 3.666188 3.795364 -1.610578 1.210236 -4.167636
-0.037167 6.655293 1.907343 2.714488 1.915876 -4.822299 4.491548 -12.464655 12.425705 5.969292 4.108721 -1.541626 -9.376757 10.904370 1.717141 1.797711 6.072230 -0.166381 0.645487 -30.718520 3.465838 -1.607785 -14.577239 0.244967 0.240535 25.898544 2.972050 1.132060 3.398160 -0.488267 -1.475881 -6.396330 3.567551 1.356524 -12.645450 2.036013 -4.919996 14.595251 3.874318 0.659394 4.602807 -4.467489 21.413212 -0.203205 4.586362 -16.208907 2.626547 5.126688 -1.719421 0.555728 -3.329911
-0.019350 6.685344 2.110432 2.537050 1.732838 -5.313878 4.393631 -11.384686 12.728091 5.232904 3.789108 -0.987764 -9.090743 10.062285 2.576142 1.597006 5.606073 -0.355690 2.297952 -32.262225 5.239135 -1.345604 -7.559878 2.526778 0.706823 29.419322 0.596854 1.011256 2.861518 -1.254255 -1.380940 -6.358811 3.458449 1.517061 -14.765834 2.296038 -5.213952 15.223164 4.913049 1.404270 3.348623 -3.853028 20.271491 0.142702 3.579878 -15.776358 1.246274 6.099435 -1.401085 -0.499162 -2.113346
0.022196 6.680232 2.377411 2.345208 1.859457 -5.841558 4.512829 -10.404346 12.923178 4.195597 3.274656 -0.781160 -8.686072 9.725134 3.303605 1.414983 5.193339 -0.267783 3.468722 -32.268756 6.831789 -1.073804 -2.096066 4.250300 1.175979 29.686215 -1.193739 0.359886 1.303002 -1.393585 -1.298731 -6.377351 3.380132 1.640019 -16.006791 2.482158 -4.961143 15.015248 5.263822 2.035382 2.232655 -3.378410 19.447772 0.511381 3.382941 -15.303518 0.501968 6.350730 -1.393295 -1.538542 -1.188631
0.067991 6.663572 2.700367 1.991186 2.155196 -6.285621 4.533265 -9.285830 12.530533 3.120520 3.150198 -0.959429 -7.761522 8.078451 4.721258 1.373436 5.194678 -0.318565 3.990592 -30.274534 7.776502 -0.721838 0.710509 5.890538 0.922117 27.371252 -1.761470 0.028226 0.375430 -1.183232 -1.006212 -6.489331 3.303929 1.848284 -16.846053 2.727749 -4.479831 14.598062 5.264376 2.617834 0.593732 -3.191015 18.854587 1.233015 2.843091 -15.123913 -0.284526 6.646356 -1.224844 -2.582656 -0.557627
0.115035 6.642351 3.065626 1.670343 2.551426 -6.486996 3.730247 -7.769989 11.829776 2.690145 2.499903 -1.445720 -5.844074 6.286878 5.449470 1.171931 4.807222 -0.122086 3.051889 -24.205820 6.657216 -1.298634 -3.499123 7.478106 1.044187 23.132458 -0.408757 0.320972 1.798373 -0.822242 -0.795731 -6.653867 3.017259 1.929920 -17.485688 2.738920 -3.818081 14.218259 4.756617 3.310228 -0.799461 -2.967089 18.042593 1.986743 1.004073 -14.596331 -1.381418 7.585907 -0.941743 -4.039037 0.140247
0.166965 6.649689 3.454753 1.307292 2.907999 -6.155068 2.880836 -6.313908 10.966380 2.643988 1.741884 -2.738379 -3.841750 4.620926 4.900252 1.268767 4.285167 -0.105899 1.541424 -19.732147 4.531752 -2.655055 -8.660942 8.687355 1.693002 18.611826 1.346557 1.104822 3.309930 0.197893 -0.547444 -6.707858 2.336937 2.090258 -17.861772 2.346928 -2.814927 13.361334 3.883945 4.190074 -2.162043 -3.253360 16.732049 2.690746 -2.337787 -13.467472 -2.628213 9.892229 -0.453784 -5.241578 0.492294
0.222971 6.690944 3.871486 1.009651 2.907152 -5.504517 2.528152 -6.700556 10.489224 2.466677 3.879865 -4.455225 -1.932619 4.477282 1.133996 2.127903 5.284786 -0.325841 0.934411 -26.396809 5.723073 -3.514668 -2.602258 9.135665 0.821604 12.654928 -1.841959 2.169957 5.891222 -0.247033 -0.532839 -6.860770 1.593718 1.986911 -18.837309 1.853987 -1.954509 12.325162 2.829055 4.837819 -2.748176 -3.742564 15.809011 2.457809 -6.022295 -12.403034 -2.694584 12.390665 0.500366 -6.746058 0.707154
0.292022 6.785865 4.304950 0.588091 2.605968 -3.436176 4.119321 -10.577867 9.528344 -0.316111 11.957877 -5.068819 2.818870 5.002184 -5.379016 3.167089 8.584747 0.321131 -0.141898 -28.578211 5.311395 -2.997463 0.790753 8.690886 -2.514544 6.682782 -3.622919 2.502305 8.438225 -1.334277 -0.564249 -7.132841 -0.086809 1.913251 -19.784273 1.112651 -1.451057 11.015250 2.467030 4.996399 -3.345309 -4.387648 15.525687 1.899881 -9.845702 -11.918824 -1.996508 14.474791 1.676317 -8.828600 1.019334
0.366813 6.909940 4.730285 0.366228 2.135043 -0.716160 9.176766 -17.023536 9.646085 -3.107129 23.780535 -6.149909 4.635026 8.786812 -6.270285 2.413095 5.128061 0.427108 -2.736700 -24.835317 2.346879 -2.115921 0.568737 8.389836 -0.159751 15.259257 -3.445549 1.856851 2.897489 -0.559068 -0.715891 -7.575694 -2.108497 2.136141 -20.264434 0.318737 -1.449673 9.409849 2.411317 4.762012 -4.670543 -4.621152 15.696945 1.853046 -14.151036 -12.544939 -1.371976 16.329881 2.336760 -10.829958 1.649856
0.438599 7.019782 5.132952 0.345166 2.056658 1.426642 17.376873 -26.773175 10.108958 -6.861525 37.909070 -5.942619 9.846794 14.721804 -1.720000 0.818527 1.956099 -1.971535 -5.949813 -19.243946 -0.774032 -1.480338 -2.876483 7.528650 5.318953 24.924894 -3.421171 1.384864 -2.422058 0.627433 -0.935586 -8.092537 -3.560408 2.591085 -20.961150 0.104600 -1.862061 8.493476 2.338101 4.742454 -6.642806 -4.561977 16.170504 2.433596 -19.143692 -13.014047 -1.703735 18.066729 3.086000 -13.519342 2.900007
0.497945 7.098691 5.490112 0.381306 2.344621 3.163488 28.162217 -39.585892 11.402385 -18.526259 53.636805 2.953703 12.636991 19.917227 2.685096 -0.056118 -1.067663 -1.716054 -6.589748 -12.512571 -1.366511 -2.943758 -6.766343 5.447421 6.526469 24.341916 -3.796616 2.568784 -3.257539 0.907798 -1.195911 -8.785094 -4.696869 3.036759 -21.657173 0.324996 -2.192268 7.933215 2.175204 4.824354 -8.450106 -4.454092 16.735866 3.297903 -22.435511 -13.019388 -2.639063 18.771159 3.941069 -16.556507 4.348792
0.531917 7.151355 5.850643 0.160175 2.995569 4.257655 39.756014 -54.224276 17.768562 -38.970776 67.923424 23.088394 11.668865 23.965047 4.629429 -0.341775 0.115606 -0.937220 -6.294163 -6.938732 -0.134397 -4.648560 -12.145317 3.717400 7.045647 23.532023 -6.076743 2.511034 -2.128341 1.159457 -1.282365 -9.708949 -5.368200 2.902012 -21.837850 0.546629 -2.337179 8.009933 2.021942 4.780776 -9.165339 -4.384793 16.844778 4.329690 -23.822147 -12.261781 -3.638443 18.629382 4.614594 -19.106643 5.476832
0.562853 7.197983 6.209667 -0.222026 3.750116 5.170567 55.076523 -68.619758 35.262685 -74.822009 79.109141 61.931636 11.354657 26.871397 3.208104 -0.318368 0.784187 -0.486707 -6.391678 -4.276011 1.793232 -5.014456 -13.845748 3.959758 4.539305 20.373887 -8.867757 1.419176 1.336119 1.175273 -1.359038 -10.356046 -5.818424 2.178639 -21.226664 0.533652 -1.918347 8.332189 1.753493 4.596213 -9.000092 -4.023871 16.493483 4.835337 -24.477264 -10.918186 -3.768416 18.073205 5.571238 -20.508164 6.583660
0.583207 7.201006 6.530300 -0.224889 4.333457 5.101846 41.185733 -68.470262 24.510951 -40.303209 78.173933 30.708992 8.463016 22.452798 2.966165 0.200049 2.336149 0.529068 -4.718011 -6.763298 3.496402 -3.169070 -4.361583 4.087108 0.391228 10.930330 -4.665941 -0.548202 4.918376 -0.213170 -1.577615 -10.725927 -5.896695 1.567318 -19.897043 0.361595 -1.574506 9.559478 1.758701 4.088473 -6.993361 -3.754764 15.615305 4.092992 -23.213714 -9.350807 -2.301320 16.829053 6.059277 -20.617652 7.144290
0.606717 7.146681 6.752236 0.447548 4.478001 4.395311 26.238235 -64.376498 11.077669 -18.582188 73.229668 12.568161 5.670070 18.476152 4.107216 0.014700 2.853319 0.688441 -0.533627 -7.767948 4.184731 -4.685527 17.827266 1.160243 2.307468 -5.220765 3.344102 -0.193508 8.039138 -3.452313 -2.017291 -10.909736 -5.246286 0.564149 -17.947208 -0.770964 -1.413695 11.316300 2.241403 3.188427 -3.691495 -3.718385 15.078559 2.937858 -20.109248 -8.621670 0.018064 14.103923 6.181903 -19.857145 6.965382
0.631285 7.138681 6.983741 0.567195 4.470877 3.660660 19.965446 -60.697828 4.981559 -12.148974 69.643761 7.805430 4.345032 18.551233 5.557527 -0.747070 2.967056 0.736254 2.012823 -6.190080 3.503551 -2.708566 31.551488 -0.036819 4.020716 -9.002072 4.683007 -0.708678 5.542416 -3.498464 -2.021757 -11.116663 -4.479897 -0.341004 -16.571280 -1.759018 -1.824221 13.570297 3.197073 2.049103 0.286016 -3.585699 16.097842 0.764635 -16.548610 -9.488584 2.191310 11.534824 6.168825 -19.017406 6.207063
0.646195 7.148904 7.157015 0.683558 4.445327 2.872856 18.359048 -57.427499 3.314065 -10.185914 65.718088 6.182633 3.521158 21.487274 6.417572 -1.183290 2.707256 0.481662 3.098354 -4.550507 1.957212 -0.472278 38.493227 -3.989304 4.234121 -6.291977 4.871948 -2.204545 1.024464 -2.314316 -2.063826 -11.526745 -3.684838 -0.973694 -15.648775 -2.563931 -2.656532 16.399352 4.052210 1.070151 3.974975 -3.122562 19.161988 -2.934670 -12.452306 -12.420136 5.605755 9.017878 5.641166 -18.219254 5.125047
0.649724 7.170447 7.293906 0.837896 4.254595 2.314913 17.695973 -54.609464 2.646944 -9.442133 62.018018 5.251502 3.039115 23.607850 6.643683 -1.306160 2.200196 0.256775 3.088239 -3.229799 0.747221 0.822189 40.375562 -6.366312 3.147530 -4.421842 3.635815 -2.681399 -1.420932 -1.128050 -1.908273 -11.870395 -2.926650 -1.278832 -14.777698 -2.796293 -3.695432 18.456570 4.404748 0.247745 6.798059 -2.820750 21.607362 -5.832176 -9.495483 -14.800316 8.176659 7.940973 5.120620 -17.328036 4.088187
0.658810 7.202525 7.438003 1.062020 4.033449 2.030162 17.061592 -52.146431 2.207198 -8.950103 58.767748 4.583017 2.483646 24.404966 6.871757 -1.285094 2.221783 -0.044983 2.603831 -2.745728 0.236847 0.426523 40.576494 -6.286026 3.331130 -4.677469 1.558227 -1.478400 -2.249720 -0.788255 -1.765008 -12.103164 -2.211193 -1.303561 -13.554212 -2.644996 -4.595885 19.338976 4.391232 -0.392106 9.044061 -2.909058 22.906228 -7.504120 -8.502744 -16.461217 9.195451 7.824177 4.723177 -16.626384 3.612084
