HIERARCHY
ROOT root.x_01
{
  OFFSET 0.000000 0.000000 0.000000
  CHANNELS 6 Xposition Yposition Zposition Zrotation Xrotation Yrotation
  JOINT spine_01.x_014
  {
    OFFSET -0.000000 13.307266 -0.794591
    CHANNELS 3 Zrotation Xrotation Yrotation
    JOINT spine_02.x_015
    {
      OFFSET -0.000000 13.307244 -0.794592
      CHANNELS 3 Zrotation Xrotation Yrotation
      JOINT spine_03.x_016
      {
        OFFSET -0.000000 13.307250 -0.794591
        CHANNELS 3 Zrotation Xrotation Yrotation
        JOINT neck.x_017
        {
          OFFSET -0.000000 13.307256 -0.794584
          CHANNELS 3 Zrotation Xrotation Yrotation
          JOINT head.x_018
          {
            OFFSET -0.000000 7.751917 -6.922645
            CHANNELS 3 Zrotation Xrotation Yrotation
            End Site
            {
              OFFSET -0.000000 1.937979 -1.730661
            }
          }
        }
        JOINT shoulder.l_025
        {
          OFFSET 6.151655 4.469926 0.616383
          CHANNELS 3 Zrotation Xrotation Yrotation
          JOINT arm_stretch.l_026
          {
            OFFSET 19.570276 1.933021 -3.749396
            CHANNELS 3 Zrotation Xrotation Yrotation
            JOINT arm_twist.l_00
            {
              OFFSET -0.000001 0.000016 -0.000012
              CHANNELS 3 Zrotation Xrotation Yrotation
              End Site
              {
                OFFSET -0.000000 0.000004 -0.000003
              }
            }
            JOINT forearm_stretch.l_027
            {
              OFFSET 17.791137 -12.509128 -0.110407
              CHANNELS 3 Zrotation Xrotation Yrotation
              JOINT forearm_twist.l_029
              {
                OFFSET 9.762117 -5.851599 2.159106
                CHANNELS 3 Zrotation Xrotation Yrotation
                End Site
                {
                  OFFSET 2.440529 -1.462900 0.539777
                }
              }
              JOINT hand.l_028
              {
                OFFSET 19.524242 -11.703169 4.318207
                CHANNELS 3 Zrotation Xrotation Yrotation
                End Site
                {
                  OFFSET 4.881061 -2.925792 1.079552
                }
              }
            }
          }
        }
        JOINT shoulder.r_019
        {
          OFFSET -6.151656 4.469911 0.616383
          CHANNELS 3 Zrotation Xrotation Yrotation
          JOINT arm_stretch.r_020
          {
            OFFSET -19.570268 1.933025 -3.749405
            CHANNELS 3 Zrotation Xrotation Yrotation
            JOINT arm_twist.r_024
            {
              OFFSET 0.000010 -0.000014 0.000014
              CHANNELS 3 Zrotation Xrotation Yrotation
              End Site
              {
                OFFSET 0.000002 -0.000003 0.000004
              }
            }
            JOINT forearm_stretch.r_021
            {
              OFFSET -17.791125 -12.509172 -0.110392
              CHANNELS 3 Zrotation Xrotation Yrotation
              JOINT forearm_twist.r_023
              {
                OFFSET -9.762112 -5.851594 2.159106
                CHANNELS 3 Zrotation Xrotation Yrotation
                End Site
                {
                  OFFSET -2.440528 -1.462899 0.539777
                }
              }
              JOINT hand.r_022
              {
                OFFSET -19.524232 -11.703189 4.318197
                CHANNELS 3 Zrotation Xrotation Yrotation
                End Site
                {
                  OFFSET -4.881058 -2.925797 1.079549
                }
              }
            }
          }
        }
      }
    }
  }
  JOINT thigh_stretch.l_02
  {
    OFFSET 10.562390 1.290604 0.000001
    CHANNELS 3 Zrotation Xrotation Yrotation
    JOINT leg_stretch.l_03
    {
      OFFSET 1.857720 -30.544600 4.926261
      CHANNELS 3 Zrotation Xrotation Yrotation
      JOINT foot.l_04
      {
        OFFSET 2.044592 -29.102913 -0.557761
        CHANNELS 3 Zrotation Xrotation Yrotation
        JOINT toes_01.l_05
        {
          OFFSET -0.011741 -7.383389 13.694362
          CHANNELS 3 Zrotation Xrotation Yrotation
          End Site
          {
            OFFSET -0.002935 -1.845847 3.423590
          }
        }
      }
      JOINT leg_twist.l_06
      {
        OFFSET 1.022295 -14.551469 -0.278882
        CHANNELS 3 Zrotation Xrotation Yrotation
        End Site
        {
          OFFSET 0.255574 -3.637867 -0.069721
        }
      }
    }
    JOINT thigh_twist.l_07
    {
      OFFSET -0.000002 0.000026 -0.000005
      CHANNELS 3 Zrotation Xrotation Yrotation
      End Site
      {
        OFFSET -0.000001 0.000007 -0.000001
      }
    }
  }
  JOINT thigh_stretch.r_08
  {
    OFFSET -10.562390 1.290588 0.000001
    CHANNELS 3 Zrotation Xrotation Yrotation
    JOINT leg_stretch.r_09
    {
      OFFSET -1.857725 -30.544609 4.926271
      CHANNELS 3 Zrotation Xrotation Yrotation
      JOINT foot.r_010
      {
        OFFSET -2.044591 -29.102907 -0.557755
        CHANNELS 3 Zrotation Xrotation Yrotation
        JOINT toes_01.r_011
        {
          OFFSET 0.011733 -7.383391 13.694362
          CHANNELS 3 Zrotation Xrotation Yrotation
          End Site
          {
            OFFSET 0.002933 -1.845848 3.423590
          }
        }
      }
      JOINT leg_twist.r_012
      {
        OFFSET -1.022296 -14.551449 -0.278877
        CHANNELS 3 Zrotation Xrotation Yrotation
        End Site
        {
          OFFSET -0.255574 -3.637862 -0.069719
        }
      }
    }
    JOINT thigh_twist.r_013
    {
      OFFSET -0.000001 -0.000022 -0.000001
      CHANNELS 3 Zrotation Xrotation Yrotation
      End Site
      {
        OFFSET -0.000000 -0.000006 -0.000000
      }
    }
  }
}
MOTION
Frames: 34
Frame Time: 0.03333333
1.525629 66.387497 -4.758414 -1.018196 -2.550345 -0.970513 0.980140 6.239304 4.518320 1.180789 2.760260 -0.191252 -1.483990 -0.724700 -0.861214 -1.791543 4.137877 2.838109 -1.160427 5.708997 3.485648 -0.731664 -3.127638 -1.394656 -29.681910 0.274427 -7.989952 12.664767 -3.662973 -0.299465 -0.289938 -12.796189 -0.367665 -10.787247 3.585335 7.256057 -0.541675 2.567100 -0.369737 2.554236 -2.251668 1.449777 24.209637 -1.406736 39.679964 -31.909911 13.542950 27.165881 2.640591 -0.745590 -8.691905 0.638082 -4.402493 -2.924893 -3.364569 -4.212716 -0.695637 1.020061 -32.782951 -2.572210 -24.522482 53.564325 27.075669 7.389076 -10.355332 -5.390987 2.834413 -7.199590 2.375814 -1.901614 -0.492132 5.203581 -4.057700 -9.115589 -2.503184 5.985581 -3.821840 1.584614 12.947629 54.152846 -20.687585 -4.585895 12.225886 0.450210 -5.633478 -7.397133 -0.979057 -4.441012 3.756211 1.882914 -1.691294 7.502648 -0.052103
1.301001 66.704140 -3.801281 -0.948264 -2.522531 -0.068512 1.225055 5.981355 4.238549 1.135200 2.693243 -0.183665 -1.407114 -0.608644 -0.715951 -1.477072 3.978117 2.534397 -1.173863 5.990611 3.231547 -0.050205 -3.069556 -1.540209 -32.335897 2.585284 -6.126223 13.751768 -5.588815 0.155641 -0.046240 -17.285306 -0.064682 -12.748633 3.833807 8.839226 -0.918948 -0.559096 1.483169 2.444964 -2.265818 1.350503 25.323078 0.311507 40.644615 -33.507781 14.468715 30.120288 1.511542 -0.601378 -8.735699 1.003857 -4.186941 -2.175538 -3.744053 -4.874250 -1.140808 0.222657 -32.359245 -3.873823 -23.172350 52.301713 25.554441 6.835400 -9.847125 -5.093310 3.047617 -7.558411 1.850513 -1.779850 -0.378285 4.487991 -3.951634 -10.018352 -2.459664 5.961732 -5.349143 1.119490 13.621213 55.956602 -21.762603 -3.887399 15.831109 0.948452 -5.258375 -4.076603 -2.092335 -4.210287 3.644737 1.661943 -2.016472 7.828651 -0.121416
1.000105 66.855820 -2.290481 -0.806764 -2.235022 1.014404 1.575264 5.728472 3.680737 0.917741 2.868718 -0.257377 -1.295973 -0.823843 -0.758678 -1.140149 3.582165 2.154875 -1.237014 5.659039 2.928265 0.266675 -2.830984 -1.501042 -36.599318 7.940902 -2.277108 15.750462 -9.102876 0.319579 -2.292592 -17.235388 -0.028629 -14.861002 5.979093 8.475711 -3.340374 -0.170715 -0.665491 2.278865 -2.356695 1.334206 25.682904 2.229376 41.776268 -35.351483 14.565018 32.052997 0.752860 -0.137668 -8.197362 0.979269 -3.878027 -1.478192 -4.075685 -5.420264 -1.806617 -0.750467 -30.260065 -3.961880 -20.323355 50.286165 21.964314 6.819512 -11.099914 -4.949062 2.946986 -6.796505 1.655764 -2.065242 -0.153169 3.827460 -3.541082 -9.160497 -2.053814 5.972168 -6.716500 1.247737 15.152516 57.319990 -23.754551 -2.924809 20.430081 1.335780 -4.214753 0.703959 -2.227127 -3.462536 2.417540 1.010446 -2.389626 8.181586 -0.452859
0.856769 66.625221 -0.306429 -0.638805 -1.631210 1.855316 1.795294 5.647105 3.189740 0.723259 2.719145 -0.287841 -1.336166 -0.802396 -0.973673 -0.851292 3.571179 1.834010 -1.125785 5.499318 2.906446 0.305042 -3.037811 -1.731761 -38.377312 9.346667 -0.525557 16.127249 -9.901271 0.476948 -3.037758 -16.206666 -0.076866 -15.472819 8.265659 6.714702 -4.732512 -0.020322 -0.966446 2.162074 -2.676214 1.299254 25.479618 3.292518 42.591424 -37.343806 15.012553 32.990725 0.945168 1.026627 -7.580168 0.856748 -3.651328 -0.782589 -4.302477 -5.524390 -2.081751 -1.506640 -27.260131 -3.048071 -18.059310 48.478445 19.123642 6.952540 -15.908258 -5.353448 2.512924 -4.620330 1.364992 -2.682033 0.263476 3.232920 -2.990405 -6.685555 -1.251381 5.930497 -7.572529 1.757958 17.674946 59.083219 -26.791234 -0.889975 22.870271 0.977652 -3.971803 4.198004 -1.799773 -2.993920 1.521437 0.289137 -2.430717 8.564768 -0.970199
0.932098 65.855293 2.061163 -0.436425 -0.651098 2.157313 1.918370 5.786788 2.771330 0.662066 2.536776 -0.381624 -1.600011 -1.415421 -0.984312 -0.847689 3.423234 1.554183 -0.942971 5.360820 3.275492 0.405178 -3.398548 -2.321159 -38.547964 8.408315 1.795705 15.760427 -9.792162 0.725133 -2.138391 -14.300732 0.739773 -15.029511 10.954349 6.056666 -4.314133 -0.204576 -0.964412 2.078221 -2.898740 1.046062 25.537889 3.914575 43.897346 -38.823189 15.754746 32.775930 0.918638 2.384975 -7.514292 0.690895 -4.277926 -0.181460 -4.552749 -5.507802 -2.376318 -1.632415 -25.142351 -1.776850 -17.925305 48.621014 18.826136 7.102939 -21.758246 -6.343913 1.959949 -3.060337 1.240795 -3.740898 0.160051 3.218131 -2.653654 -4.727882 -0.800671 6.171709 -8.025201 2.732217 20.187703 60.973737 -30.334637 0.428127 24.890924 0.921386 -3.802198 6.453799 -1.192749 -3.035593 0.472700 -0.007388 -2.604609 8.814870 -1.704421
1.091096 64.483635 4.747452 -0.166849 0.940279 2.188645 2.046055 6.069024 2.331636 0.436763 2.188105 -0.426776 -1.795241 -2.060090 -0.996259 -0.992074 3.310379 1.457642 -1.033410 4.622426 3.256405 0.293691 -3.764815 -2.447782 -37.312607 6.575588 4.021049 15.201044 -9.569654 0.585613 -1.545676 -12.275184 1.989522 -13.354861 12.947870 6.082806 -3.529939 -1.042975 -1.205310 2.014359 -3.332530 0.998715 25.310513 4.264412 45.128524 -40.011753 16.388877 32.919183 1.278700 3.789816 -7.131081 0.449393 -4.776735 0.147220 -5.055790 -5.515858 -2.475094 -2.141574 -24.502718 -1.317821 -19.347634 50.362293 20.451262 7.465618 -26.475140 -6.744330 1.762796 -2.267190 0.959135 -4.616604 -0.733444 3.061912 -2.228209 -3.535040 -0.676573 6.123514 -9.561595 3.482912 22.985643 63.343457 -33.950256 0.670318 25.104215 1.605300 -4.254311 6.543999 -0.674434 -3.677032 -0.654876 0.068637 -2.633844 9.176913 -2.415542
1.293296 63.010323 7.260266 0.277824 1.964388 2.090997 2.290654 6.776691 1.990356 0.151766 2.081210 -0.560641 -1.990196 -2.688395 -0.894737 -1.146619 3.356768 1.336031 -1.194502 3.872909 3.429641 0.219041 -3.991538 -2.446085 -35.279689 5.464337 4.962157 14.203348 -8.813150 0.175580 -1.468010 -9.981685 3.067057 -11.314917 13.684954 5.884823 -3.345352 -1.948670 -1.728121 1.955934 -3.725959 0.924835 24.847043 4.745668 46.387482 -41.442324 16.235672 33.518636 2.218839 5.383140 -6.874181 0.080335 -4.767952 0.556022 -5.762450 -5.688777 -2.620995 -2.728333 -24.125293 -0.966110 -21.839102 53.083558 23.061321 8.059931 -30.050670 -6.521848 1.692296 -2.298271 0.957228 -5.449778 -1.753694 2.685508 -1.837715 -2.195870 -0.705401 6.002651 -12.151170 4.177807 26.798873 66.716757 -38.409450 0.259751 23.045975 3.121472 -4.473683 5.182416 0.016839 -3.882924 -1.883101 0.699462 -2.397996 9.738443 -3.288482
1.353522 61.556137 9.975179 0.582388 2.798106 2.371431 2.535929 7.584765 1.218504 0.104193 2.042813 -0.699539 -2.224307 -3.081713 -0.635357 -1.292018 3.297137 1.088054 -1.538836 3.109459 3.415167 -0.045845 -4.272581 -2.226672 -33.475847 5.117073 4.904977 13.374537 -7.867870 -0.341210 -1.971796 -8.508583 3.815984 -9.844236 14.189955 5.576911 -3.214607 -2.460766 -2.473221 1.723291 -4.230930 0.569857 24.718400 5.409067 47.532879 -42.342521 15.756630 33.990660 3.261222 7.080067 -7.004445 -0.156753 -4.524846 0.685047 -6.112248 -6.101673 -3.122132 -3.503656 -23.605759 -1.042797 -24.007717 55.688507 25.640748 8.459465 -33.743989 -6.438719 1.700064 -2.991820 1.165731 -5.780150 -2.698606 1.868539 -1.393735 -1.545203 -0.590529 5.838889 -15.522657 4.687006 33.341902 69.784028 -45.827932 -0.388243 20.511742 4.002196 -4.659261 1.183503 -0.758699 -3.759645 -1.760548 0.704425 -1.901111 9.692185 -3.859967
1.372750 60.378155 12.395025 0.721901 3.311663 2.314571 2.652846 8.054113 0.968523 0.314695 2.258098 -0.715679 -2.443586 -3.252835 -0.529206 -1.397311 3.575163 0.924817 -1.739377 2.519644 3.366335 -0.376482 -4.547529 -2.040465 -32.193077 5.282920 4.332987 12.808055 -7.323059 -0.759077 -2.159437 -6.799336 4.369691 -8.468071 14.574224 5.480633 -3.264787 -3.413399 -3.320648 1.886075 -4.715576 0.428961 24.483828 5.972325 47.658882 -42.309809 15.024797 32.969687 4.732403 9.054873 -7.751477 -0.506048 -3.643995 1.110590 -6.289499 -5.866001 -3.685829 -3.836794 -22.054144 -1.171119 -25.199695 57.344223 27.277369 8.088601 -37.605246 -6.798303 1.804536 -3.607000 1.361897 -5.846435 -2.595361 0.849198 -0.877695 -0.705205 -0.649415 7.328993 -15.091904 5.728620 32.977475 70.141111 -46.128270 -0.850449 13.966567 3.033181 -4.245718 0.138155 -0.998252 -3.715262 -1.659687 0.973947 -1.660014 8.665975 -4.203273
1.378643 59.241764 14.387148 0.830577 3.591825 2.545333 2.742713 8.066459 0.842585 0.367240 2.370735 -0.943993 -2.445690 -3.466391 -0.394958 -1.469585 3.795186 0.890520 -1.916284 2.702137 3.200992 -0.467667 -4.691233 -1.965879 -31.911386 5.919094 4.110377 12.854620 -7.382045 -1.050108 -2.387486 -5.862094 4.627978 -7.097101 15.487701 5.438564 -3.211204 -4.119483 -4.538037 2.206440 -4.947308 0.555069 24.203940 6.895664 47.391488 -41.825459 14.635663 32.275693 5.190647 10.555455 -8.920563 -0.580479 -3.111393 1.230586 -6.341878 -5.813267 -4.598027 -4.052629 -19.823697 -1.361068 -26.031004 58.554064 28.050594 7.680805 -41.083322 -6.753205 1.962968 -4.852681 1.721651 -5.889141 -2.174568 -0.033778 -0.192001 -0.284262 -0.491314 9.415644 -15.337211 7.004107 34.706789 71.074733 -48.456896 -0.870502 5.215657 1.357844 -3.171232 -0.239024 -0.776068 -3.405854 -2.594197 1.290747 -1.516335 8.594110 -4.171713
1.319215 58.101639 16.390425 0.805507 4.043384 2.930982 2.718180 7.752307 0.678906 0.387631 2.427040 -1.297946 -2.499217 -3.622631 -0.178158 -1.408350 3.965236 0.814062 -1.745934 2.840973 2.766582 -0.542618 -4.699856 -2.211395 -31.595993 6.398673 3.417188 12.678268 -7.193663 -1.641573 -2.516724 -5.197357 5.270280 -5.722581 15.798934 5.014105 -2.738367 -5.382143 -5.453062 2.470236 -4.866598 0.369598 23.965737 7.356497 47.675851 -41.347474 14.425675 32.283719 5.701257 11.812638 -10.681145 -0.643023 -2.618407 1.659484 -6.555908 -5.391233 -4.798556 -4.008345 -17.240929 -0.572414 -26.328982 59.261452 27.725133 7.123500 -43.664400 -6.717965 2.411416 -7.030688 2.200997 -7.079723 -3.515192 -0.884456 0.152153 -0.381990 -0.831513 11.769822 -17.646370 9.170822 39.726616 72.615549 -54.432237 -1.110828 -0.001311 -0.631877 -1.879258 -0.602653 -0.669711 -2.846854 -3.922085 1.550807 -1.783425 9.376212 -3.717481
1.211388 56.886166 17.789353 0.697727 4.696354 2.980804 2.375505 7.256825 0.565449 0.448283 2.563782 -1.053926 -2.305139 -3.914387 -0.092791 -1.222655 4.048241 0.608146 -1.458359 2.931685 2.104837 -0.375413 -4.512800 -2.304240 -31.333210 6.321077 2.246771 12.629297 -7.002572 -2.035877 -2.685124 -4.568478 6.121384 -4.902033 15.916301 3.989097 -2.018560 -6.470513 -6.132594 2.671163 -4.602706 -0.119581 23.392010 7.432339 48.285511 -40.472789 14.409342 31.718844 6.489453 12.858696 -12.017911 -0.597410 -2.196210 2.156395 -6.886881 -5.182158 -4.501551 -2.811974 -15.684347 1.067531 -29.567322 60.552794 30.394513 5.586993 -45.850092 -8.619564 3.267675 -9.843970 2.763026 -7.402864 -2.141082 -0.664326 0.020401 -0.660311 -1.154112 14.439550 -22.871214 11.262754 49.560596 75.399334 -64.698272 -1.678159 -3.103332 -2.051327 -0.783798 -1.041693 -0.605663 -3.020328 -4.661742 1.809799 -2.344795 10.418618 -2.589919
1.145101 55.434776 19.058243 0.947653 6.247772 2.812029 1.544330 6.634223 0.543905 0.428045 2.779749 -0.887311 -2.164223 -4.341452 -0.069177 -0.955418 3.971300 0.191923 -1.127449 2.831920 1.825783 -0.024289 -4.284512 -2.542567 -31.161313 6.121571 0.537305 12.506478 -6.502604 -2.493287 -2.836006 -3.675799 7.566440 -4.574672 15.604962 2.390117 -1.328091 -7.666116 -6.771761 2.942163 -4.345030 -0.798929 22.426892 6.909469 49.212482 -40.023947 14.734853 30.384002 7.779917 13.841884 -13.799418 -0.626521 -2.140424 2.786406 -7.464511 -5.446843 -4.441147 -2.251529 -15.777809 2.437579 -33.199240 62.855241 34.672677 3.399629 -47.513602 -11.020104 4.245807 -13.016642 2.990424 -6.591293 -2.931545 -0.102649 -0.122937 -0.746756 -1.052645 17.330460 -32.423269 13.199990 75.373346 79.495885 -90.707941 -2.081963 -6.109645 -2.615966 0.442406 -0.516649 -0.860690 -3.064676 -5.217778 1.787112 -3.407879 11.525279 -0.899997
1.080606 53.455170 20.412092 1.560089 9.202082 2.257230 0.684014 5.540436 0.357680 0.298871 3.109343 -0.746955 -2.105103 -4.855582 0.055257 -0.586553 3.681511 -0.089230 -0.955871 2.305617 1.613579 0.081495 -4.213513 -3.216433 -30.546074 4.813030 -1.470832 11.964318 -5.505479 -2.616428 -2.845612 -2.785107 9.240481 -4.391656 15.330377 1.582739 -0.555644 -8.504744 -6.963330 2.888516 -3.971310 -1.183649 20.587487 5.718502 49.172126 -39.611908 14.156257 27.429655 9.884665 14.302565 -16.688147 -1.085768 -2.524480 3.683804 -7.536658 -5.885434 -4.914128 -2.323975 -17.528054 3.180875 -39.120282 65.592907 40.309763 2.586366 -48.929725 -11.496009 4.974758 -15.904519 1.965694 -5.890383 -5.531580 -0.163128 -0.402185 -0.785873 -0.637692 22.322794 -45.825495 16.921023 123.253375 79.931975 -137.945631 -2.568197 -8.215794 -3.184237 1.284623 -0.144338 -1.673612 -3.541729 -5.227046 1.460187 -4.826293 12.809251 1.100476
1.100244 50.940529 22.124409 2.191614 13.278965 1.585408 0.065311 3.738113 0.107938 0.093140 3.541823 -0.775328 -2.031799 -5.362800 0.159205 -0.075415 3.361345 -0.476323 -1.035462 0.879461 2.307394 0.376355 -3.816645 -3.995882 -29.581150 3.325840 -4.496668 11.231884 -3.959984 -2.581423 -3.187853 -2.268149 11.244951 -4.126277 14.891416 1.655621 -0.408449 -9.151703 -6.795518 2.693409 -3.628475 -1.621192 16.412323 3.423105 44.938714 -36.825402 11.517853 21.698992 13.804205 14.962451 -15.776523 -2.314723 -2.383229 3.921921 -7.405182 -6.334402 -4.841667 -2.899285 -21.551969 3.745572 -49.985626 69.055188 51.519412 2.227993 -52.829382 -12.178706 5.009511 -17.175824 1.016393 -4.584360 -6.715642 -0.315533 -0.179960 -0.219675 -0.095896 32.548332 -60.297031 26.778788 148.829940 75.951207 -162.746001 -2.894896 -9.329289 -2.883038 0.631628 1.538565 -2.343811 -3.995539 -5.750752 1.882467 -5.300435 9.156290 1.525717
0.936239 48.431396 23.776905 2.725863 19.022482 1.732408 -0.273451 0.425489 -0.816598 0.119373 3.839429 -0.918261 -1.958620 -5.788564 0.154213 0.591696 2.781222 -0.444055 -1.102717 -0.712521 3.118023 0.891206 -2.948296 -4.978979 -28.152674 1.111592 -7.281592 10.092590 -1.989549 -2.078841 -4.342012 -2.070059 12.208187 -3.466605 14.859767 1.757777 -0.979004 -9.971704 -6.682119 1.844867 -3.406472 -2.482569 11.395420 0.074923 37.852059 -30.328811 7.694290 14.636446 18.383877 16.781538 -12.635244 -3.631596 -2.778649 4.357235 -7.351130 -6.757323 -4.921196 -3.119976 -29.129712 4.135929 -69.322213 71.908895 72.460821 -0.244489 -56.501952 -15.246907 5.400987 -19.603195 0.193777 -2.387740 -7.877992 -0.547219 -0.177429 0.214413 1.231943 61.789513 -74.005147 56.012107 159.239817 73.630770 -171.071147 -2.995093 -9.033561 -2.556531 -0.900031 0.729525 -2.355815 -4.261282 -6.367460 2.403687 -5.410294 5.996601 1.392407
0.577979 47.856544 23.781186 2.689595 24.770309 3.754760 -0.336144 -2.152611 -1.884415 0.111136 4.409723 -1.445596 -1.704238 -5.878788 -0.526699 1.221536 3.132718 -1.150704 -0.992283 -2.871341 4.244544 0.792971 -3.084123 -6.802981 -26.269931 -1.555889 -9.082649 8.762629 -1.101957 -1.814304 -5.056705 -2.060722 12.140405 -3.438213 15.111983 1.640504 -1.770420 -10.505928 -6.649164 1.289439 -3.170446 -3.380512 7.551349 -5.157488 31.965073 -24.358748 3.470957 7.665709 21.691668 19.508728 -10.326275 -4.691621 -4.418073 4.822704 -7.399926 -6.925000 -4.649452 -2.640092 -38.628838 3.366635 -84.180547 71.847917 89.571379 -1.758243 -51.529244 -18.280858 6.509443 -26.109858 0.158972 -0.674792 -8.643846 -2.091123 -0.113006 2.395212 2.291085 111.357786 -76.779198 106.537729 156.429188 77.686347 -166.178439 -2.620139 -6.809862 -1.633771 -1.705637 0.011887 -1.446410 -3.624619 -5.223374 2.801790 -5.858075 3.502702 2.210058
0.177289 46.535378 24.145281 1.718269 31.308878 6.465030 -0.229319 -4.143156 -2.749217 0.352075 4.760005 -1.937827 -1.258915 -7.153330 -1.350941 1.795229 3.170754 -2.109477 -0.631685 -4.844087 5.134939 0.660243 -2.390928 -8.099613 -24.129039 -4.793624 -11.294649 6.854378 -0.614606 -0.576810 -5.241633 -1.323061 13.073632 -4.245733 15.474597 1.050551 -1.623812 -10.343942 -6.670946 0.639658 -2.572590 -4.899019 4.144723 -10.660490 26.608880 -19.315908 -1.482151 3.268653 24.189872 22.655888 -7.853718 -5.816218 -6.791556 4.817590 -7.754746 -8.504827 -3.784153 0.036513 -45.760987 3.626616 -84.242432 70.710244 92.267823 -2.370150 -42.720519 -19.702403 4.389597 -30.549461 0.238859 0.241491 -7.638546 -2.553236 0.231690 3.174614 2.955526 139.746805 -73.197553 135.025037 127.482216 84.091882 -134.733262 -3.017164 -3.705251 -1.257672 -1.994829 2.297606 -0.200896 -5.113940 -1.924048 3.503216 -6.565550 3.239895 4.687267
-0.175694 42.518410 26.509951 0.235750 39.898439 8.165766 0.153844 -6.749785 -2.289753 0.024257 4.901470 -1.666943 -1.321495 -8.226074 -1.704853 2.185700 1.408861 -2.789660 -0.633584 -7.680326 5.411923 0.359273 -1.760537 -8.454491 -21.870846 -9.398298 -15.474579 5.722392 0.482533 1.269357 -4.772512 -0.217901 14.513348 -5.411452 15.319066 -0.007440 -1.800168 -10.914315 -7.168165 0.550133 -1.485575 -5.188231 2.214454 -13.805890 21.554772 -16.564953 -6.152724 -0.635626 26.043861 27.655686 -7.926065 -7.165175 -8.417425 4.303632 -8.078585 -10.767849 -3.486740 6.619372 -47.089172 9.451091 -90.567097 70.267499 101.453745 -7.639283 -40.651677 -22.054882 -4.580877 -28.876532 1.466968 -1.169237 -6.365908 -1.582329 1.464745 3.996482 0.710265 124.112184 -75.325437 117.620741 82.919738 80.848732 -90.836254 -7.697565 -5.600298 -2.117428 -6.652842 1.744098 -1.338620 -9.668844 0.998077 3.998575 -7.724719 2.787126 5.719154
-0.809366 37.088715 29.566127 -1.164174 49.136311 8.479076 0.654725 -8.906675 -1.141205 -0.682560 4.784099 -1.088970 -1.749735 -9.092239 -1.708104 2.712254 -2.254563 -3.116594 -0.516205 -10.530024 5.977900 0.146417 -2.135972 -9.246003 -18.938963 -14.468295 -15.888048 5.735413 1.070879 1.503145 -4.194936 0.692012 14.380168 -6.612405 15.445970 -0.307634 -3.324161 -12.317653 -7.962821 0.503633 -0.187197 -5.009876 0.274131 -14.080987 15.694011 -13.330844 -10.606958 -3.341023 24.831236 31.591349 -6.849598 -8.565615 -10.263724 1.946232 -7.196019 -12.595138 -3.067654 13.839478 -45.513011 16.325030 -93.156406 69.421866 106.394352 -8.455419 -26.186226 -14.329365 -19.030954 -11.861489 0.694265 -2.708599 -4.314088 -2.001853 2.934059 4.922446 -1.001310 72.910064 -73.562397 65.757483 66.797711 74.627284 -74.719119 -3.934387 -3.479097 -4.685405 -10.724800 1.072271 -3.942378 -13.088093 3.165916 1.916737 -8.956379 6.242223 2.540432
-1.542081 32.323685 33.561898 -2.649763 58.561117 8.477809 1.118193 -10.831149 0.104256 -0.958127 4.594320 -0.524146 -1.974295 -9.578143 -1.673143 2.991794 -6.399592 -2.985473 -0.768826 -12.389323 7.208068 -0.670813 -2.437486 -10.203421 -14.187041 -19.382332 -11.784038 6.218396 0.471789 0.516795 -3.749510 0.143349 14.183141 -6.586959 15.987854 -0.816273 -6.861949 -13.515581 -9.847792 0.185464 1.130466 -5.041162 -1.637229 -11.163457 9.577586 -9.602621 -16.395592 -3.035422 21.064289 30.794324 -1.496977 -8.770539 -9.870128 0.280493 -6.387319 -11.911326 -3.071421 18.700585 -40.388885 20.196705 -91.159573 66.426696 105.611038 -8.235943 -10.223713 -11.064039 -19.171377 -2.393580 -6.453984 -4.433312 -1.857696 -3.089796 3.368217 2.046013 -0.833556 42.944466 -60.940864 35.487439 48.231238 68.362688 -51.954426 0.028949 0.078936 -4.626972 -8.971201 -2.816698 -4.097356 -13.802124 0.600830 0.740907 -9.936890 10.764706 -0.646799
-1.831369 28.121624 36.961092 -4.155952 67.231345 9.663163 1.621403 -10.744423 0.482830 -1.013189 3.905320 -0.369757 -2.153413 -9.841848 -2.065324 2.861002 -11.061478 -2.963792 -1.020144 -14.208116 7.544014 -2.596012 -2.753309 -11.221161 -8.237709 -23.787250 -4.359772 7.309844 0.688145 -0.138082 -2.174607 0.798967 14.687676 -4.006573 18.012403 -4.197719 -8.981458 -14.515350 -9.984267 -0.227034 1.072660 -4.548471 -2.210598 -4.776694 5.466181 -6.474911 -23.191685 -1.230611 16.491409 25.563669 4.867124 -8.307255 -6.439033 -0.902695 -5.224474 -9.706244 -3.042365 17.540616 -32.308079 19.575353 -74.862219 61.965446 90.319647 -4.378767 6.971698 -13.651081 -12.854674 2.082512 -11.186454 -5.381168 0.483829 -3.486444 3.033934 0.469423 2.999067 26.752029 -41.603673 17.228643 21.286802 53.852100 -22.160101 5.744667 10.465342 -5.541308 -9.154746 1.582069 -4.429857 -10.819007 0.835070 1.973951 -8.833189 10.803332 -2.965027
-2.153706 20.965584 40.494298 -10.005128 72.981038 15.582543 1.904999 -9.105346 0.151740 -1.179432 2.459342 -0.837866 -2.280199 -9.964971 -2.743579 3.260562 -16.450054 -3.016507 -0.656305 -12.401892 4.947956 -2.862161 -1.495967 -12.623713 -1.775933 -26.401601 2.618244 8.681138 0.237379 0.008643 -1.568800 4.167810 16.107841 -2.256717 19.704454 -10.187559 -5.972036 -11.537005 -6.849905 -0.124188 1.297566 -3.218531 -0.232090 -0.357551 4.769697 -5.933250 -24.817091 0.418620 13.031099 21.734667 7.537731 -8.298653 -3.224614 -1.313630 -4.435808 -6.196224 -2.805119 18.103382 -21.150108 20.072296 -57.999032 56.831019 70.078671 -3.264303 18.931864 -16.094337 -5.914140 4.483287 -8.261949 -6.449783 -2.898087 -3.236551 3.470841 -1.608441 6.344791 20.475216 -26.232885 9.997503 16.033310 38.648643 -11.607552 12.797214 24.122760 -4.772543 -5.801179 11.292825 -5.517751 -7.939443 3.197710 3.378956 -6.449694 6.083779 -5.794588
-2.099741 15.054592 42.909457 -15.654309 74.218506 21.562503 1.965329 -5.388012 -1.278594 -1.109676 2.267473 -2.146575 -1.590155 -9.874414 -2.736105 5.385541 -20.754979 -2.133633 0.080474 -9.064850 2.106780 -1.485317 -1.171006 -13.508094 1.673631 -25.726957 9.310568 8.484461 -1.311275 0.144275 -1.199469 4.662319 16.062679 -3.883151 18.904819 -11.939363 -5.694657 -10.845552 -5.826148 0.166256 1.738129 -0.998108 0.637804 0.913470 7.996533 -7.892829 -23.856978 0.661508 12.844044 19.553665 5.395569 -9.060512 -1.455597 -0.462101 -3.980989 -3.627091 -1.955036 20.589119 -8.993932 21.693062 -46.689934 54.743227 53.431974 -5.284141 23.886361 -17.894431 -5.143679 0.061369 -5.428399 -8.396688 -8.306004 -0.565012 2.438649 -4.810868 11.139963 16.616838 -11.359358 4.006020 15.176715 26.996192 -4.823926 17.634686 28.618447 -3.359692 -0.722142 12.548070 -6.798339 -5.343729 2.970240 2.102096 -2.664434 1.940577 -6.293734
-1.388588 16.525826 42.928183 -18.776944 77.288425 22.764164 0.889038 -3.052095 0.422925 -0.604984 3.155939 -1.935181 -1.166096 -9.899253 -3.318282 7.711860 -21.313358 -1.888644 0.059964 -8.494699 1.476859 -0.025609 -2.038830 -13.987565 -0.140050 -27.982086 11.737596 8.655001 -1.096339 2.956085 -0.135702 -2.799824 9.359490 -6.023333 15.734860 -3.254830 -5.891987 -7.729222 -8.143185 0.371949 0.528128 1.532623 0.596905 -2.044773 12.580643 -9.392080 -20.415039 1.936781 15.088764 19.816851 1.349569 -10.018441 0.560075 1.530698 -4.698361 -3.150581 -1.828295 18.106997 -8.641896 16.525350 -38.716482 53.286105 45.458460 -5.626594 29.364359 -16.511301 -2.700496 -4.804387 -4.280564 -8.462642 -9.786440 1.171402 3.719600 -4.667690 8.896178 14.208580 -9.460719 6.537098 17.791630 25.294637 -6.818679 17.192192 30.282295 -0.776471 1.674149 9.609792 -2.283502 -5.378407 0.055400 2.108606 -1.349131 -0.526682 -7.921787
-1.044250 18.097935 43.346391 -27.658381 80.758049 32.169134 0.051258 -2.186905 1.445276 -0.283950 3.255176 -2.004765 -1.165805 -9.785119 -4.276052 8.764540 -18.724026 -1.779177 -0.254599 -7.054820 0.277221 0.526642 -2.435672 -15.328272 0.656087 -32.571554 13.829058 7.984798 0.729110 6.023943 1.105911 -7.061671 4.508996 -6.086641 8.766685 5.334484 -4.948014 -5.829563 -9.548459 0.510070 -1.591939 2.560433 -0.112951 -5.648222 18.196530 -8.366494 -15.484726 3.422262 19.529832 22.375650 -2.937818 -11.960843 0.835089 3.033046 -4.188325 -3.567417 -2.510168 15.204342 -13.315706 11.732089 -32.632074 48.886792 39.601793 -8.876223 27.898387 -15.589989 -6.205529 -11.496456 -5.233102 -7.374916 -6.835971 2.845573 5.176306 -1.991246 6.340284 13.705806 -13.076503 9.728034 18.217911 24.587271 -8.232196 15.782045 31.375224 -0.559266 1.891587 7.834393 3.053801 -4.496296 1.079951 1.585650 -1.322203 -1.525655 -8.943249
-1.008948 18.465462 43.838643 -45.829868 83.718489 50.640265 -0.458962 -1.578735 1.870614 0.098763 3.400425 -2.050616 -1.089306 -10.007867 -4.768632 8.589988 -15.719523 -1.116289 0.413994 -7.158915 -0.749653 0.764519 -3.992623 -15.504581 2.189653 -36.337873 15.889664 7.025337 2.350830 6.185722 0.908866 -6.459971 2.374333 -2.684595 -0.700771 12.384183 -7.099839 -5.418590 -12.640221 0.414177 -4.101139 2.132473 -0.174414 -9.848527 22.593573 -7.878366 -12.806853 5.149559 24.214807 23.888635 -7.560080 -14.057968 -0.467790 4.745603 -3.129508 -4.909706 -2.777947 12.765475 -18.623762 11.193809 -30.212780 43.084971 37.417982 -19.462421 7.839443 -19.045555 -10.100150 -16.870560 -9.996056 -6.530162 -12.779827 2.911422 2.919028 -0.350120 5.182162 14.915375 -18.463977 14.033092 18.661236 26.634093 -8.548639 14.542165 31.848130 1.436252 0.209729 6.767412 5.665641 -4.849083 2.957898 3.285238 -1.590091 -0.210775 -9.629228
-1.078671 18.408978 44.608240 -95.687486 85.738624 100.840277 -1.338216 -1.908498 2.008284 0.491443 3.550846 -2.053823 -0.882719 -10.312335 -5.040733 8.287546 -12.967144 -0.758938 1.849244 -6.459473 -1.671615 0.907015 -5.351329 -14.401598 3.864155 -40.345785 18.676550 7.246998 4.689143 5.115773 2.995716 -4.982828 2.046050 3.285953 -11.098744 20.802973 -7.746551 -4.273826 -12.542214 0.685474 -6.889326 0.702973 -0.750618 -15.176320 27.068844 -8.324464 -13.041021 5.078061 29.787322 24.905836 -12.860225 -16.046213 -2.705773 5.063184 -2.492203 -6.816364 -2.984748 12.790487 -23.719703 11.965968 -29.277260 43.071535 37.767454 -19.653176 8.902492 -20.841910 -6.187575 -12.537864 -4.888521 -6.737543 -18.574376 0.793405 1.718495 1.490864 5.126021 16.978065 -25.367170 19.312954 19.246159 28.666378 -7.846438 14.542207 30.164800 1.946530 -0.201290 7.706541 5.447513 -5.579712 6.354192 3.760218 -0.972942 2.713770 -10.358780
-1.152466 17.077408 45.177662 -140.958307 83.804617 146.745685 -2.189132 -2.532275 1.679055 0.749876 3.863607 -2.247971 -0.598335 -10.019137 -5.116030 8.036925 -11.845660 -1.093155 4.085141 -6.631907 -1.987236 1.181933 -7.054352 -13.185294 5.396633 -44.937743 22.294688 8.431011 6.099490 3.803416 9.299496 -4.037967 1.610098 10.604856 -21.441014 30.083554 -7.531698 -4.175905 -10.073847 0.681944 -9.602349 -0.182936 -2.454989 -20.896317 28.942275 -9.593279 -15.789015 2.354444 34.840342 25.609656 -18.198890 -17.692778 -2.822436 3.502804 -3.396697 -9.234891 -3.663926 12.091769 -30.315509 12.618208 -31.238132 44.761954 41.924000 -17.610823 12.269538 -21.607255 -6.974910 -8.482844 -0.779660 -5.024106 -16.254683 -0.172675 0.504271 2.999098 5.510032 19.252408 -32.389696 23.979395 18.789240 28.836930 -6.216284 13.641961 30.103204 2.882441 0.712278 7.186644 2.674511 -6.860235 8.900343 2.700508 0.195712 4.393176 -11.562792
-1.233489 14.718784 46.471372 -157.923325 80.972508 164.054512 -3.073840 -2.269988 1.205362 0.675773 4.410332 -2.760888 -0.262954 -9.711529 -5.315843 8.038100 -10.789799 -2.149042 6.126298 -5.985543 -2.153515 1.201082 -8.794637 -11.874159 8.547374 -50.961216 28.648242 10.406397 6.452402 3.121284 21.214079 -7.069188 0.136440 13.745450 -26.544733 33.949865 -7.834474 -4.538134 -7.333635 0.355341 -11.223189 -0.725802 -6.919043 -23.229309 24.673450 -8.942069 -17.848889 2.064681 38.225719 26.223126 -18.413807 -18.155084 3.217199 -2.356461 -6.282885 -12.728330 -5.854739 11.447066 -35.829348 12.696690 -37.236354 45.506926 49.215068 -13.535167 18.403328 -22.943883 -6.370725 -0.790761 3.521387 -5.177717 -13.701351 -0.943336 0.090094 4.106008 5.787395 21.583454 -35.357993 28.633637 13.918682 21.833279 0.153668 11.370199 32.301070 3.473913 0.239508 7.054550 0.908878 -8.426155 12.296776 1.645974 1.934295 3.886682 -11.557033
-1.094175 12.111565 47.727182 -163.607114 76.932442 170.356673 -3.206962 -2.360130 1.231312 0.464493 5.055908 -3.972472 0.632138 -9.507361 -4.682227 7.490314 -10.724077 -3.862341 7.265403 -5.203558 -3.503936 1.297709 -12.315188 -10.221439 8.168783 -56.944769 32.044093 12.429660 5.863074 2.410718 33.446192 -12.486019 -0.217709 10.426714 -28.961838 32.448565 -10.739135 -3.512278 -8.068134 -1.040298 -13.336229 -1.897884 -14.259875 -18.775345 15.459574 -6.321827 -15.596283 5.529756 41.646657 24.484263 -13.437313 -18.565273 10.332816 -9.455250 -8.452896 -17.860558 -7.485567 11.827419 -39.797827 12.658862 -50.358895 47.302568 55.545119 -6.879513 23.914166 -29.750996 -1.978164 11.281586 2.869152 -5.800640 -11.193221 -3.386328 0.428375 2.246475 4.960956 20.802415 -32.961744 32.311045 9.791950 6.608960 7.867893 7.165159 34.162864 7.689628 -3.004899 9.929936 0.537166 -11.264340 17.098436 4.471037 3.738046 2.992874 -7.677034
-0.674256 11.808941 48.379304 -164.547443 76.280142 169.740894 -3.362044 -1.431104 2.083425 -0.279280 6.566893 -4.003967 2.450521 -8.725938 -3.696877 6.660271 -8.655166 -4.476259 6.132041 -4.036889 -4.152546 0.845393 -15.459232 -8.079498 5.303822 -58.968792 31.297074 13.305313 7.199144 5.560555 33.697395 -14.965420 -3.378648 12.845677 -30.213837 32.414805 -9.651833 -4.415216 -7.619080 -2.465793 -18.252491 -2.508413 -19.237519 -12.686493 10.358798 -3.755804 -15.075907 7.477871 43.220704 21.434094 -9.403321 -13.782612 11.547173 -12.388013 -6.529166 -19.039342 -6.820603 14.593313 -38.003869 14.009048 -52.635964 44.924900 54.795653 -2.896270 30.109409 -35.599430 -1.439910 15.083028 1.702980 -5.341700 -15.315702 -4.998507 0.893722 1.701856 3.945614 20.702080 -29.748782 35.628459 6.765847 1.482854 11.400940 11.703495 39.032583 1.816136 -2.083804 8.937310 0.188674 -12.920209 17.793054 6.106487 2.523117 2.710743 -5.206298
-0.415645 12.100174 48.589851 -165.447269 75.641228 168.658145 -2.422348 -1.446371 1.974467 -0.854440 8.405372 -3.936029 1.985169 -10.421859 -1.092016 6.759867 -7.711413 -4.522849 5.866682 -2.382297 -5.843833 2.328616 -16.647628 -7.083783 1.822215 -59.297434 30.227295 13.035079 8.460493 9.571058 33.121713 -15.159321 -5.045161 15.692284 -33.178939 34.175147 -9.290402 -5.594761 -7.413018 -3.335950 -19.834928 -2.974215 -20.119129 -10.442562 9.875533 -2.087680 -13.032358 10.053953 44.697919 19.761599 -10.589258 -12.096954 10.851542 -13.805375 -5.626632 -20.233376 -6.175967 17.227513 -35.201273 14.299319 -54.644387 40.608474 55.164644 3.746561 34.412883 -41.236039 0.869139 10.238545 3.148561 -2.954259 -14.171422 -5.441307 0.632284 1.094012 4.677834 20.595351 -24.436828 38.153264 4.431182 -2.396220 11.206269 10.276604 36.400442 -2.070483 3.420728 19.204200 5.533950 -13.722866 14.458572 7.677704 1.307038 3.906886 -5.234246
-0.534651 12.550465 48.919647 -166.805011 75.955635 169.427906 -3.474972 -1.776810 3.706152 -0.047611 9.331365 -5.474956 2.103104 -10.755662 -0.617786 6.747850 -8.082435 -4.280365 5.977444 -3.120535 -5.721876 2.316492 -16.775490 -6.948770 1.386250 -59.096467 29.661071 12.934355 8.048764 11.532419 32.843480 -14.976363 -5.180083 17.224292 -34.928780 35.645337 -9.303445 -6.376142 -7.035737 -3.597354 -20.758740 -2.944085 -20.661353 -9.326703 9.632925 -1.224613 -12.758531 10.168243 45.151113 19.355426 -11.867393 -12.653573 9.773231 -14.044798 -5.003492 -21.515640 -4.935508 16.610422 -35.130699 13.956206 -54.917712 40.642998 56.547453 6.011074 34.461936 -43.269432 1.573974 8.503313 2.758133 -1.381682 -14.572144 -5.230027 0.986881 1.299410 3.571002 19.292232 -23.442662 38.041257 4.867297 -2.347604 10.380465 9.761146 34.880603 -1.043511 5.563692 21.392439 6.895578 -13.172348 12.831473 7.406754 0.636893 3.370002 -4.442335
