HIERARCHY
ROOT root.x_01
{
  OFFSET 0.000000 0.000000 0.000000
  CHANNELS 6 Xposition Yposition Zposition Zrotation Xrotation Yrotation
  JOINT spine_01.x_014
  {
    OFFSET -0.000000 13.307266 -0.794591
    CHANNELS 3 Zrotation Xrotation Yrotation
    JOINT spine_02.x_015
    {
      OFFSET -0.000000 13.307244 -0.794592
      CHANNELS 3 Zrotation Xrotation Yrotation
      JOINT spine_03.x_016
      {
        OFFSET -0.000000 13.307250 -0.794591
        CHANNELS 3 Zrotation Xrotation Yrotation
        JOINT neck.x_017
        {
          OFFSET -0.000000 13.307256 -0.794584
          CHANNELS 3 Zrotation Xrotation Yrotation
          JOINT head.x_018
          {
            OFFSET -0.000000 7.751917 -6.922645
            CHANNELS 3 Zrotation Xrotation Yrotation
            End Site
            {
              OFFSET -0.000000 1.937979 -1.730661
            }
          }
        }
        JOINT shoulder.l_025
        {
          OFFSET 6.151655 4.469926 0.616383
          CHANNELS 3 Zrotation Xrotation Yrotation
          JOINT arm_stretch.l_026
          {
            OFFSET 19.570276 1.933021 -3.749396
            CHANNELS 3 Zrotation Xrotation Yrotation
            JOINT arm_twist.l_00
            {
              OFFSET -0.000001 0.000016 -0.000012
              CHANNELS 3 Zrotation Xrotation Yrotation
              End Site
              {
                OFFSET -0.000000 0.000004 -0.000003
              }
            }
            JOINT forearm_stretch.l_027
            {
              OFFSET 17.791137 -12.509128 -0.110407
              CHANNELS 3 Zrotation Xrotation Yrotation
              JOINT forearm_twist.l_029
              {
                OFFSET 9.762117 -5.851599 2.159106
                CHANNELS 3 Zrotation Xrotation Yrotation
                End Site
                {
                  OFFSET 2.440529 -1.462900 0.539777
                }
              }
              JOINT hand.l_028
              {
                OFFSET 19.524242 -11.703169 4.318207
                CHANNELS 3 Zrotation Xrotation Yrotation
                End Site
                {
                  OFFSET 4.881061 -2.925792 1.079552
                }
              }
            }
          }
        }
        JOINT shoulder.r_019
        {
          OFFSET -6.151656 4.469911 0.616383
          CHANNELS 3 Zrotation Xrotation Yrotation
          JOINT arm_stretch.r_020
          {
            OFFSET -19.570268 1.933025 -3.749405
            CHANNELS 3 Zrotation Xrotation Yrotation
            JOINT arm_twist.r_024
            {
              OFFSET 0.000010 -0.000014 0.000014
              CHANNELS 3 Zrotation Xrotation Yrotation
              End Site
              {
                OFFSET 0.000002 -0.000003 0.000004
              }
            }
            JOINT forearm_stretch.r_021
            {
              OFFSET -17.791125 -12.509172 -0.110392
              CHANNELS 3 Zrotation Xrotation Yrotation
              JOINT forearm_twist.r_023
              {
                OFFSET -9.762112 -5.851594 2.159106
                CHANNELS 3 Zrotation Xrotation Yrotation
                End Site
                {
                  OFFSET -2.440528 -1.462899 0.539777
                }
              }
              JOINT hand.r_022
              {
                OFFSET -19.524232 -11.703189 4.318197
                CHANNELS 3 Zrotation Xrotation Yrotation
                End Site
                {
                  OFFSET -4.881058 -2.925797 1.079549
                }
              }
            }
          }
        }
      }
    }
  }
  JOINT thigh_stretch.l_02
  {
    OFFSET 10.562390 1.290604 0.000001
    CHANNELS 3 Zrotation Xrotation Yrotation
    JOINT leg_stretch.l_03
    {
      OFFSET 1.857720 -30.544600 4.926261
      CHANNELS 3 Zrotation Xrotation Yrotation
      JOINT foot.l_04
      {
        OFFSET 2.044592 -29.102913 -0.557761
        CHANNELS 3 Zrotation Xrotation Yrotation
        JOINT toes_01.l_05
        {
          OFFSET -0.011741 -7.383389 13.694362
          CHANNELS 3 Zrotation Xrotation Yrotation
          End Site
          {
            OFFSET -0.002935 -1.845847 3.423590
          }
        }
      }
      JOINT leg_twist.l_06
      {
        OFFSET 1.022295 -14.551469 -0.278882
        CHANNELS 3 Zrotation Xrotation Yrotation
        End Site
        {
          OFFSET 0.255574 -3.637867 -0.069721
        }
      }
    }
    JOINT thigh_twist.l_07
    {
      OFFSET -0.000002 0.000026 -0.000005
      CHANNELS 3 Zrotation Xrotation Yrotation
      End Site
      {
        OFFSET -0.000001 0.000007 -0.000001
      }
    }
  }
  JOINT thigh_stretch.r_08
  {
    OFFSET -10.562390 1.290588 0.000001
    CHANNELS 3 Zrotation Xrotation Yrotation
    JOINT leg_stretch.r_09
    {
      OFFSET -1.857725 -30.544609 4.926271
      CHANNELS 3 Zrotation Xrotation Yrotation
      JOINT foot.r_010
      {
        OFFSET -2.044591 -29.102907 -0.557755
        CHANNELS 3 Zrotation Xrotation Yrotation
        JOINT toes_01.r_011
        {
          OFFSET 0.011733 -7.383391 13.694362
          CHANNELS 3 Zrotation Xrotation Yrotation
          End Site
          {
            OFFSET 0.002933 -1.845848 3.423590
          }
        }
      }
      JOINT leg_twist.r_012
      {
        OFFSET -1.022296 -14.551449 -0.278877
        CHANNELS 3 Zrotation Xrotation Yrotation
        End Site
        {
          OFFSET -0.255574 -3.637862 -0.069719
        }
      }
    }
    JOINT thigh_twist.r_013
    {
      OFFSET -0.000001 -0.000022 -0.000001
      CHANNELS 3 Zrotation Xrotation Yrotation
      End Site
      {
        OFFSET -0.000000 -0.000006 -0.000000
      }
    }
  }
}
MOTION
Frames: 68
Frame Time: 0.03333333
5.047342 60.486626 -6.868800 0.617494 1.954366 -13.092617 -2.797095 8.393960 7.009748 1.661953 5.464921 1.105450 -1.635217 2.723771 -0.629577 -2.838739 2.346127 5.348644 -3.602063 5.106323 9.610656 -0.502838 4.286012 -8.613870 -15.142901 -15.309082 -43.541939 9.154783 8.152864 -1.493535 8.520757 -19.892021 7.803348 -16.152586 -18.145797 10.830477 -4.042516 17.225687 7.666460 -2.022127 2.769606 4.054795 22.636077 -10.462334 27.049567 -25.076447 16.419633 13.465336 8.575986 -20.227016 4.677611 2.182615 -2.793095 -5.238891 1.655053 5.195822 -3.408713 0.935670 -34.300361 -2.007409 -21.425634 58.257083 29.510830 5.169623 -26.204164 -0.966942 1.937217 1.909891 4.074755 -2.511080 -7.212885 8.532450 -7.987856 -10.132850 -4.238196 -5.062784 -1.849452 8.732342 21.074240 52.854896 -22.595546 -3.463229 -9.965630 4.399393 1.752159 -19.753625 0.343319 -4.339481 -6.260563 3.166211 1.612278 9.645160 -1.449487
5.007697 60.812168 -6.331266 0.862439 2.375589 -11.946233 -2.543106 8.763157 5.901179 1.642414 5.698560 0.808785 -1.410708 3.359423 -0.544360 -1.985496 2.010358 5.079654 -3.969946 4.591053 9.261897 0.766453 4.157632 -8.458769 -14.704224 -14.659384 -44.815024 8.683274 8.812899 -0.519033 22.309936 -23.209743 16.706549 -30.059555 -19.724825 11.545730 -1.707219 14.040865 13.664571 -1.905182 2.845969 3.466924 24.207530 -6.529559 29.588374 -28.853464 17.073457 16.362091 5.953218 -22.517783 5.799161 4.006028 -2.246181 -5.327010 1.991030 4.706637 -4.634769 -0.265593 -34.402055 -3.591417 -20.074198 56.922687 28.017994 5.198548 -25.113888 -0.481387 1.930650 1.504611 3.468406 -2.380616 -6.324065 7.736052 -8.374751 -11.317726 -3.880898 -5.241361 -3.175082 8.139563 22.770637 55.047693 -24.384198 -2.647738 -5.875170 4.797300 1.370681 -14.029323 -2.066470 -4.103886 -5.965907 3.056869 1.440673 9.932318 -1.703924
5.131194 60.909027 -6.141741 1.435948 2.909573 -9.160254 -1.847378 9.971797 4.477441 1.446070 6.791675 0.648932 -1.378472 3.941300 -0.119714 -0.520695 0.350232 4.155454 -3.263736 0.913631 7.225348 2.357188 3.967735 -7.910961 -19.779237 -9.477583 -48.746787 11.152599 4.002557 4.561592 3.507035 -34.732897 -4.866080 -22.959145 -14.609328 12.305677 -7.412783 17.553817 16.063663 -1.981801 2.796353 4.328170 23.473268 -2.602470 29.645021 -35.215783 16.430534 19.431146 1.981307 -26.734622 8.851697 5.797196 -0.290332 -4.939099 2.226721 4.718331 -5.124410 -2.805972 -34.302435 -5.265963 -16.621738 55.737316 23.329484 5.704919 -24.419838 0.173444 1.692880 1.659430 3.527132 -2.331671 -6.320460 6.924348 -8.306613 -10.010082 -2.170006 -5.768235 -4.997430 7.674761 24.757255 55.849475 -26.298021 -2.464581 -3.406069 4.457133 1.862906 -9.879221 -1.322982 -3.060649 -6.295848 2.313478 1.343292 10.051663 -1.806138
5.365765 61.226051 -5.570351 1.165987 2.745441 -7.115579 -1.071653 9.483437 3.488898 1.460545 7.031352 0.306720 -1.141005 4.412821 -0.383654 0.188824 1.738252 4.708434 -2.490028 0.907828 6.210372 3.137069 4.247407 -8.969269 -22.608202 -10.097741 -51.116541 11.441205 0.895154 9.009507 2.407372 -34.073749 -8.013930 -23.997076 -13.073242 9.251021 -10.437710 17.884706 16.989309 -3.035506 2.711165 3.633944 20.327780 -2.026247 31.495196 -39.664263 18.986448 19.609153 2.854304 -25.209636 12.279256 6.436508 -0.013334 -3.152059 2.484186 5.144698 -6.450528 -4.479035 -31.958042 -5.204219 -11.395772 52.715573 17.155275 6.325258 -23.963839 0.845001 1.215409 2.170932 3.489485 -2.167207 -5.233899 6.826222 -8.028792 -6.941070 0.148340 -5.846376 -4.020654 7.753255 27.684765 56.159862 -29.522353 -0.852652 -2.383011 4.023813 1.025729 -7.022560 -0.735722 -2.758354 -7.026353 1.125840 1.385545 9.875095 -1.654654
6.054543 61.207321 -4.334135 1.123733 3.120193 -7.572178 -0.227160 8.053521 3.119807 1.670850 5.340778 0.390351 -0.991662 3.288508 -1.113703 0.298525 2.052346 5.586485 -2.844547 3.154978 7.612612 4.330906 5.874547 -12.089161 -22.970449 -13.829251 -49.697818 12.426003 -0.441706 13.139495 6.825479 -26.792535 -2.699251 -29.087524 -11.195529 3.502357 -9.143831 18.639195 12.774116 -3.622809 2.788614 4.154625 18.380647 -4.624026 36.423850 -42.599190 23.469867 22.047396 2.218550 -20.775098 10.575790 6.318383 -4.008314 -2.413404 2.374051 7.266180 -7.475462 -5.378633 -29.526957 -3.109437 -7.136743 49.549618 13.021089 6.675611 -24.658255 1.340696 0.989360 2.772876 3.476029 -3.290701 -4.632436 7.742229 -7.778878 -4.902271 1.759462 -6.504926 0.961550 9.277537 26.299721 54.360750 -29.456757 0.080268 10.256771 2.439535 0.970442 -4.142326 -0.282257 -3.024324 -7.998777 0.028369 1.242943 9.425662 -2.085397
6.434653 59.874653 -2.500885 3.588821 11.297788 -11.230024 -2.542291 7.988440 4.565042 1.670707 2.615681 1.377068 -1.302377 1.031947 -1.261934 0.289982 -1.811853 4.854558 -1.614363 -2.328032 8.962760 4.308589 4.572188 -13.951004 -18.043050 -17.083127 -45.868492 13.145382 1.690901 12.597676 9.200439 -20.375197 -2.257103 -31.218794 -12.680806 0.560029 -2.947470 16.715229 6.436304 -3.783794 0.227985 5.450116 13.262968 -11.012579 41.228460 -41.087078 29.454133 22.078425 1.855696 -18.294440 10.417607 5.408871 -6.611785 -0.972262 1.529881 9.293925 -6.973245 -6.520557 -36.460325 -2.321201 -7.931150 50.505746 14.889212 7.301351 -27.396720 2.485934 0.689357 3.137831 3.162844 -4.118395 -7.339380 8.081071 -8.077050 -4.692602 1.216397 -8.167788 1.407056 11.704870 18.570318 49.043075 -23.872237 0.434245 25.259557 4.729869 0.456763 0.190718 -0.469948 -3.276968 -8.041988 -0.428135 0.592997 9.283350 -4.963898
7.164667 59.305847 -1.886199 6.536281 10.861911 -13.840615 -2.563116 9.780659 3.338965 1.325175 3.140670 1.388103 -2.345121 1.415312 -0.264567 -0.555154 -0.819218 4.958322 -2.971150 -4.599656 9.620649 5.049258 4.030404 -11.827471 -9.013351 -20.227176 -38.952847 10.483203 -1.695833 9.363920 4.646412 -21.573004 -9.150514 -24.730582 -12.442939 -1.582811 -3.806228 16.996375 4.983642 -4.748782 -1.553615 5.821905 8.717416 -14.590592 48.604607 -36.722400 28.934968 20.719851 4.103802 -15.699045 10.461934 4.724309 -8.337186 -1.103849 1.517161 8.820991 -7.954197 -9.734295 -37.646056 -2.126296 -8.336992 51.629740 15.529932 8.246957 -24.851678 4.556737 0.095806 1.684203 2.698899 -4.505722 -8.521553 8.799001 -7.328742 -5.107062 0.595220 -11.891837 -6.387749 11.755737 18.840041 55.022219 -23.392803 -1.104393 21.112001 8.921810 0.925312 -0.522345 2.500367 -3.735290 -8.567332 1.059781 1.811471 10.136803 -6.398834
7.779924 59.452908 -1.030966 8.077527 9.060045 -13.096076 -2.232631 12.079559 1.424398 0.918754 4.598651 1.116741 -2.998185 2.291936 0.441124 -1.357678 -0.200523 4.780323 -3.588013 -6.610126 9.618160 5.124768 4.123610 -9.850254 -3.435533 -23.242265 -35.642707 8.658564 -3.652250 8.287978 3.565894 -24.562680 -11.264710 -20.446044 -13.075251 -2.592339 -3.479393 18.441043 5.411826 -6.150884 -2.476992 5.563454 8.198476 -17.887836 53.814956 -32.732130 27.112456 20.220553 6.218128 -13.024249 10.484129 3.195267 -9.621006 -1.470042 1.402513 7.453793 -8.246631 -12.481375 -38.062741 -3.549688 -7.761840 51.269337 14.234415 9.665752 -20.290397 5.378276 -1.159746 -1.447308 2.074318 -3.537451 -8.726733 8.917822 -6.621672 -5.730784 0.584291 -12.855281 -26.404727 11.549654 43.368284 70.475213 -48.705743 -0.661562 6.673090 9.455253 1.660971 -11.642239 2.660633 -3.863928 -8.578146 1.214255 3.255642 10.845115 -8.383848
7.990333 60.577465 -0.297587 7.786874 6.948396 -12.341830 -0.726281 13.937154 0.779772 1.231808 5.951793 1.414209 -3.302529 2.784010 1.224528 -1.960670 1.587299 4.597692 -4.339307 -6.581142 9.653771 2.966406 3.645519 -9.701762 -2.174174 -24.656164 -36.419923 8.785399 -3.514072 10.032980 2.891672 -25.952452 -13.184413 -17.410604 -11.754021 -4.037182 -4.864395 19.257330 4.967549 -6.760475 -2.166614 5.961142 7.562520 -19.756670 55.530706 -27.678805 23.116774 18.316841 8.837692 -10.479969 10.336596 2.444283 -9.736223 -1.402963 1.727663 7.052766 -8.978565 -11.016719 -36.794703 -4.702947 -5.759539 46.632576 10.374483 8.746450 -17.567942 4.945885 -1.489484 0.633817 1.437710 -2.901342 -7.456143 7.821672 -5.602333 -4.716169 0.630886 -9.563667 -22.249154 11.736698 19.233033 60.496380 -28.885413 3.370488 -15.712606 9.682673 2.464165 -11.137926 0.014482 -2.252984 -9.843378 2.733327 3.152847 9.313975 -7.918864
8.693676 61.465214 0.856336 6.926814 4.143530 -8.831983 2.067490 14.693460 -0.506867 2.561333 6.159225 1.400902 -3.201214 3.503130 1.388843 -2.808296 2.737020 3.699912 -5.796758 -6.328269 9.474557 1.693566 3.067553 -11.163499 -3.506052 -20.238088 -37.777513 11.572631 -3.494394 13.437647 4.163815 -34.494258 -18.666472 -16.605501 -4.710775 0.711412 -8.078608 22.990685 4.600917 -6.685662 -1.727801 6.933400 7.728334 -18.798313 56.428297 -26.069075 22.184885 17.307682 4.907052 -8.309274 6.034340 3.512125 -10.137444 -0.646300 1.909214 6.973100 -9.959464 -11.762084 -32.923813 -10.327786 -3.723962 37.770531 6.015674 7.572430 -14.638755 7.002890 -1.355423 1.507716 2.195152 -3.027977 -6.370352 6.654417 -3.556617 -1.457618 2.371189 -6.217301 -16.632399 9.541216 6.769101 45.874749 -18.568805 7.333774 -27.255041 9.562218 0.631821 -8.939519 -1.768983 -0.369532 -7.651267 3.859365 2.052725 8.504683 -6.642942
5.798107 61.541088 3.328761 5.251267 0.092657 -3.845270 4.252727 13.826386 -0.462465 2.230513 4.904818 0.328387 -4.059061 3.090070 0.446205 -3.170259 2.223912 1.935046 -3.674597 -6.845063 11.285675 -3.035657 2.950349 -13.474934 -6.582610 -14.121462 -37.847834 12.785543 -2.928503 11.569208 7.585619 -40.049996 -24.853994 -19.437568 5.766575 8.905795 -7.447402 19.828903 1.583606 -2.223848 0.519659 6.109380 7.544158 -17.822451 62.304708 -22.663531 18.578275 18.500300 1.101286 -4.610522 0.769518 3.975194 -9.113558 0.194396 2.288832 8.999949 -10.391714 -12.779103 -26.807882 -13.631700 0.179866 25.066681 2.352754 5.874678 -6.978292 7.519513 0.595338 -0.200519 2.795971 -3.330661 -12.099084 7.655605 -2.297914 1.473310 4.895154 0.034605 -16.455476 11.750567 6.519080 40.405391 -20.087947 2.132157 -32.982949 4.259375 0.486865 -5.673740 -2.498520 0.283604 -11.077591 4.008374 1.644499 9.118199 -3.070344
5.321715 60.761913 3.441489 2.190248 -6.308001 -2.662135 3.967085 12.077010 2.196010 2.335673 3.799931 0.128994 -3.699564 3.061724 0.799046 -1.206102 -1.633676 1.097653 -1.502095 -3.988291 10.641098 -3.564252 0.270159 -8.227911 -6.264326 -12.936597 -40.372257 13.358770 -1.898650 9.609020 2.684705 -45.054531 -27.496752 -20.163470 15.094081 10.412468 -2.015158 19.695576 -2.768899 -0.747527 -0.338207 3.225271 6.550356 -14.245959 62.648150 -21.196811 16.461909 16.632017 1.747819 -4.736147 -0.361199 5.047036 -5.444279 0.821235 0.948606 9.993823 -8.506235 -4.722761 -18.064842 -0.917888 -8.654759 3.756064 -2.686638 9.640864 1.304535 8.364350 3.779194 -3.207188 4.870617 -6.757804 -8.420671 8.927740 0.619411 -1.360266 3.882419 5.153579 -17.149060 12.546099 4.209499 38.158212 -17.408728 -1.500972 -33.310837 2.991025 0.481691 -4.653620 -3.407558 -0.232091 -13.013308 4.506207 0.565091 7.765333 -0.419707
4.796241 59.899830 0.472775 1.902326 -6.628663 -0.391904 1.681622 10.330096 3.432688 1.969785 3.053164 0.422850 -2.942150 1.634143 0.892913 -0.753672 -3.996704 0.313832 -0.557731 -2.027728 6.797284 -2.195366 -0.785866 -4.268935 -6.517025 -17.047052 -43.866080 12.682491 1.443718 9.176469 -3.802403 -51.972813 -26.999232 -21.187385 21.162158 11.188944 0.526572 24.062896 -5.830328 -1.415340 -0.384338 -0.676033 6.135363 -16.275179 63.340445 -19.613290 16.726499 11.345059 2.987689 -2.822411 -3.048723 5.994772 -4.456259 1.495191 0.487263 9.074703 -7.930327 -2.270809 -27.477967 5.751681 -6.829773 13.782189 -2.874769 6.624865 2.186592 6.614127 4.105370 -6.675670 4.856326 -5.129420 -5.683776 8.541051 2.223518 -0.953990 8.226231 7.618664 -27.006594 11.517740 4.681993 42.088925 -17.439448 -3.743834 -34.682097 1.665403 0.266891 -2.599030 -3.110220 -1.363903 -15.653743 4.696352 -0.312687 7.415896 1.217347
4.360428 59.335560 -2.978118 4.619498 -6.027033 0.940501 -0.339328 7.563748 3.815494 1.608681 3.009557 0.874442 -3.210031 0.949875 0.978498 -0.535778 -4.678382 -0.817475 -0.678287 -0.632666 3.437421 -2.885395 0.650336 -3.380788 -8.628442 -21.686289 -46.006112 11.881200 2.257952 10.195866 1.712517 -52.011356 -16.266144 -22.405012 24.773374 11.973242 2.573049 28.823967 -6.898359 -2.089560 0.939282 -0.877035 3.175676 -17.238456 62.602809 -18.265973 16.000173 7.088925 0.229733 -1.105772 -8.089334 7.867195 -4.462695 2.975377 1.750543 8.521116 -8.282546 -4.558900 -33.921077 5.776663 -5.445858 14.846869 -2.462737 4.211617 12.333607 6.509836 3.739624 -7.357636 2.730712 -2.575817 -2.007674 9.470987 2.052952 -0.353045 8.180965 6.945880 -38.973113 9.401725 5.384025 49.532802 -16.099892 -5.631790 -34.801998 0.473785 -0.239693 -2.518282 -2.939282 -2.430093 -16.453944 4.535101 -0.368197 8.456076 2.212086
3.375739 57.345295 -4.571060 7.391622 -6.732258 0.270747 -0.973586 6.215622 3.720765 0.583765 3.944897 1.558748 -3.574373 1.540891 1.843334 0.192956 -3.877103 -0.856427 -1.262475 -1.866278 3.728063 -3.785961 1.356307 -4.338506 -13.680657 -21.249961 -51.570025 11.613072 4.459438 13.000814 14.974935 -45.065002 2.899400 -21.155354 24.804078 7.242167 2.407187 30.578419 -7.432721 -3.352307 2.186380 -1.880659 -6.760530 -18.254706 48.558749 -15.758213 9.043244 5.108922 -0.879458 -9.052963 3.580476 7.756798 -1.436243 2.758326 1.152930 11.262866 -6.779172 -6.791876 -31.358881 6.477328 -5.828304 9.950964 -3.950518 5.425302 11.702831 6.974015 2.771742 -5.711449 1.014944 -2.159193 0.099058 9.699825 1.932334 -0.842218 7.916371 6.718074 -46.671050 9.071639 5.385794 55.620059 -14.449628 -6.020605 -33.395907 -1.756766 -1.111252 -2.244466 -2.072351 -3.117405 -16.061531 3.692703 0.752398 7.320409 2.218115
2.763692 53.631027 -6.016997 7.761063 -7.355748 1.175999 -0.936956 5.313902 3.043751 0.631522 5.846484 0.930824 -2.808267 2.692638 1.948215 2.124152 -1.378227 0.279813 -0.791800 -2.424381 8.218171 -2.545979 0.912771 -6.542294 -15.480192 -20.609649 -46.688056 9.309384 9.535681 13.411045 13.115118 -41.995845 6.519470 -16.715542 22.939897 7.112178 0.093226 26.662747 -6.494875 -5.928200 2.098252 -3.286987 -9.393945 -21.450192 33.806766 -13.951342 0.707671 2.635573 -9.841743 -21.066126 9.811774 8.623091 1.639773 1.686063 -1.501810 10.421778 -1.873853 -5.448610 -34.127037 7.866788 -8.270481 9.048357 -6.714718 7.144395 3.280609 6.896592 1.370147 -0.812087 0.782030 -3.158228 0.396827 9.368541 2.632569 -3.423214 8.522925 8.068747 -57.518533 8.113476 5.891578 61.224921 -12.940852 -5.579519 -29.427311 -6.172708 -1.280262 -3.456099 0.596842 -3.889990 -14.109815 3.174154 0.891572 5.799722 0.996118
1.143036 53.543148 -10.615478 7.152307 -11.282815 6.706687 -0.476280 3.219701 0.569310 0.559671 5.393453 -0.547922 -2.107965 2.972800 1.040069 5.756105 3.867580 -0.352446 0.000818 1.639061 11.477379 -2.196569 2.080135 -7.963165 -10.259340 -15.231872 -37.854307 8.854043 9.928688 12.275909 3.886514 -41.208233 4.697162 -12.783302 20.880030 4.321355 -1.673087 22.567490 -4.521512 -6.213234 2.901390 -4.076723 -6.979259 -24.833845 25.803047 -12.216777 -10.166873 -1.018218 -13.759790 -27.517482 9.632768 9.437629 4.883719 -0.885020 -1.217294 13.626811 -0.099008 -5.310879 -45.695454 3.103001 -5.850521 22.562051 -4.390386 1.689824 12.371449 3.812534 2.860023 -7.301903 0.522646 -2.095084 3.450740 9.144352 3.794490 -1.628332 7.411819 7.524400 -61.893413 7.057774 5.869524 54.897979 -10.346548 -5.552119 -15.805854 -0.343152 -1.116582 0.207306 2.932945 -3.219183 -9.368818 5.635433 0.670418 3.250038 1.339755
0.470425 52.786236 -14.480968 5.002764 -17.096971 12.700153 0.286867 0.316885 -1.050717 0.846971 4.057471 -1.845871 -1.364711 2.398154 -0.415427 8.859181 5.142524 -1.524961 0.157810 6.916962 9.878742 -1.169797 4.971162 -5.125481 -3.332057 -10.885570 -28.368212 7.034076 3.741730 16.381001 -8.859510 -46.501681 -6.648215 -8.914353 19.826630 7.976805 -2.306130 25.960842 -1.003538 -6.588400 2.412886 -5.034365 -8.119146 -26.653692 21.591467 -10.504040 -17.423682 -4.829371 -11.117752 -23.428619 6.576910 7.686772 6.271751 -2.045928 0.926382 20.250824 -3.678110 -4.296690 -42.348280 0.028641 -7.785723 20.356831 -5.023228 3.099148 18.176262 6.097091 2.473831 -11.020974 1.689479 -2.727434 6.746586 10.422068 3.251940 -1.490665 5.857978 4.630627 -58.961245 3.348912 7.726870 46.233852 -6.248244 -5.505855 -6.102997 9.992843 -1.364392 1.184615 4.347344 -4.117045 -4.467882 8.065128 0.859827 3.591848 5.410639
0.245024 49.242748 -17.179273 4.689412 -20.008011 16.252230 0.347114 -0.152532 -0.535121 -0.053037 3.936213 -1.527742 -1.306092 3.057094 0.083871 8.531415 2.961790 -1.580060 -1.649054 7.778432 8.971261 -1.411946 7.376441 0.173850 -10.618124 -11.024716 -35.161148 9.691815 2.903212 27.216859 -0.734022 -48.188794 -2.281646 -14.242161 19.114285 12.169618 -4.314765 29.015125 1.120597 -5.986408 4.278622 -5.139135 -10.417084 -27.671724 15.767686 -9.978220 -18.504614 -5.506147 -10.054092 -22.376189 6.342824 8.674213 6.124427 -1.191855 3.280939 20.689867 -5.187021 -2.741031 -38.876113 2.748262 -10.324900 16.763745 -5.888305 7.105637 12.265980 7.630142 1.012179 -6.829568 3.068380 -2.788967 6.091383 11.506578 2.941999 -2.885391 5.532235 3.974364 -53.288061 1.972041 11.488817 41.077634 -6.510585 -9.356737 -4.480261 16.304374 -2.926464 -2.756638 6.561039 -4.807237 -0.395044 8.352844 1.303540 3.002969 7.530571
-0.394179 43.563591 -19.271570 4.169548 -22.052715 18.480221 0.722201 1.411943 -0.519623 -1.853120 5.296142 -1.180994 -2.325408 4.741797 1.455838 8.396221 2.577135 0.108129 -1.326097 4.690238 9.839588 -1.037093 4.427398 -1.754069 -19.801512 -7.844976 -31.442079 14.236670 3.316959 24.548942 13.756527 -54.411680 20.938927 -16.191215 26.081323 11.401356 -2.431202 33.313562 -6.471498 -5.591270 6.420764 -4.712069 -13.748752 -26.662911 5.856788 -9.263283 -17.876718 -5.912700 -14.531770 -20.846286 2.196037 9.040367 4.358938 1.019048 1.707461 17.511230 -1.790129 2.249894 -37.285336 11.814485 -13.847853 19.920113 -3.667172 8.712279 9.087735 7.909074 -0.342178 -1.785177 4.796637 -3.400382 3.583597 10.523450 1.938160 -3.882235 6.243254 6.989682 -50.900629 3.381641 12.205711 40.227967 -8.541362 -10.944816 -2.739427 20.260682 -3.320657 -5.433921 8.029591 -5.343864 3.231877 7.670857 1.038926 4.013051 8.207991
-1.502666 40.210556 -20.036682 3.292776 -22.829180 18.309135 1.624715 0.563474 -0.510725 -1.804533 6.102927 -1.598950 -1.939771 5.539842 1.762183 9.512257 3.025214 2.377116 -2.176236 3.774569 15.337370 -1.726708 3.106552 -1.799254 -5.744493 -12.494573 -24.097327 12.180168 0.733904 17.807686 -1.269704 -32.458752 18.943919 -9.029345 9.284546 5.406048 -9.181039 4.905404 1.874684 -8.207676 8.527242 -5.020459 -17.456906 -26.926785 1.814469 -6.780103 -17.621888 -7.515724 -11.832114 -19.015238 0.580627 8.822794 1.530918 1.792197 -1.473292 13.925109 0.142584 7.317534 -41.027003 19.390956 -16.616889 24.927772 -1.093226 9.769630 5.116339 5.056427 -1.649749 -3.504714 5.208979 -5.003418 4.795986 11.419361 3.024000 -8.828294 11.305090 10.601695 -55.717635 5.601750 14.466484 43.254261 -11.648485 -8.741489 2.620326 24.114757 -2.525026 -3.768780 6.839840 -5.566560 6.937703 11.865340 1.396245 4.205307 8.986250
-1.755545 38.911518 -25.828170 5.656602 -23.623865 17.452901 1.728052 0.528777 -0.289138 -1.752490 6.619542 -0.818362 -2.415350 5.992803 1.568241 9.181004 3.722758 3.213025 -2.386811 1.956069 17.368427 -5.534569 2.786009 1.862003 1.245873 -12.159732 -17.631637 11.070609 2.414082 13.299648 9.116872 -33.622519 17.130390 -9.349419 12.824232 4.943091 -11.461253 3.633686 6.375148 -8.202687 8.765913 -5.143085 -22.372189 -23.700048 -1.783824 -4.819947 -16.397407 -8.313888 -7.872072 -17.324267 0.397638 6.559799 -2.094931 1.964616 -1.369352 10.782606 0.441180 0.606550 -40.059510 16.291045 -13.118070 1.518642 -6.938812 0.783751 6.913227 2.875663 1.669778 -3.416348 5.507703 -5.156297 8.291030 11.873106 0.454824 -8.378616 8.426364 11.990149 -59.227267 8.298813 11.286789 38.075425 -10.668175 -15.002203 -25.711818 14.006575 -4.278913 -2.295451 -0.110261 -2.689389 -3.944758 10.085624 0.971734 6.085089 10.356344
-2.515887 33.197948 -28.629799 7.183460 -26.408232 21.364134 -0.100687 5.270532 -1.676890 -2.468739 7.780613 -2.055690 -2.131049 6.826444 0.665851 6.015815 3.545921 3.226243 -0.041989 1.881395 10.595007 -5.598396 1.320469 2.788259 6.902260 -10.186224 -17.512988 12.507710 5.438127 8.333005 14.866328 -14.322312 23.423430 -12.489837 5.172033 1.295566 -11.279524 4.705666 2.520387 -7.341081 6.462548 -5.154697 -16.673066 -16.605967 -3.740397 -1.738525 -14.463157 -1.627856 -4.541644 -17.720871 4.930266 4.253098 -5.336797 0.593038 -0.271901 9.062358 0.496591 0.941720 -48.315237 14.900082 -17.369574 7.109109 -0.156103 -0.915738 0.911197 6.004893 1.461177 -4.418766 5.484045 -3.080551 7.895119 10.266570 1.556496 -6.531008 7.631250 4.220335 -45.597976 2.208890 8.241529 7.641351 -10.035135 7.772101 -51.395233 41.714517 -7.816364 -4.594545 1.134872 -0.973805 -16.717582 2.797240 -0.427886 0.628033 8.386685
-4.735714 30.742756 -31.951354 4.194721 -32.024864 21.791131 0.526145 9.006520 -2.994287 -2.062092 8.112511 -2.642760 -0.443977 6.924269 -0.455724 6.394964 0.969593 1.836463 1.457609 2.202784 4.844255 -2.045007 1.223047 1.720874 8.885395 -4.763177 -16.514901 13.571291 5.780900 8.325957 13.711631 -11.746040 21.605488 -14.025896 5.776848 2.766438 -10.129869 6.233740 1.067969 -6.332461 6.764347 -5.381650 -10.307509 -22.590219 5.214970 -0.800744 -9.579957 -1.141701 -4.463023 -12.572802 4.620228 5.477430 -7.483834 0.854623 -0.613406 9.246193 1.349653 4.761350 -54.365622 14.491197 -17.595573 6.878116 14.089644 -5.901198 6.515442 21.062164 -5.592945 -6.682305 11.329356 -1.137571 5.907139 11.687901 4.594102 -3.705835 7.556746 -6.148013 -42.790250 -5.317046 20.783865 -4.283008 -9.945206 35.064620 -53.458025 98.427017 -6.025847 2.298305 0.792187 -5.011642 -29.374398 9.133444 1.150073 -1.290118 4.987133
-4.212649 32.636543 -34.046639 4.040828 -41.319278 20.202425 1.072620 11.513596 -3.679749 -1.305179 7.951013 -1.767009 -0.152202 6.507433 -0.153776 8.063271 -0.455138 -0.421056 0.724182 1.863477 2.138889 0.140843 0.864944 1.091602 5.682893 -3.135518 -15.530256 14.055653 5.064423 10.325268 4.166678 -21.321819 5.005321 -10.832977 5.216853 15.054881 -8.952391 11.876426 2.173749 -3.830435 7.764385 -3.409017 -5.818126 -24.014721 14.128724 -0.388108 -8.332103 -1.691137 -4.547583 -17.464041 5.950857 6.150398 -4.228110 -0.144903 2.004848 11.228979 2.779712 2.564288 -63.620797 5.616100 -7.913944 -6.907231 8.177512 -10.098537 1.414944 24.711829 -1.364966 -5.410338 1.302301 0.377831 7.219013 2.419390 3.209642 -7.212256 -3.275419 -8.612791 -17.935355 -5.718566 31.466311 -59.026902 19.498758 6.785605 -32.978717 64.877453 -4.751085 -2.682605 -0.320940 -6.999184 -23.220174 8.494498 0.619645 -4.073782 5.093373
-4.558680 33.080662 -36.796968 6.282059 -45.922995 16.966706 0.415326 9.046974 -2.581552 -2.236920 7.064896 0.936470 -1.283142 4.431630 1.933691 8.112923 -1.577713 -1.586158 -1.166674 2.114405 2.561389 -0.456359 -0.874298 1.766844 2.512695 -10.558893 -21.424380 16.786952 2.210831 14.718013 4.119084 -21.139383 -0.223958 -7.132416 -2.200906 20.419793 -10.933171 19.295255 2.986271 -0.986047 9.009330 -0.859609 -3.885820 -18.463845 18.258440 -0.237577 -11.277656 -1.866541 -5.031337 -21.504814 6.249051 6.920365 -0.895643 0.834666 1.862426 13.691628 3.679700 13.030467 -56.439264 17.296116 -11.000163 -8.309698 7.566018 -3.960629 1.286995 19.623862 -3.356631 -4.075362 2.806078 -0.640703 2.086824 -1.734031 2.384977 -12.381056 1.396473 -5.374232 -19.058005 -5.420978 80.821705 -72.383446 78.529131 -8.058132 -11.555302 43.111990 -4.164335 -8.391710 -0.066668 -6.246569 -12.933383 8.840711 0.028440 0.866732 3.723784
-5.338383 32.467419 -36.481567 6.254965 -47.371360 18.444175 0.330785 5.466056 -3.403118 -2.514144 5.646008 1.125065 -1.501529 4.301781 2.502347 8.498636 -1.218759 -0.435111 -0.621639 2.155375 3.300132 0.805664 -3.628996 2.628122 0.351663 -13.722374 -24.208898 17.417895 1.280168 16.943612 3.611700 -22.147116 -4.144885 -4.579062 -4.402413 18.091502 -13.384632 20.425371 2.485110 -0.505991 7.289124 0.280579 0.288083 -5.311556 17.138707 0.680542 -9.989702 -0.026023 -5.665518 -25.737531 10.689358 8.544768 1.684911 0.173464 -0.028273 12.699793 4.171435 13.354024 -48.462361 15.249344 -14.946057 -12.019102 1.464687 10.387125 17.918513 10.114256 -0.338166 9.970739 4.633596 1.959635 6.183258 -4.944971 2.955913 -10.756032 4.821286 -2.181045 -15.136456 -4.903353 136.157675 -68.849219 137.262617 -15.232371 1.883549 31.231360 -4.837505 -11.635147 4.700785 -7.295714 -9.205354 10.051992 0.839656 1.621333 4.438284
-5.799979 32.928215 -38.229954 6.434141 -56.044875 19.066224 1.167381 4.698773 -4.851973 -1.582269 5.366212 0.326503 -0.807736 5.494319 1.977552 9.513769 1.262328 0.462535 -0.034179 2.703886 4.206882 3.276850 -4.213004 1.835102 3.379989 -10.965791 -18.747677 16.279733 2.920431 13.853721 1.989979 -21.886498 -9.850658 -3.184263 -3.012513 15.792852 -12.297179 17.231799 2.886674 -2.319426 7.200774 -1.154602 6.023320 -2.963104 23.363898 -0.043044 -7.656378 -2.429710 -6.792930 -22.927058 10.644342 9.567327 2.088084 0.640202 1.661501 11.039605 4.484770 17.671407 -49.303508 14.283501 -10.547962 -6.562833 1.567312 6.441849 19.269407 12.165227 1.015688 5.362027 0.150441 6.319890 16.764504 0.337494 4.265108 -13.000957 2.342753 0.281052 -11.621732 -6.086314 145.933736 -70.037471 151.097624 -17.134002 12.366891 28.056257 -4.690993 -12.417074 6.389390 -8.137747 -3.101696 7.719828 1.057170 -1.849817 4.837556
-5.938734 32.393669 -41.828423 7.601869 -62.434380 18.412439 1.507592 2.858690 -4.506171 -0.999069 5.135383 1.367604 -0.826162 8.109668 2.077627 9.910006 4.599132 1.142181 1.321358 2.184030 3.102852 3.407195 -3.658231 0.970799 6.349150 -11.363340 -13.815633 14.560467 5.434457 10.370480 1.032499 -21.037099 -21.315102 -3.688263 -3.779005 14.812262 -11.197481 14.605136 1.113234 -3.172081 7.375221 -3.480007 9.880929 -3.173292 28.386096 -0.507664 -7.069599 -3.512630 -7.413199 -18.827153 9.668234 8.888578 0.797434 1.531717 4.224073 10.385225 4.559880 17.594132 -40.327188 14.207107 -13.801803 -14.937526 1.000661 12.039213 19.392659 10.150184 0.804155 2.058734 -0.331148 3.704678 12.689348 -4.763027 4.052992 -13.800441 1.078207 -1.130152 -12.896962 -4.879216 107.727102 -82.474012 112.550443 -18.351723 16.784262 23.568824 -2.253828 -13.679505 5.480523 -10.053184 -2.546063 6.237543 -0.465775 -3.933481 3.855011
-5.469908 31.010399 -45.027437 14.075646 -67.808166 21.676151 0.859472 3.269296 -1.914521 -1.468187 4.939780 3.667029 -0.783362 9.896386 2.435410 9.282392 6.312345 2.441100 2.038353 -0.949129 1.757712 2.944319 -3.339961 1.269886 9.977304 -11.404137 -11.849975 14.175757 6.389550 8.486570 1.591833 -22.372432 -37.742182 -5.365842 -3.377349 15.812500 -10.847020 12.031650 -0.268948 -3.735296 6.564577 -6.017280 8.881066 -2.948614 30.374839 -1.058563 -7.202208 -4.783049 -6.440349 -18.069940 8.633912 6.453424 -1.035120 2.904838 5.226493 13.006461 4.251713 12.966348 -24.051328 13.865197 -20.786117 -27.634392 -2.849187 10.733156 18.190240 10.346827 -1.708138 -4.186804 0.762066 0.992758 12.394113 -6.977116 1.622079 -8.854473 3.791674 -6.104889 -24.034957 -4.666052 11.742277 -51.034647 4.301929 -14.848607 -6.951841 19.832427 -0.112020 -15.959129 8.779353 -9.633914 -7.079896 5.743710 -1.102621 -1.652157 1.916638
-5.472629 29.348957 -46.289036 21.285859 -71.194653 26.182154 -0.087033 2.775568 0.222323 -2.328066 4.549183 5.618924 -0.464491 10.791468 2.653555 7.722096 4.356776 5.259256 0.994593 -4.103239 1.003746 4.119799 -2.379554 0.503856 8.938902 -12.044709 -12.041948 14.879836 8.153911 8.385037 4.618540 -21.559995 -46.322493 -8.373707 -2.462992 15.779953 -11.196255 9.772486 -2.272435 -4.304270 5.077297 -6.628025 6.990900 -3.700099 33.230861 -2.771604 -6.892412 -7.008835 -5.621399 -16.221945 4.342895 4.693425 -2.052200 4.121422 5.278396 14.816214 3.563676 11.305054 -16.655415 17.574958 -27.004628 -29.973736 -6.406609 12.317747 9.945946 10.371186 -1.828178 -7.205675 0.790849 0.869110 7.708244 -5.524708 0.253766 -5.202658 5.930004 -10.940197 -33.027813 -8.176918 13.738982 -11.184383 -6.454092 -2.025107 -37.311134 25.872651 -0.280226 -18.748523 8.938702 -7.685030 -13.571772 2.552416 -1.888044 -1.656290 -1.649055
-6.573083 28.639046 -47.122090 21.331604 -71.738822 26.962905 0.267741 0.857363 -0.275811 -2.640491 3.161731 5.018188 -0.465744 10.648294 1.765900 5.547023 0.002264 10.187332 -3.012907 -9.339657 2.128666 4.907621 -0.699444 -1.905968 8.518463 -9.505314 -13.573026 15.265423 9.594935 9.559571 6.091082 -17.332619 -45.331592 -7.757942 -2.318744 13.700453 -9.580099 7.552775 -4.916208 -4.837311 6.351906 -6.870826 7.622774 -10.424967 41.675733 -2.645466 -6.898244 -9.470103 -6.032381 -7.113106 -5.255017 4.314515 -3.699523 6.132155 4.698028 14.661500 4.054906 15.702650 -25.612820 22.646010 -27.405250 -22.162580 -5.013591 10.165176 9.846114 9.887819 -1.863195 -8.335917 0.627882 3.287752 7.872633 -3.268751 1.413143 -5.852047 7.051558 -16.331838 -36.526652 -14.335769 14.244801 8.717577 -9.410577 4.753110 -42.366926 26.163587 0.164107 -21.318421 4.205264 -6.227739 -11.567557 -0.120424 -1.261533 -0.248041 -3.643612
-7.256885 28.377411 -48.446132 19.332176 -72.908645 26.330384 1.279012 -1.929953 -1.372406 -2.307273 2.952351 3.153875 -1.041449 10.879156 0.574015 3.933068 -3.102224 11.755617 -4.489889 -12.441412 5.698005 3.698498 0.512006 -4.630108 8.835594 -6.456235 -13.401581 15.516862 9.200064 12.376057 6.470553 -15.422122 -43.900204 -6.662953 -1.683238 13.458768 -8.028299 6.867862 -5.680161 -6.475942 7.361572 -5.837568 6.714188 -12.729093 44.976875 -2.529634 -9.539780 -11.519103 -5.325711 -2.434441 -9.452999 4.832635 -6.184088 7.743849 5.800452 13.635828 4.685570 16.391784 -42.363330 24.637768 -20.856614 -11.615997 -4.930692 8.885308 11.733824 12.096502 -2.608133 -8.352912 -0.657673 3.377073 5.715504 -2.535727 2.140957 -8.455535 1.855077 -21.734299 -59.607254 -18.206775 -3.538966 28.773550 -8.625987 0.982181 -28.341262 13.038313 -0.905127 -10.582695 -1.757588 -2.907051 -2.565444 -2.602389 -1.682048 -1.237272 -4.487129
-7.519408 26.550041 -49.093615 22.696415 -73.900342 29.496033 1.783765 -1.967561 -1.499105 -2.739161 3.697024 2.538533 -1.844283 11.045379 -0.413167 1.479203 -6.487088 10.910350 -5.278506 -12.514160 5.344714 1.891166 -0.053015 -6.015602 9.485255 -3.897462 -13.964474 14.063545 9.163211 14.005688 10.162118 -15.740318 -40.967210 -8.056941 -2.203972 14.210668 -6.840700 5.003821 -6.113003 -6.469812 5.904877 -5.801065 4.096500 -15.575942 42.648690 -3.350940 -10.777964 -11.504273 -3.033937 -3.381061 -7.612307 4.921742 -5.106005 7.049420 6.559605 16.725611 6.274230 13.258893 -44.368116 21.816929 -16.133562 -7.333587 -5.152721 7.230618 9.685303 13.079674 -3.093233 -8.460392 -1.949780 2.892374 3.382941 -3.352501 2.328035 -8.797650 -0.124630 -25.704350 -60.923563 -20.809284 -7.443041 31.567496 -8.384893 -3.983517 -18.504635 5.568269 2.815667 -8.001500 -1.303913 -3.773790 -0.913790 -2.627770 -2.156534 -1.013350 -6.307263
-7.639748 24.930756 -49.860374 25.534617 -73.838122 32.110659 1.327426 -1.901019 -1.191529 -3.298625 3.902257 2.228437 -2.649900 10.891214 -1.682845 -0.981180 -10.559927 9.446929 -4.412871 -12.503934 4.090369 0.289352 -0.893234 -7.022393 10.263025 -1.439454 -14.328221 11.284813 8.294403 14.720547 14.196403 -16.211609 -37.513086 -10.966835 -2.202165 14.508859 -6.634262 3.036275 -6.600081 -6.763858 3.897238 -5.332857 -1.220110 -18.391556 39.924620 -2.114337 -11.545610 -10.208271 2.756969 -4.701080 -3.776015 3.388915 -5.903179 4.377815 5.556881 18.691391 6.973411 10.634104 -43.845946 18.772086 -12.578333 -5.293225 -4.481619 5.716895 7.899298 13.348291 -2.800636 -9.067587 -3.220520 3.285385 1.432320 -2.503475 2.434764 -8.462022 -0.294486 -20.527083 -54.799365 -12.485248 -6.913965 28.989316 -12.023219 -8.137096 -16.160633 -4.243085 4.235209 -2.685481 -1.526583 -7.232615 0.676379 0.092648 -1.487673 -0.734980 -5.166499
-7.421091 23.532379 -50.897901 27.508848 -73.931524 34.393011 0.853800 -1.406402 -1.134664 -3.530469 3.590020 1.701829 -2.808926 10.486391 -3.208059 -1.930923 -11.852488 6.974178 -2.758912 -14.172743 4.056340 -0.526570 -1.761548 -8.074122 9.391663 -1.644205 -14.371121 8.423925 8.303892 12.779644 14.740409 -16.040517 -36.749969 -12.112684 -1.950033 16.252718 -8.840127 2.866337 -5.036917 -6.699750 2.571708 -5.038821 -4.016887 -17.391250 40.511717 -1.518672 -11.476725 -9.483695 4.573608 -4.998610 -0.708000 1.613634 -6.048384 2.847570 4.053251 18.062281 6.604557 8.188119 -39.438928 15.042220 -11.486084 -5.659310 -2.841199 6.434157 5.284303 12.836935 -2.519336 -8.841583 -2.640329 4.218675 -0.810411 -1.331295 1.471106 -8.049003 -0.918503 -14.689751 -39.258269 -1.813339 -4.463835 25.242572 -15.075311 -8.362498 -20.231600 -12.102347 4.304901 -0.643804 -0.894391 -8.827827 -1.241172 0.780267 -0.682476 1.038040 -3.491546
-7.238805 22.235394 -52.162018 25.023562 -73.913723 33.257633 1.001146 -1.533843 -1.672272 -3.161337 3.521508 1.174929 -2.066695 9.777818 -4.149067 -1.013218 -10.572793 6.078032 -1.173879 -17.948427 4.971695 -0.302161 -2.251745 -8.577733 8.183089 -3.905154 -14.234670 6.994693 8.868022 9.866535 9.921858 -16.975423 -39.829352 -10.172844 -0.859313 17.908435 -11.446490 3.734633 -1.433860 -6.038059 3.068831 -4.863979 -5.904809 -13.615016 41.221625 -1.857996 -11.134436 -6.721424 1.796032 -7.778346 2.475239 0.677947 -6.296856 0.487653 2.725815 17.322537 5.237904 7.484178 -28.274353 13.395280 -13.453084 -13.562804 -5.684159 8.571388 4.194493 12.641426 -1.897842 -9.144105 -1.456657 5.383368 0.618727 0.196977 0.555307 -5.402418 0.761351 -16.301009 -28.138208 1.434430 -0.040981 34.721855 -10.988343 -7.695633 -26.039204 -15.321680 3.650519 -6.697900 -1.998194 -8.831159 0.502826 1.952931 -0.785280 1.845615 -1.039477
-6.985688 21.266293 -53.738360 23.287999 -72.650709 31.838394 1.333764 -1.401798 -1.902698 -2.701411 3.383011 0.913815 -1.078292 9.174922 -3.842087 0.739560 -9.979274 6.350931 -0.684797 -22.285090 5.869783 0.889694 -3.134923 -7.726570 9.240803 -5.634349 -13.587875 8.092033 11.057875 7.736677 3.405030 -21.046132 -46.394836 -9.165741 0.755114 19.416123 -12.678990 4.352765 1.044390 -5.047407 2.352172 -5.113104 -9.387251 -10.879798 38.617131 -1.446738 -10.556817 -4.034370 -2.672757 -11.827356 4.999640 0.691062 -4.385849 -0.174171 1.634447 18.359422 3.426428 8.464362 -22.782589 15.184662 -14.936576 -16.548965 -7.235205 12.487068 2.655714 12.102405 -0.490267 -9.361854 0.238617 6.584079 3.236501 0.675809 0.042960 -4.336228 0.971471 -20.170814 -32.000364 1.997974 1.707374 41.035940 -8.357131 -3.278160 -23.276845 -13.064651 2.172009 -8.703267 -3.521457 -9.471241 3.530702 3.186283 -1.402827 3.366230 -0.464172
-6.465124 20.404804 -55.513844 24.288728 -70.887961 31.743214 1.743038 -1.647373 -1.817115 -2.828611 3.514497 1.364039 -0.797968 9.529724 -2.637988 1.666044 -10.672111 6.207791 0.124286 -24.640160 8.347445 2.048688 -4.165592 -6.162678 11.088612 -7.973021 -9.096222 10.518663 12.070918 6.502773 -3.859813 -27.349582 -51.036188 -10.047518 1.051282 22.441502 -12.124001 5.978941 1.494618 -4.427092 0.619466 -5.899551 -14.065121 -11.686932 37.486706 -1.256627 -10.866074 -3.224752 -3.814656 -10.759386 4.150886 0.638636 -2.922106 0.872090 -0.587169 18.304522 1.804073 8.223097 -23.681256 17.831695 -11.361530 -8.340395 -6.139028 16.399714 2.536314 14.714463 0.825985 -7.275542 -1.103222 6.492796 5.301809 3.120504 -0.656543 -4.698338 0.632384 -26.190603 -45.751946 -2.653803 5.296216 47.345096 -9.040007 -4.139858 -5.729825 -9.304974 3.806942 -7.143208 -1.159926 -7.614513 5.594328 3.780959 -1.837181 2.065027 -2.840182
-6.280149 19.819061 -56.806065 26.723960 -69.967831 33.717688 2.240033 -1.231238 -1.587699 -3.163638 3.922219 1.635717 -0.919292 10.307421 -1.195653 1.392367 -10.713461 5.411170 -0.925509 -23.928278 10.608546 2.269364 -5.206008 -5.149923 11.613051 -8.724649 -2.933144 12.644294 9.303893 7.842430 -7.592189 -30.603975 -48.796372 -11.098511 1.266755 22.865571 -9.679241 8.432907 3.257662 -4.701334 -1.020485 -6.252249 -17.659732 -11.100957 35.736973 -1.752572 -9.803194 -2.121393 -4.773897 -7.278367 3.080320 0.260415 -2.170011 2.686882 -0.965112 16.056858 0.319177 6.504949 -24.001209 18.491600 -7.463540 -0.268852 -4.493013 16.494361 2.944624 18.565828 0.489424 -4.664552 -1.741761 5.403498 6.446449 6.474003 -1.043641 -5.543849 0.489221 -30.899733 -49.830800 -7.463772 7.254571 52.165340 -8.523720 -1.617394 -4.666412 -5.565051 3.220266 -6.769737 0.189020 -6.946136 4.460044 2.439298 -1.053740 1.650947 -4.234892
-5.767496 18.832020 -57.670589 28.878101 -69.863543 36.424593 3.101335 -0.888712 -1.122140 -3.451892 4.687558 1.350095 -1.035121 11.144466 -0.394203 1.571622 -10.563751 5.476746 -2.001905 -22.499574 12.604466 1.432890 -6.502372 -4.907380 11.293736 -7.959686 2.104741 13.326210 3.870207 11.365909 -7.905933 -25.021065 -38.004071 -10.928795 -0.994766 19.721296 -8.022858 7.717083 5.165126 -5.055590 -1.797050 -6.945506 -22.152306 -10.180261 33.949203 -3.036091 -9.638759 -1.040641 -4.204522 -5.194773 2.619564 -1.647113 -1.187363 4.528842 -0.250693 12.890347 -0.928378 5.754652 -23.403331 19.521085 -6.666350 7.266660 -1.765673 14.962004 5.591446 19.170024 -2.447109 -4.034318 -2.669237 5.702093 5.134613 10.127136 -1.293223 -6.060326 0.004271 -24.366835 -44.064835 1.199970 1.316507 53.812328 -5.563508 2.506607 2.722255 -0.336672 4.414753 -11.330129 -3.419223 -4.397126 2.635602 4.667949 0.986561 3.118643 -3.673099
-5.891571 17.309383 -57.746160 31.877959 -71.471586 40.029788 3.619232 0.113669 -1.503960 -3.430729 4.453113 0.841367 -0.816994 11.371820 -0.064193 3.800260 -8.489959 5.999201 -0.992009 -22.187070 12.568849 0.329981 -7.798339 -5.393963 11.349730 -6.748507 4.944155 12.341619 0.922457 13.070326 -7.075586 -16.347649 -24.125695 -9.900285 -2.064606 15.090773 -6.929644 5.439998 5.093403 -5.885933 -1.806771 -7.341614 -22.905267 -10.755339 32.736225 -3.962259 -10.012652 -0.948487 -2.777106 -3.308373 3.172181 -2.941470 -0.738331 6.205301 -0.294478 10.501458 -1.765614 2.321854 -15.269619 13.753651 -2.936322 -2.728799 -2.233270 6.424226 17.579102 20.317510 -5.850185 -6.197626 -0.888134 2.847762 9.595420 9.834703 -1.543995 -4.281656 -0.925173 -24.101600 -35.450611 2.304956 7.587445 48.669418 -10.479672 1.945344 8.457436 4.305134 3.967743 -12.870548 -4.242745 -4.024092 4.508379 4.364122 2.937333 4.666833 -2.057288
-5.553758 16.095100 -57.456391 36.984037 -72.608903 44.840082 3.205775 -0.142131 -2.345269 -3.551559 3.536243 0.244557 -0.804325 11.356140 0.291096 6.485935 -6.532731 6.039579 1.034646 -21.333275 10.921623 -0.778646 -9.060433 -5.789935 11.347442 -5.972003 8.924956 11.277730 -2.369414 13.466374 -5.837839 -8.928399 -10.733362 -10.178298 -1.623164 8.686524 -7.272563 3.217327 3.518230 -7.732595 -2.146375 -5.723088 -21.666639 -8.922865 30.220636 -4.682210 -11.984399 -1.854093 -1.795844 -1.765680 4.693026 -3.822862 0.637110 7.270396 0.458161 9.218140 -1.823478 1.365229 -14.556524 9.769971 1.422097 2.327491 -3.163356 2.735565 9.773383 15.859123 -2.602476 -2.190159 -3.816180 1.127644 7.613889 10.759635 -1.147746 -3.441729 -2.568071 -20.011168 -26.289162 6.695140 6.540917 40.227068 -12.049598 6.142428 -2.441428 4.258337 2.884714 -4.944566 -0.932655 -2.853570 3.026448 3.048485 3.333062 5.131696 -2.294503
-5.237946 14.467854 -57.013199 36.352250 -73.275332 43.868656 2.627515 -1.562151 -2.441293 -3.315640 1.457246 -0.416521 -0.306681 10.705048 0.059969 8.557434 -6.558529 4.088474 1.783237 -19.374688 8.645852 -1.777613 -9.148110 -5.691558 10.972386 -4.029881 14.632695 9.593210 -8.517679 11.601777 -4.061423 -7.927910 -8.130034 -11.129538 1.124442 8.944904 -7.754520 2.532524 4.974514 -9.252873 -1.514615 -2.954109 -21.048661 -6.590803 27.846707 -5.096490 -12.832628 -2.716292 -0.743153 -0.231393 5.579159 -3.619713 1.025400 8.515454 1.756386 6.927269 -0.045918 3.504537 -12.254954 9.103856 -1.766043 0.669758 -3.934844 4.408641 8.868633 15.291141 -1.730708 -2.088062 -0.456574 0.812996 9.833288 11.971527 -0.488061 -3.243782 -2.351988 -17.545347 -18.038481 8.553865 3.081601 29.834741 -11.712575 6.318455 -6.104674 6.240449 1.486595 -0.365876 1.226608 -2.308622 2.050681 1.633938 3.685785 4.990786 -2.978300
-4.621968 13.763123 -56.842996 38.368991 -74.475293 44.096112 2.368303 -1.803792 -2.165986 -3.200134 0.697983 -0.676431 -0.559591 10.672782 0.147136 7.380408 -8.396011 2.357454 1.069910 -19.207382 6.530542 -2.889444 -9.213691 -4.589039 11.000835 -1.940831 20.022456 8.791320 -13.372533 10.554399 -1.085327 -13.475007 -10.431904 -12.652737 4.194662 11.246684 -8.825175 6.879569 6.199448 -9.403750 -0.065851 -3.754087 -20.679002 -9.166941 25.763480 -6.282217 -11.893582 -4.787722 -1.858990 0.846553 7.474210 -4.082488 1.760610 8.188130 2.604166 4.752477 1.182630 3.642354 -14.234741 9.451123 -0.641805 2.171285 -3.519356 3.883798 15.035499 14.808946 -0.399221 -3.380873 1.909996 0.587990 9.637176 10.022684 -0.809328 -3.553826 -4.305102 -16.883415 -16.519574 10.812469 1.918601 23.694801 -12.510201 5.139097 -0.334258 7.161138 0.056242 0.178846 2.396979 -2.141377 4.618269 1.219128 3.511207 5.098585 -3.569087
-3.972074 13.383137 -56.932270 43.092390 -74.683438 46.411187 1.497237 -1.874713 -1.655186 -3.273640 0.445399 -0.784032 -1.047252 10.803460 0.309193 5.928353 -10.117974 1.641966 0.637032 -19.923724 5.343110 -3.634696 -9.555187 -2.792890 13.030300 -2.134402 23.366580 8.800465 -15.451779 10.367502 0.985469 -16.012671 -12.433806 -13.998258 4.108537 11.900288 -10.342153 10.170078 3.658171 -9.034238 0.926415 -5.009487 -20.990412 -12.216041 22.203406 -6.146266 -9.925522 -6.924247 -3.564466 2.353441 9.790595 -4.614760 3.224140 9.673234 3.435980 5.388326 1.702399 3.177507 -17.257690 10.933762 1.769975 7.170557 -3.732761 7.099101 17.972104 14.080643 -0.150505 -4.535954 3.261336 1.862831 8.012268 8.385730 -1.252458 -5.094903 -5.202385 -17.657364 -21.717530 11.716908 4.969439 31.953990 -12.345762 4.417400 -0.815628 5.929761 -0.843528 -2.816816 3.769208 -1.641420 4.597039 2.730833 3.196865 6.819985 -3.654246
-3.435612 12.573112 -56.612279 43.108664 -74.919939 45.546777 1.458251 -1.633089 -1.488981 -3.040645 0.228225 -1.022232 -1.307156 9.830728 0.719973 5.067163 -10.268220 2.007518 0.812252 -19.282595 4.719007 -3.431445 -10.167744 -2.048958 18.996760 -6.218668 20.944579 8.594694 -10.325517 9.189279 0.791401 -8.034127 -9.805171 -14.090114 3.348152 9.717405 -8.954279 9.953430 3.613468 -8.809947 1.653937 -5.090629 -22.470122 -13.412977 17.997408 -4.327271 -7.304671 -7.864491 -5.875749 4.954445 9.682868 -5.359460 4.579027 10.155522 3.958746 7.445276 0.607140 0.736894 -13.434547 12.106378 3.164172 2.129103 -5.840408 11.004922 19.922711 12.965177 0.829963 -8.719393 1.615059 3.245575 8.563531 7.956241 -1.757657 -5.780267 -3.762830 -19.786358 -19.995954 10.744490 6.184116 29.508713 -12.204557 4.330826 0.806623 4.190293 -1.056652 -3.999574 5.069877 -1.854558 4.587541 2.499699 3.476122 7.548815 -2.188703
-3.222857 12.356224 -56.559496 44.670186 -75.096007 46.602981 1.212886 -1.434226 -1.257910 -3.123584 0.118201 -1.008321 -1.728407 8.972143 0.702606 4.821110 -10.755603 2.646857 0.892088 -18.990570 4.777442 -2.922243 -10.403880 -1.547040 21.359537 -5.609032 19.972770 8.277497 -9.577659 7.784000 -1.296682 -6.892182 -10.601860 -14.239100 3.842151 11.652632 -7.747204 9.480878 5.109340 -9.410145 2.128321 -5.211472 -22.350067 -16.222036 17.195349 -3.981055 -3.345937 -7.313963 -5.409919 9.500639 8.316284 -6.984487 4.550200 10.735883 3.977157 8.249392 -0.328145 -0.723295 -11.863188 13.117047 3.893712 1.802293 -7.631620 12.767423 17.491856 14.140561 0.416949 -9.231298 1.042640 3.928148 8.172621 9.401085 -2.446128 -5.646597 -3.431827 -20.578386 -20.278064 11.083680 6.117534 28.661297 -12.678465 4.228750 6.750112 2.009836 -0.880849 -5.147174 4.649888 -1.615879 5.488293 2.498813 3.400563 9.571749 -0.923306
-2.899902 12.139626 -56.830981 47.339825 -75.328698 48.766671 0.964340 -1.419564 -1.107291 -3.121767 0.131478 -1.154356 -2.198947 8.514416 0.839342 5.464812 -11.377196 3.433751 0.983683 -19.105816 5.320762 -2.636923 -10.520593 -1.090304 21.447380 -3.610204 20.737619 8.093361 -10.597616 6.432197 -3.806475 -5.728675 -10.772216 -15.104751 5.435672 13.806122 -9.659329 6.524994 5.821911 -10.005483 1.961014 -5.131769 -23.031395 -17.008099 16.044542 -3.774608 -1.814746 -6.645641 -5.535053 10.677820 8.209974 -7.313146 5.466325 10.199549 4.431208 8.690096 -2.042042 -0.531198 -11.744497 14.711530 4.556814 3.036429 -6.504633 11.679658 17.191503 13.500855 0.881967 -7.051451 0.377591 2.921698 9.650739 11.138518 -3.254693 -5.887157 -3.147452 -19.276368 -21.627131 11.456984 5.288149 29.528369 -12.273771 1.490463 16.669292 1.536691 -0.209115 -6.230177 2.599101 -2.568661 6.467997 2.136198 3.329840 9.107379 -0.807289
-2.694260 11.996090 -56.928217 50.416662 -75.996494 51.792543 1.084237 -1.397855 -1.131252 -3.124424 0.155548 -1.287237 -2.362008 8.471442 0.929221 6.252610 -10.609157 4.289586 0.433756 -19.135413 4.778723 -2.498465 -10.354327 -0.776949 19.171121 0.306999 22.986860 7.963435 -12.346242 5.364039 -2.672524 -2.046630 -8.860573 -16.634103 5.084339 13.359935 -10.904505 4.981712 6.031466 -10.299724 1.605960 -5.804531 -24.528496 -17.124869 13.922951 -4.089050 -2.321043 -5.252905 -7.497003 10.600209 9.273967 -8.151409 6.231081 8.939586 3.867162 8.223223 -3.998699 -0.034860 -11.038736 15.814504 4.567219 4.108284 -6.378332 12.151948 14.419697 11.460524 2.862454 -2.778940 -0.179612 2.398440 9.652237 11.089441 -3.484956 -6.107221 -2.954892 -18.611686 -20.928844 11.949113 4.604571 29.485104 -12.877136 0.009958 21.428337 1.955211 0.805860 -6.420705 2.584517 -3.707229 7.091537 1.649044 3.359859 8.405838 -1.047576
-2.484422 12.071941 -56.824026 52.072790 -76.150826 53.439080 1.162085 -1.565134 -0.677914 -3.040278 0.255372 -1.406634 -2.477632 8.409041 1.053085 6.490067 -9.528205 4.794951 0.138429 -20.356689 3.920611 -2.285482 -10.313868 -0.969094 18.245005 2.031497 24.427716 8.874078 -14.038043 4.588611 -0.348933 -3.113745 -9.293471 -16.943349 5.468282 16.250904 -10.427130 6.268406 6.701465 -10.638136 0.880206 -6.445463 -25.670706 -15.953667 8.040047 -3.401911 -4.816306 -2.185647 -10.510781 8.120537 11.988754 -8.209767 5.983774 8.803190 3.297733 7.189001 -4.547365 0.210941 -10.779915 17.038981 3.691512 2.848151 -6.239517 13.169340 13.590994 9.919384 2.485197 -2.431552 -0.021962 1.718176 9.010023 10.764617 -3.477354 -6.254638 -3.130810 -18.548292 -21.834997 11.914012 4.887974 31.852600 -13.614344 -1.241964 22.322078 2.982329 0.756240 -6.091807 3.248101 -4.433129 6.818034 1.602025 3.282798 8.329702 -0.895309
-2.341254 12.132229 -56.674912 53.717668 -76.123735 54.892747 1.173466 -1.814184 -0.203490 -2.959054 0.309095 -1.493819 -2.487867 8.243632 1.098061 6.467211 -7.918458 5.483460 0.033513 -21.108770 4.058424 -2.055442 -10.157130 -1.277879 18.182148 3.011440 24.068577 10.643590 -13.749705 4.108723 2.237011 -6.072701 -13.190934 -18.930875 8.475308 19.351931 -8.690027 8.017322 3.619392 -11.109663 0.695503 -6.700606 -26.146034 -14.959048 4.918438 -3.555725 -5.988433 -1.804019 -12.724312 5.998741 9.541440 -7.095701 4.714825 11.378567 3.941411 6.934180 -3.653301 0.060931 -10.297800 17.865490 3.159908 1.102481 -6.270988 13.651283 12.020429 9.345237 2.449934 -2.074907 0.063375 1.472870 7.915184 10.667434 -3.337335 -6.662956 -3.239077 -18.947492 -22.161715 11.540995 5.156774 32.254564 -13.928169 -1.755605 24.502291 3.586746 0.698213 -5.267442 3.790454 -4.824603 6.842616 1.649620 3.123781 7.941213 -0.483297
-2.180757 12.058472 -56.453466 54.849194 -76.179090 55.637987 1.268513 -2.038272 0.265014 -2.903555 -0.007835 -1.693081 -2.510835 7.939284 1.112051 6.741764 -7.682101 6.175594 -0.227466 -20.641053 3.703743 -1.968314 -10.043316 -1.401525 19.060727 3.257293 24.068817 11.711006 -12.578303 2.827449 4.022903 -7.044234 -15.692686 -20.904770 10.077132 21.067435 -8.343260 6.608996 2.219397 -11.661461 0.265487 -6.332444 -26.381564 -14.446434 4.827515 -4.064962 -6.468516 -1.634805 -12.610066 6.082855 9.185336 -8.140729 4.948985 12.166751 4.151025 7.327231 -4.255394 -0.121951 -10.492063 18.450094 3.451030 0.794035 -6.220474 15.343426 13.065346 7.847046 2.021960 -2.083801 0.329380 1.747728 7.971877 10.148456 -3.029579 -7.314383 -3.358529 -18.827988 -22.044655 11.539258 4.970212 31.747189 -13.698844 -2.543804 25.855322 4.783764 0.503362 -5.298306 4.337619 -5.017155 6.585552 1.994098 2.783297 7.237011 -0.376325
-2.156950 12.018478 -56.261019 56.031961 -76.146645 56.701314 1.385229 -2.133183 0.465406 -2.895384 -0.254591 -1.687729 -2.163680 7.147568 1.030682 7.385164 -9.703666 6.723477 -0.347827 -18.348884 4.044738 -1.711547 -9.299013 -1.334842 17.380407 2.459633 23.802417 13.859523 -11.732659 1.620803 5.927602 -6.249597 -16.448071 -20.560259 10.571161 20.356034 -8.564052 5.840678 1.618131 -12.439765 -0.572321 -5.444477 -26.804257 -13.900598 5.131526 -4.834271 -6.465696 -0.593196 -12.408780 6.817842 9.461677 -9.541140 5.090198 12.251690 4.006674 8.391390 -5.595257 -0.174811 -10.765714 18.495665 3.330634 0.643984 -5.730124 17.026936 14.083811 7.435945 0.636583 -4.499918 0.210971 1.857906 8.749819 10.505350 -2.789164 -7.385966 -3.559984 -18.604375 -21.628025 11.363175 5.137012 31.004557 -13.312522 -3.574164 27.909268 4.957945 0.652318 -5.728663 4.164228 -5.163607 7.260933 2.209443 2.714508 6.530642 -0.188965
-2.003981 12.052925 -56.130788 56.888417 -76.221035 57.700788 1.539744 -2.037318 0.681616 -2.909412 -0.371676 -1.859024 -2.051739 6.576371 0.840869 7.412219 -9.856537 7.137464 0.202241 -18.020449 4.743346 -1.654952 -8.508956 -1.353304 17.386225 1.810590 22.721504 14.561528 -10.536170 1.389949 6.495395 -4.983213 -15.378915 -19.010690 10.483259 17.960559 -8.005025 5.337753 0.976529 -13.090515 -1.753691 -5.496680 -26.669772 -12.982156 5.908873 -5.080235 -7.258323 1.124975 -11.714177 6.585459 10.521954 -9.711362 5.119889 12.411930 3.878928 8.316351 -6.926228 -0.056812 -10.610233 18.597054 3.301066 0.151047 -5.407687 17.118725 12.910417 7.983178 0.240119 -5.208340 0.185001 1.985380 8.807151 11.045674 -2.675532 -7.473737 -3.682031 -18.555053 -20.884620 11.416671 5.486623 30.054349 -13.075291 -4.591551 30.957879 5.067127 0.790033 -7.413713 3.771817 -5.387350 8.742694 1.875600 2.331732 6.018994 0.586962
-1.921127 12.206036 -56.085359 57.254718 -76.081477 57.987099 1.464568 -2.270730 1.206373 -2.812302 -0.016007 -1.971233 -1.970846 6.418962 0.738562 7.654017 -10.129195 7.288175 0.390380 -18.229083 5.354930 -1.664158 -7.852056 -1.688445 17.451829 1.112730 22.356940 14.734992 -7.941717 0.942770 7.073969 -5.101614 -15.352019 -19.241562 10.707455 18.260364 -8.464524 4.462301 2.619949 -12.865013 -2.553919 -5.027646 -26.771705 -11.762070 5.503009 -5.657535 -7.335136 2.667627 -11.783691 6.397094 10.631072 -9.162910 4.465543 12.669623 3.863692 7.737923 -7.833888 -0.089001 -10.185785 18.631038 3.128041 -0.122400 -4.534132 16.382021 11.774914 8.818864 -0.048142 -5.676810 0.005458 1.763570 8.757564 11.097464 -2.795357 -7.334292 -3.851958 -18.645494 -20.565248 11.890151 5.835776 29.489289 -13.505687 -4.737726 32.157951 5.243032 0.611437 -8.131377 3.476193 -5.562260 9.656767 1.700402 1.580862 5.749313 1.039317
-1.830311 12.147617 -56.053660 58.946658 -75.792680 59.559184 1.245481 -3.471436 1.522598 -2.637473 1.558077 -1.921391 -2.075687 6.116701 0.499958 7.699971 -10.368988 7.747717 0.458868 -18.779387 5.733862 -1.762104 -7.312591 -1.838767 17.562419 0.765496 22.373357 14.993358 -7.157231 0.683088 7.817608 -5.367651 -14.856621 -19.754645 10.705419 18.920849 -8.668553 4.258567 3.663111 -12.891523 -3.038381 -4.518471 -26.758449 -10.769040 5.148563 -5.985557 -7.696308 3.610651 -10.679782 6.637224 11.586272 -8.800747 3.279590 11.598052 3.341665 7.556082 -9.818864 -0.705198 -9.781106 18.982779 3.450004 0.716501 -4.415572 15.687702 11.113708 9.966325 0.243709 -5.616050 -0.223489 1.420292 9.058054 11.421158 -2.955403 -7.552675 -4.089584 -18.861528 -20.100268 11.835826 5.542760 29.132206 -13.333773 -5.172760 32.812370 5.273541 0.274741 -7.868533 3.361699 -5.952747 10.584621 1.356212 1.133452 4.892613 1.433587
-1.517762 12.123524 -55.751780 58.976258 -75.364464 59.501881 1.275427 -3.690490 1.724906 -2.769323 1.904916 -1.777750 -2.038789 5.897920 0.483377 7.530571 -10.430565 7.837588 0.235408 -19.119722 5.724729 -1.898996 -6.747054 -2.121483 17.616674 0.482333 22.617247 14.979336 -6.828343 0.776940 8.515781 -5.061742 -14.451642 -20.289680 10.770249 19.702431 -9.007135 5.176611 4.556153 -12.992374 -3.215358 -4.246705 -26.287986 -9.385118 4.550999 -6.374430 -8.123520 4.083850 -10.721689 6.236531 11.198528 -7.793305 2.491718 11.096617 3.945479 7.588577 -10.465084 -1.175703 -9.921570 18.953770 3.709685 1.579195 -3.888079 15.444287 8.934781 10.107694 1.041499 -4.466715 -0.052377 1.222718 8.916180 11.386602 -3.298006 -7.392308 -4.335992 -19.157989 -20.020305 11.620059 5.452131 29.622206 -13.408560 -5.815016 32.611896 5.581361 0.204505 -7.346628 2.852386 -6.151117 10.761093 1.230479 0.914187 5.006542 1.602867
-1.304269 12.115341 -55.435189 59.012932 -74.932890 59.447943 1.132568 -3.836876 1.849775 -2.910997 1.710897 -1.648631 -2.050434 5.761720 0.700631 7.275111 -10.148734 7.648950 0.299969 -19.730309 5.336078 -1.767916 -6.314170 -2.366860 17.943492 0.639762 23.058476 15.054546 -7.171627 0.730945 8.826765 -4.805751 -13.932121 -19.937900 10.928434 19.565619 -8.376181 5.596880 5.352823 -13.044773 -3.363730 -3.951784 -25.054648 -7.288419 4.470550 -7.084626 -8.999529 4.068499 -11.209605 6.325891 10.883679 -6.980020 2.144371 10.830272 4.669780 7.949669 -10.666441 -2.047001 -10.480389 19.292056 4.361738 2.019556 -3.808604 15.551368 7.302038 9.697768 1.729902 -4.019861 0.458312 1.341937 8.538066 10.919396 -3.505162 -7.336834 -4.239830 -19.608421 -19.806723 11.276455 5.475010 29.259817 -13.220900 -5.315447 32.292735 4.899687 -0.156716 -6.444883 2.926128 -6.187978 10.734797 0.881601 1.030627 4.797286 1.742496
-0.950610 12.013916 -54.893075 58.863806 -74.238311 59.354245 0.987540 -4.167425 1.875789 -2.965558 1.680155 -1.213304 -2.077965 5.354552 0.765022 6.730667 -9.826690 7.590424 0.661618 -20.393128 5.224235 -1.603332 -6.244869 -2.529421 17.354629 1.163931 22.728476 15.400875 -7.698300 0.991492 9.201204 -5.203611 -14.003977 -20.227520 11.709350 19.813187 -8.177874 6.972654 6.658009 -13.089372 -3.052862 -3.960857 -24.956928 -6.400616 3.877265 -6.702221 -8.808520 4.415048 -11.330218 6.929925 10.982975 -6.940506 2.158689 11.121950 5.124159 8.162589 -10.087050 -2.986250 -11.179208 18.811254 4.906579 2.229574 -3.329943 15.621722 6.013180 9.465524 1.939187 -3.377752 0.414705 1.486403 8.500857 10.468034 -3.219806 -7.581944 -3.900444 -20.058854 -19.813661 10.929227 5.244125 28.819583 -13.688462 -4.462843 32.620488 4.268694 -0.443114 -6.210712 2.685068 -6.035478 10.211240 0.109672 1.176297 4.163725 1.910758
-0.831588 11.972034 -54.539939 58.921308 -73.957492 59.553812 0.908392 -4.254255 1.980951 -2.859413 1.494761 -0.877033 -2.147984 5.376371 0.833889 6.216421 -9.147434 7.351639 0.841350 -21.148084 5.140496 -1.221942 -6.176674 -2.732431 16.529252 1.032605 23.064241 15.488033 -7.982133 0.929117 9.642393 -5.303019 -14.573930 -20.503137 12.372515 19.811581 -7.909651 7.229085 7.612073 -13.000034 -2.716141 -4.049999 -25.097544 -5.035013 2.765341 -6.681475 -8.821241 4.883617 -11.547977 6.467124 10.780929 -7.140106 2.513489 11.871257 5.595927 8.727662 -9.078380 -3.328818 -11.395004 18.758384 4.925597 2.382628 -2.815324 15.921664 5.515378 9.371995 1.695809 -3.199133 0.228940 1.433387 8.999332 10.757305 -3.174647 -7.256785 -3.680880 -20.272406 -19.738760 10.747435 5.158610 28.618947 -14.449193 -3.725012 33.430264 3.894982 -0.697429 -5.908380 2.818567 -6.283489 10.022836 -0.708702 1.198935 3.510543 2.028985
-0.731209 12.020107 -54.027925 58.468430 -73.409313 59.358346 0.710687 -4.494226 2.081695 -2.876512 1.254539 -0.674287 -2.289801 5.351189 0.787055 5.564858 -8.093276 7.119931 0.741413 -21.338142 5.631806 -1.038333 -6.193565 -2.724865 16.163552 0.780809 23.218918 15.221089 -7.658427 0.662368 9.884666 -5.099114 -15.246301 -20.165917 12.833216 19.417718 -7.782844 7.640483 8.610548 -12.807939 -2.571461 -4.157176 -25.383033 -3.616511 2.116950 -6.793804 -9.220706 5.820318 -11.076764 5.864047 11.102945 -7.443738 3.139413 12.331926 5.889981 9.374395 -8.016972 -3.725092 -12.051001 19.255944 4.798456 2.599185 -2.554748 16.402783 4.777060 9.675521 1.188833 -3.244714 -0.112343 1.354063 9.376303 11.090993 -3.033379 -6.895286 -3.187795 -20.599541 -19.810404 9.829401 5.186099 28.732490 -15.370571 -3.950223 34.280673 4.154169 -0.732045 -6.058609 2.965713 -6.671281 9.717951 -1.623683 1.252959 3.278461 1.902363
-0.498157 12.065899 -53.588739 58.238225 -73.041692 59.278796 0.658089 -4.358200 2.127675 -2.794180 1.034696 -0.404823 -2.541989 5.477388 0.710942 4.303771 -7.722372 7.589181 0.846624 -22.311358 5.427147 -0.637308 -6.448068 -2.991783 15.503958 0.330154 23.878513 15.223125 -7.235918 -0.034979 10.300815 -4.612506 -15.743200 -19.632937 13.016864 19.621293 -7.887144 8.093788 9.551784 -12.775089 -2.582667 -4.551387 -25.101517 -2.311951 1.402435 -7.157120 -9.401068 6.402222 -10.649781 5.257259 10.305189 -7.449193 2.844295 12.801424 6.347372 9.943906 -8.079561 -4.023924 -12.183607 18.920717 4.584069 2.060220 -2.254607 16.753725 4.477626 9.567623 0.748009 -3.159723 -0.111760 1.362532 9.299060 11.121269 -3.192022 -6.259146 -3.131865 -20.981487 -19.407449 8.934366 5.614137 28.037637 -16.079922 -4.643262 34.844839 4.528648 -0.484162 -6.910883 3.174502 -7.038371 9.704604 -2.310683 1.951783 3.594031 1.611485
-0.301625 12.107174 -53.218164 57.995459 -72.721353 58.960082 0.748042 -4.633436 2.229499 -2.722453 1.031175 -0.226782 -2.747173 5.776236 0.429657 3.717736 -7.603389 8.043889 1.352191 -22.691575 5.831591 -0.227716 -6.629107 -2.873542 15.157029 0.285174 24.294075 15.428193 -6.551816 -1.356710 10.490478 -4.193977 -16.087043 -19.414731 12.748689 20.216202 -7.966178 8.328293 10.624995 -13.026351 -2.813756 -4.483784 -24.326922 -1.375438 0.380519 -7.970118 -9.330820 5.873420 -10.403145 4.791687 9.815987 -6.779176 2.203521 12.910474 6.708077 10.394228 -7.869240 -4.140251 -12.656540 18.998574 4.451831 1.956439 -2.217117 16.463623 4.088700 9.496919 0.670396 -2.967440 0.185093 1.415695 9.460218 10.943719 -3.404006 -6.481884 -3.231162 -21.232793 -19.358200 8.043375 5.555149 27.501116 -16.601752 -6.051794 37.361084 4.582177 -0.185690 -8.532213 4.389790 -7.413083 9.882041 -2.410468 1.994781 3.839566 1.211045
-0.229223 12.109898 -52.742423 58.002572 -72.435932 59.111190 0.799738 -4.483885 2.175230 -2.585175 1.029407 -0.063352 -2.960534 6.080106 0.440740 3.062786 -6.932079 7.634337 2.368099 -23.331343 7.003096 -0.117276 -6.805437 -3.129462 14.890670 0.186394 24.781484 15.008479 -6.160382 -1.678754 10.678878 -3.895344 -16.367267 -19.214015 12.307902 20.551203 -7.614946 8.155664 11.255968 -13.099566 -2.947549 -4.973591 -23.393322 -0.879816 -0.259819 -8.366076 -8.986225 5.342445 -10.435640 4.894320 9.086419 -5.402266 1.785679 11.568945 6.969779 10.823915 -7.530614 -4.182630 -12.900776 18.871414 4.474133 1.936929 -1.929715 15.839454 3.857771 9.145450 0.654913 -2.521441 0.404389 1.815232 9.614485 10.809844 -3.411083 -6.861994 -3.308891 -21.166088 -19.209246 7.522326 5.340403 27.671106 -17.242317 -8.870412 40.063125 7.199521 0.308108 -10.518197 4.268709 -8.168215 9.392393 -2.136020 2.136425 4.083223 1.204959
-0.067217 12.251408 -52.516137 58.019818 -72.093206 59.378254 0.805309 -4.461404 2.077582 -2.565632 1.107617 0.077459 -2.970238 6.121218 0.247547 2.433709 -7.318603 7.281264 3.100636 -23.441718 7.936945 -0.247567 -7.001934 -3.234526 14.527438 0.040093 24.828122 14.882104 -6.158378 -2.164437 11.120876 -4.027590 -16.732126 -19.281397 12.316632 20.799229 -6.932649 7.741114 10.946304 -13.127431 -3.561884 -5.079870 -23.238447 -0.227807 0.813479 -8.214225 -7.465262 5.040277 -10.122788 5.768653 8.077744 -5.002599 2.136598 10.261871 6.712608 11.539081 -7.230203 -4.588640 -13.007638 18.857430 4.687296 1.773030 -2.568414 15.339986 4.353593 8.903914 0.632797 -2.496960 0.799656 2.131627 10.598825 10.944650 -3.638218 -7.086324 -3.405018 -21.442950 -18.940966 6.929509 5.115645 27.383143 -17.632711 -11.255171 41.159356 9.859550 0.848188 -11.536079 4.070990 -8.606685 8.812820 -1.317826 2.116366 3.648675 1.489186
-0.064270 12.329788 -52.078066 58.068496 -72.081387 60.051808 0.898759 -4.020584 1.797461 -2.543074 0.045971 0.352255 -2.792984 6.609659 -0.103787 2.129181 -7.603888 6.632781 3.430725 -22.824569 8.742805 -0.409025 -6.942619 -3.703684 13.922187 0.177944 24.561325 14.963402 -6.576518 -2.088796 11.527329 -3.935870 -16.934286 -19.360904 12.308763 21.217530 -6.443669 7.116958 11.067011 -13.250213 -3.579255 -5.315733 -23.877711 -0.229935 1.737566 -7.268191 -6.924135 4.904624 -9.345808 6.226851 7.663351 -4.784508 2.902809 9.629987 6.383557 11.828306 -6.817174 -4.640591 -12.510104 18.211833 4.743225 1.428091 -2.583919 14.781744 4.249886 9.244325 0.777501 -2.569232 0.942652 2.113313 11.337927 11.374060 -3.551055 -7.009399 -3.672875 -21.470035 -18.230788 6.239110 5.245151 27.379781 -18.374991 -12.494695 41.367254 11.216864 1.271439 -12.333380 4.008650 -8.781735 8.158225 -0.837494 1.981818 3.508608 1.512657
0.043492 12.604744 -51.648862 57.415385 -72.425520 59.721375 1.470268 -3.424632 1.561634 -2.478714 0.706929 -0.140480 -3.094182 5.667621 0.110586 2.126371 -8.224179 6.503946 3.315431 -23.028757 8.539267 -0.568757 -6.935730 -3.814893 13.565323 -0.108461 24.662395 15.100901 -6.435533 -1.698357 11.488687 -3.559202 -16.859700 -18.544298 12.135128 21.247742 -5.766675 6.658853 11.675308 -13.241223 -3.445622 -5.251033 -23.516249 -0.717611 2.282405 -7.461711 -6.233237 4.557813 -9.246134 6.620334 7.643148 -4.416763 3.752776 9.444256 6.331185 12.530747 -6.624651 -4.033772 -12.249319 17.654486 4.239470 1.537952 -2.602583 14.803022 3.966569 9.075210 0.749000 -2.666983 0.719860 1.911530 11.541271 11.368205 -3.338414 -6.667302 -4.008303 -21.403338 -17.783474 5.826629 5.772043 27.587207 -18.470217 -12.767788 40.973252 11.336702 1.579905 -12.213716 3.626865 -8.766345 7.497114 -0.983958 1.869609 3.700318 1.701978
