HIERARCHY
ROOT Bip01_Pelvis_02
{
  OFFSET 0.000000 0.000000 0.000000
  CHANNELS 6 Xposition Yposition Zposition Zrotation Xrotation Yrotation
  JOINT BN_Tail_01_03
  {
    OFFSET -0.000022 -0.278651 -20.917729
    CHANNELS 3 Zrotation Xrotation Yrotation
    JOINT BN_Tail_02_04
    {
      OFFSET -0.000017 -39.546124 -24.990952
      CHANNELS 3 Zrotation Xrotation Yrotation
      JOINT BN_Tail_03_05
      {
        OFFSET -0.000000 -29.934245 -26.364087
        CHANNELS 3 Zrotation Xrotation Yrotation
        JOINT BN_Tail_04_06
        {
          OFFSET 0.000002 -26.364110 -33.778946
          CHANNELS 3 Zrotation Xrotation Yrotation
          End Site
          {
            OFFSET 0.000001 -6.591028 -8.444736
          }
        }
      }
    }
  }
  JOINT Bip01_Spine_07
  {
    OFFSET 0.000136 13.419725 22.315748
    CHANNELS 3 Zrotation Xrotation Yrotation
    JOINT Bip01_R_Thigh_08
    {
      OFFSET -26.080326 -13.419729 -22.315689
      CHANNELS 3 Zrotation Xrotation Yrotation
      JOINT Bip01_R_Calf_09
      {
        OFFSET -1.774809 -64.991066 14.149503
        CHANNELS 3 Zrotation Xrotation Yrotation
        JOINT Bip01_R_HorseLink_010
        {
          OFFSET 8.360018 -25.676045 -22.829595
          CHANNELS 3 Zrotation Xrotation Yrotation
          JOINT Bip01_R_Foot_011
          {
            OFFSET -2.301712 -27.115015 10.800018
            CHANNELS 3 Zrotation Xrotation Yrotation
            End Site
            {
              OFFSET -0.575428 -6.778754 2.700005
            }
          }
        }
      }
    }
    JOINT Bip01_L_Thigh_013
    {
      OFFSET 26.080072 -13.419773 -22.315689
      CHANNELS 3 Zrotation Xrotation Yrotation
      JOINT Bip01_L_Calf_00
      {
        OFFSET 1.774685 -64.991038 14.149503
        CHANNELS 3 Zrotation Xrotation Yrotation
        JOINT Bip01_L_HorseLink_014
        {
          OFFSET -8.360022 -25.676037 -22.829603
          CHANNELS 3 Zrotation Xrotation Yrotation
          JOINT Bip01_L_Foot_015
          {
            OFFSET 2.301650 -27.115023 10.800047
            CHANNELS 3 Zrotation Xrotation Yrotation
            End Site
            {
              OFFSET 0.575412 -6.778756 2.700012
            }
          }
        }
      }
    }
    JOINT Bip01_Spine1_017
    {
      OFFSET -0.000003 -5.385775 30.473392
      CHANNELS 3 Zrotation Xrotation Yrotation
      JOINT Bip01_Spine2_018
      {
        OFFSET -0.000005 -5.811864 32.875161
        CHANNELS 3 Zrotation Xrotation Yrotation
        JOINT Bip01_Neck_019
        {
          OFFSET -0.000098 -20.022768 27.523400
          CHANNELS 3 Zrotation Xrotation Yrotation
          JOINT Bip01_Head_020
          {
            OFFSET -0.000003 -5.629553 25.881833
            CHANNELS 3 Zrotation Xrotation Yrotation
            JOINT BN_Eye_R_021
            {
              OFFSET -11.852654 -19.446126 38.786587
              CHANNELS 3 Zrotation Xrotation Yrotation
              End Site
              {
                OFFSET -2.963164 -4.861532 9.696647
              }
            }
            JOINT BN_Eye_L_022
            {
              OFFSET 11.851853 -19.446107 38.786616
              CHANNELS 3 Zrotation Xrotation Yrotation
              End Site
              {
                OFFSET 2.962963 -4.861527 9.696654
              }
            }
            JOINT BN_Mouth_023
            {
              OFFSET -0.000276 -23.255266 4.081531
              CHANNELS 3 Zrotation Xrotation Yrotation
              End Site
              {
                OFFSET -0.000069 -5.813817 1.020383
              }
            }
          }
          JOINT Bip01_R_Clavicle_024
          {
            OFFSET -20.109530 17.415963 -12.954077
            CHANNELS 3 Zrotation Xrotation Yrotation
            JOINT Bip01_R_UpperArm_025
            {
              OFFSET -16.500977 -23.789879 11.639808
              CHANNELS 3 Zrotation Xrotation Yrotation
              JOINT Bip01_R_Forearm_026
              {
                OFFSET 6.839596 -48.640950 -10.440288
                CHANNELS 3 Zrotation Xrotation Yrotation
                JOINT Bip01_R_Hand_027
                {
                  OFFSET 5.821478 -39.043533 12.537106
                  CHANNELS 3 Zrotation Xrotation Yrotation
                  End Site
                  {
                    OFFSET 1.455370 -9.760883 3.134277
                  }
                }
              }
            }
          }
          JOINT Bip01_L_Clavicle_028
          {
            OFFSET 20.109720 17.415946 -12.954066
            CHANNELS 3 Zrotation Xrotation Yrotation
            JOINT Bip01_L_UpperArm_029
            {
              OFFSET 16.500944 -23.789909 11.639757
              CHANNELS 3 Zrotation Xrotation Yrotation
              JOINT Bip01_L_Forearm_030
              {
                OFFSET -6.839754 -48.640961 -10.440246
                CHANNELS 3 Zrotation Xrotation Yrotation
                JOINT Bip01_L_Hand_031
                {
                  OFFSET -5.821571 -39.043543 12.537097
                  CHANNELS 3 Zrotation Xrotation Yrotation
                  End Site
                  {
                    OFFSET -1.455393 -9.760886 3.134274
                  }
                }
              }
            }
          }
        }
      }
    }
  }
}
MOTION
Frames: 61
Frame Time: 0.03333333
-1.561311 115.371956 1.479288 1.453209 -3.742975 3.345214 -2.642315 -2.125737 0.184397 6.096011 1.656772 0.187971 1.284250 1.395417 2.995418 -3.596476 -10.204068 6.551605 -1.277238 0.824609 -0.695423 -1.728755 5.436226 1.267962 10.566854 22.806320 -5.463834 -5.591987 -0.745892 -0.937834 1.360493 -5.057250 -3.073163 1.994684 -18.871588 -0.627471 -7.192469 6.059701 9.889733 5.587412 2.182107 -0.973866 2.568075 7.917975 0.601326 -1.699137 -0.698573 -3.091377 0.072779 3.566620 8.072489 1.039206 -1.950405 -4.876342 0.589087 5.604903 2.926771 -0.189380 -1.349724 -0.965625 -1.204777 2.988971 2.009215 -2.902558 -3.618645 -1.943722 -10.089908 9.514063 -3.210348 8.170087 -16.940673 5.791463 -1.920406 -14.690767 -8.849607 2.942976 21.941596 0.509734 5.476246 11.579661 5.962962 -0.201631 8.475576 -12.747815 0.853860 -17.629727 -0.170350 -2.417671 2.806898 5.031105
-1.487124 115.077034 1.277111 1.528010 -3.981701 3.417636 -2.640146 -1.951463 0.085584 6.291214 1.376048 0.226360 1.678950 1.888071 2.356187 -3.478924 -9.654398 6.743964 -1.301607 0.906678 -0.700592 -1.857958 6.408905 1.204907 10.200268 21.795088 -4.904081 -5.495252 -2.124419 -0.723639 1.366006 -6.594159 -3.257342 1.834240 -18.451945 -0.605038 -6.881772 5.243998 9.633494 5.473182 2.945612 -1.059222 2.373296 7.697606 0.788498 -1.646081 -0.575014 -3.027470 -0.038958 3.582516 8.025535 1.125039 -2.069243 -4.710445 0.449705 5.678316 2.905972 -0.062437 -1.455798 -1.214322 -1.204467 3.100260 1.909009 -2.885778 -3.408141 -2.085706 -9.815567 10.232737 -3.519108 7.628861 -18.652836 5.747593 -1.740177 -14.272144 -8.826919 3.141465 22.062278 0.477193 5.861941 12.428671 6.408708 -0.657973 8.434452 -13.464822 0.705636 -16.864826 -0.194631 -1.947220 1.298323 4.742936
-1.294346 114.931404 0.865492 1.521541 -3.961109 3.421214 -2.583331 -2.130400 -0.120258 6.449163 1.032367 0.239617 2.228451 2.704996 1.832727 -3.075605 -9.104675 6.612382 -1.245814 0.875880 -0.674981 -2.100966 7.441395 1.080259 9.881268 20.512514 -4.318219 -5.309904 -3.466313 -0.300900 1.566397 -8.674692 -3.109466 1.665434 -18.297712 -0.695913 -6.720547 4.616861 9.583458 5.496998 3.809137 -1.075120 2.226380 7.444574 0.942355 -1.576854 -0.432332 -2.929506 -0.131392 3.561125 7.808115 1.030088 -2.388953 -4.532000 0.428161 5.780635 2.714193 0.005792 -1.443106 -1.094607 -1.215941 3.321743 2.034924 -2.705795 -3.355726 -2.221593 -9.462348 11.292260 -3.757147 6.886398 -20.653696 5.586178 -1.346002 -13.504184 -8.588276 3.523619 21.779465 0.366121 6.138507 13.125177 6.806379 -0.949845 9.073401 -13.893036 0.395671 -16.191410 -0.122285 -1.340792 -0.748881 4.226905
-1.240862 114.934937 0.551036 1.515304 -3.953086 3.487412 -2.603859 -2.255850 -0.405971 6.871549 0.387994 0.170239 3.434888 3.881130 1.028737 -2.679375 -8.633862 5.593048 -1.199749 0.892758 -0.626410 -2.347633 8.663459 0.952579 9.498445 18.809434 -3.747170 -5.008440 -4.580388 -0.140307 1.849838 -9.509231 -2.998314 1.580030 -18.292560 -0.782524 -6.532896 3.800464 9.482938 5.542041 5.249346 -1.027747 2.042418 7.086486 1.059098 -1.529232 -0.378959 -2.901485 -0.210313 3.469639 7.742759 1.091243 -2.673872 -4.520935 0.282402 5.773477 2.377047 0.069213 -1.323430 -0.901584 -1.299570 3.802981 2.203775 -2.567940 -3.321618 -2.431707 -9.316258 11.796066 -3.956244 6.272929 -21.786694 5.397883 -1.042144 -12.944818 -8.322089 3.882134 21.364640 0.161703 6.160825 13.738930 6.990048 -1.105178 10.267723 -13.974863 0.213446 -16.300454 -0.140599 -0.691816 -2.192195 3.518517
-1.170574 115.044540 0.201483 1.447563 -3.865887 3.434756 -2.459639 -2.425418 -0.768287 7.265687 -0.373160 -0.032559 5.845037 4.327252 -0.538129 -2.566236 -7.871524 4.802419 -1.105653 0.888535 -0.510198 -2.659568 9.768643 0.801179 9.125724 17.032451 -3.105081 -4.733936 -5.695635 0.186443 2.239004 -10.593159 -2.866377 1.581328 -18.366365 -0.925647 -6.540457 3.148373 9.537405 5.763855 6.755637 -1.200694 1.728609 6.518463 1.256692 -1.461928 -0.292654 -2.768554 -0.368648 3.313516 7.736842 1.062419 -3.010293 -4.527737 0.150041 5.780527 1.941836 0.285635 -1.161019 -0.776971 -1.329635 4.249622 2.290435 -2.270248 -3.237480 -2.623033 -9.099587 12.025221 -3.961512 5.547638 -21.896412 5.244026 -0.793507 -12.866175 -8.425769 4.233218 20.790262 0.022789 6.229726 14.391655 7.233198 -1.061235 11.400177 -14.220539 0.133406 -16.789528 -0.079890 -0.184183 -3.291146 3.025698
-1.097480 115.319443 -0.109078 1.408267 -3.751721 3.420695 -2.345341 -2.259856 -1.032195 7.833115 -0.861248 -0.390765 7.940477 3.868754 -2.185229 -2.255576 -7.012234 3.980379 -1.025573 0.887737 -0.391289 -3.057892 10.866571 0.440597 8.680964 15.377924 -2.338606 -4.442261 -7.276878 0.686301 2.676704 -11.143359 -2.917963 1.500518 -18.233721 -1.081685 -6.359944 2.297501 9.449321 5.833168 8.082652 -1.302627 1.567209 6.111049 1.519813 -1.311740 -0.221640 -2.619886 -0.531457 3.102556 7.672255 1.011148 -3.146770 -4.392003 0.116143 5.814551 1.566223 0.390072 -1.051069 -0.808421 -1.407801 4.423081 2.198636 -2.199287 -3.238019 -2.955224 -8.938421 11.917057 -4.155097 5.072317 -21.763731 5.115781 -0.583098 -12.577315 -8.463604 4.542096 20.127585 -0.067164 6.355347 14.885705 7.547839 -1.249202 12.218291 -14.488075 0.129168 -17.257441 -0.146629 0.019711 -3.867290 2.580353
-0.933194 115.711220 -0.407833 1.473489 -3.526917 3.340647 -2.460961 -2.056081 -1.032168 8.688146 -1.284699 -0.942363 10.328325 3.051237 -3.947997 -2.006430 -6.023743 3.391666 -1.005926 0.914672 -0.239986 -3.505588 11.800134 0.152914 8.293482 14.157184 -1.624570 -4.186247 -8.772035 1.228898 2.895346 -11.587706 -3.136625 1.454540 -18.071404 -1.411383 -6.290834 1.746795 9.454511 5.779869 8.110642 -1.314635 1.277001 6.469873 1.658787 -1.260556 -0.267626 -2.225626 -0.734692 2.974804 7.493392 1.065258 -3.406277 -4.326068 0.009402 6.063677 1.323577 0.447938 -1.046687 -0.886627 -1.480718 4.430915 2.158824 -2.009975 -3.329160 -3.090610 -8.869300 11.768847 -4.158601 4.634904 -21.196596 4.902236 -0.422942 -12.507506 -8.468935 4.959615 19.489531 -0.406981 6.543042 15.482199 8.072405 -1.266636 12.798064 -14.867669 -0.049444 -17.920916 -0.371086 0.187147 -4.198646 2.220816
-0.745053 116.245087 -0.741251 1.607130 -3.291122 3.166171 -2.626985 -1.611360 -1.161256 9.508533 -1.470438 -1.456145 12.044288 2.107823 -5.111817 -2.365842 -5.062362 3.055729 -1.102839 0.945138 0.059539 -4.053089 12.705880 -0.429425 7.931617 13.132574 -0.671706 -3.718862 -9.618412 1.569699 2.766411 -11.690939 -3.265376 1.518539 -17.840571 -1.729505 -6.139391 1.263245 9.363794 5.394893 7.845303 -1.172818 1.147564 6.889282 1.830016 -1.106709 -0.222722 -1.757304 -0.900483 2.616978 7.264225 1.066938 -3.441326 -4.218260 -0.047608 6.376052 1.054266 0.491640 -0.971412 -0.898024 -1.510556 4.375479 2.241056 -1.815001 -3.410574 -3.175059 -8.703736 11.438827 -4.282812 4.216563 -20.440587 4.841538 -0.328371 -12.263597 -8.411345 5.329558 18.590632 -0.661222 6.756510 15.970874 8.624213 -1.311373 12.974702 -15.360874 -0.157933 -18.595294 -0.494782 0.181949 -4.124712 1.914128
-0.581229 116.717751 -1.098203 1.718220 -3.042721 3.008345 -2.948230 -1.245698 -1.240297 9.981028 -1.328887 -1.697131 13.324218 0.994262 -5.751881 -2.761477 -4.555569 2.601979 -1.204997 0.960154 0.206176 -4.670203 13.286757 -1.098738 7.755507 13.113620 0.152839 -3.426186 -10.050396 2.003735 2.958666 -11.643571 -3.346612 1.646710 -17.637973 -1.832775 -6.086157 1.176009 9.264351 5.009605 7.024220 -1.068367 1.038958 7.371987 2.106468 -0.955070 -0.218079 -1.223422 -1.116335 2.283810 7.137803 1.072797 -3.362501 -4.163856 0.003298 6.574755 1.072938 0.580219 -0.707226 -1.106349 -1.446072 4.304270 2.184459 -1.619258 -3.371987 -3.303387 -8.488884 10.885072 -4.342491 3.774051 -19.361643 4.926598 -0.174603 -12.048904 -8.565021 5.537578 17.581237 -0.895531 6.994219 16.382419 9.224863 -1.310348 13.020610 -15.669811 -0.430905 -19.360788 -0.846756 0.364358 -3.927353 1.664365
-0.418657 117.246330 -1.395379 1.783413 -2.532130 2.899841 -3.344623 -1.088322 -1.065806 10.018847 -1.226727 -1.796506 13.922685 -0.088175 -6.089476 -3.139269 -4.197164 2.428617 -1.300282 0.847948 0.319565 -5.404906 13.473327 -1.771505 7.474259 13.718268 0.813724 -2.744180 -10.139432 2.612210 3.081370 -11.389781 -3.242397 1.913836 -17.596360 -1.862632 -6.013251 1.085707 9.058058 4.581256 6.226075 -0.887151 0.762214 7.989917 2.214812 -0.719509 -0.195444 -0.484036 -1.342421 1.794682 6.892436 1.059103 -3.321510 -4.257814 0.130521 6.884510 1.139168 0.519387 -0.249229 -1.269924 -1.360482 4.230518 2.108794 -1.525221 -3.215835 -3.134083 -8.339352 10.352207 -4.370113 3.479927 -18.133514 5.061165 -0.079553 -11.941244 -8.833361 5.689546 16.383447 -0.917955 7.115665 16.920090 9.858150 -1.347637 12.806107 -15.986238 -0.612457 -20.195318 -0.954763 0.391545 -3.465857 1.454409
-0.288420 117.679283 -1.748989 1.878517 -2.153115 2.783093 -3.905906 -0.867527 -0.783694 9.972467 -1.143593 -1.817548 13.945922 -1.038733 -6.096700 -3.710836 -3.914812 2.461156 -1.460064 0.833539 0.456915 -6.091090 13.596052 -2.431508 7.190323 14.415153 1.358998 -1.947501 -10.013978 2.968577 3.218392 -10.759070 -2.836936 2.215881 -17.561259 -1.972184 -5.839541 1.479464 8.819731 3.998856 5.107859 -0.777504 0.335676 8.573743 2.464257 -0.530729 -0.205443 0.183662 -1.551279 1.390494 6.747632 1.106395 -3.241997 -4.252930 0.291580 7.366332 1.089809 0.459752 -0.156197 -1.401120 -1.401429 3.884901 2.066377 -1.291154 -3.074974 -3.029788 -8.185088 9.701024 -4.532723 3.244436 -16.576765 5.328881 -0.206886 -11.865461 -9.039504 5.857158 15.132506 -0.901055 7.264859 17.447909 10.465410 -1.391207 12.345431 -16.202859 -1.007898 -21.560116 -1.183202 0.270849 -2.360101 1.345997
-0.218352 118.130699 -1.947428 1.821749 -1.809272 2.653032 -4.438396 -0.396246 -0.268522 9.724637 -1.138052 -1.823724 13.731462 -2.242738 -5.746041 -4.136854 -3.630693 2.500363 -1.532123 0.870707 0.574115 -6.779583 13.685294 -3.285992 6.892906 15.448981 2.148624 -1.196634 -9.074025 3.485498 3.107412 -10.048988 -2.159479 2.506681 -17.627383 -2.169997 -5.588562 2.026331 8.759362 3.404669 3.607840 -0.582969 0.051538 9.275202 2.489624 -0.293698 -0.165587 0.852681 -1.811528 0.938179 6.561969 1.069251 -3.155019 -4.207773 0.537923 7.855757 1.007228 0.570600 -0.078988 -1.560327 -1.410705 3.612286 1.891949 -1.030097 -2.500305 -2.856036 -7.953029 9.051917 -4.802472 3.089886 -15.151504 5.754738 -0.288395 -11.484950 -9.195305 5.924517 13.711740 -1.056330 7.520434 18.092250 11.043181 -1.349712 11.632728 -16.544562 -1.378329 -23.045223 -1.212743 -0.214719 -1.104938 1.647487
-0.180513 118.498970 -2.096821 1.719648 -1.647500 2.674042 -5.056560 -0.072990 0.286648 9.222168 -0.879119 -1.930933 12.729157 -3.132686 -5.209962 -4.417941 -3.460108 2.512084 -1.590935 0.994855 0.732173 -7.217786 12.871712 -4.198589 6.843123 17.763840 2.330889 -0.681216 -7.208750 4.046906 2.925016 -8.393756 -1.489434 2.798403 -17.796951 -2.511398 -5.457538 2.952583 8.859646 2.904368 2.016173 -0.549516 -0.181202 9.713646 2.514944 -0.014154 -0.155505 1.458792 -2.029357 0.530856 6.330061 1.129467 -3.035236 -4.232541 0.702691 8.493468 0.884756 0.557838 -0.096819 -1.793044 -1.496547 3.385450 1.816209 -0.628991 -1.786421 -2.957515 -7.776065 8.405450 -4.976748 2.782511 -13.388843 6.217415 -0.397831 -11.070505 -9.431761 6.016999 12.099867 -1.200422 7.778216 18.843745 11.835515 -1.479632 10.698521 -17.222369 -1.835206 -24.984420 -1.140588 -1.051949 0.713264 2.261193
-0.226095 118.598686 -2.051093 1.530491 -1.477734 2.697137 -5.702397 0.159682 0.827170 8.539255 -0.430714 -1.724935 11.473106 -3.814142 -4.936946 -4.599615 -3.951862 2.251846 -1.659937 0.997791 0.842021 -7.652269 11.532267 -5.390297 6.948851 21.410065 2.552975 -0.351037 -3.825212 4.075550 2.423751 -5.744132 -0.018423 3.013109 -17.901996 -2.816071 -5.238956 3.793533 8.887790 2.505303 1.073315 -0.613015 -0.341429 9.776800 2.522381 0.346349 -0.120286 2.033827 -2.254845 0.305991 6.160736 1.091336 -3.006693 -4.236617 0.943812 9.079656 0.594127 0.545780 -0.155568 -1.933332 -1.419470 3.231200 1.787172 -0.260586 -0.869892 -3.318073 -7.686794 7.915997 -5.126293 2.686097 -11.685001 6.761415 -0.415253 -10.466957 -9.733704 6.005826 10.549328 -1.335285 8.092008 19.516761 12.479266 -1.704265 9.832365 -17.810975 -2.320459 -27.636644 -1.093325 -1.866571 3.287568 3.265430
-0.120964 118.695076 -1.872028 1.176885 -1.361456 2.726701 -6.245794 0.591372 1.513904 7.869362 -0.182517 -1.635426 10.228226 -4.452594 -4.733239 -4.664382 -4.848642 1.765201 -1.603359 1.032782 0.938990 -8.251698 9.791198 -6.478282 7.114468 25.849618 2.614473 0.076026 -0.476717 4.246064 2.472828 0.541224 1.286962 3.120345 -18.034932 -3.030550 -4.984941 4.910548 8.762277 2.255198 -0.040066 -0.606507 -0.379656 9.750834 2.477752 0.667761 -0.057533 2.622133 -2.333244 0.070080 5.789357 1.008010 -3.010946 -4.243336 1.195052 9.621007 0.267375 0.479789 -0.226190 -2.077888 -1.468218 2.935621 1.693312 -0.102234 -0.352421 -3.475331 -7.436868 7.658457 -5.340948 2.529610 -10.107529 7.475572 -0.363744 -9.689430 -10.065254 6.042101 8.967286 -1.395140 8.275611 19.834157 12.750371 -1.921931 9.303463 -18.011504 -2.551184 -30.530233 -1.003805 -2.637864 6.119316 4.623917
-0.047133 118.791771 -1.787464 0.806033 -1.326333 2.752186 -6.779921 0.895160 2.233842 7.104833 0.318308 -1.715370 8.318181 -4.673917 -4.350798 -4.379275 -6.315385 0.753618 -1.536854 1.084862 0.978333 -8.652054 8.453495 -7.358484 7.274086 29.823206 3.068781 0.103464 2.474451 4.053627 3.255477 4.735286 2.333973 3.159275 -18.216567 -3.246113 -4.669212 5.885919 8.621533 2.050104 -0.517739 -0.671330 -0.459470 9.603136 2.394035 0.969635 0.073842 3.130757 -2.299051 -0.137388 5.327251 0.839382 -3.013007 -4.062247 1.369683 9.902771 -0.121574 0.522635 -0.237075 -2.078272 -1.463072 2.727696 1.551406 0.026620 -0.064112 -3.664257 -7.166455 7.626338 -5.622971 2.407949 -8.400679 8.134190 -0.291842 -8.890481 -10.202551 6.067379 7.470151 -1.558858 8.430396 19.596698 12.700653 -2.248581 8.683333 -17.881581 -2.538316 -32.605859 -0.843222 -3.413638 8.535723 6.242700
0.082580 118.741150 -1.483012 0.366344 -1.269668 2.781582 -7.302971 1.169035 2.962677 6.338621 0.494195 -1.802395 6.371004 -4.174832 -3.840401 -4.209371 -7.939484 -0.575602 -1.443153 1.062307 0.882625 -8.982539 6.861286 -7.938275 7.473329 33.772161 3.147960 -0.067313 4.817973 4.159723 4.242347 8.326880 2.987283 3.176037 -18.393991 -3.273236 -4.456795 6.968783 8.328859 2.109671 -0.717198 -0.569883 -0.567469 9.356668 2.129356 1.323924 0.179741 3.595406 -2.137530 -0.144862 4.944897 0.596487 -3.121210 -3.833525 1.431544 10.161342 -0.412387 0.576778 -0.323005 -2.011929 -1.357115 2.537937 1.405298 0.117450 -0.142791 -3.744002 -6.997451 7.912900 -5.770329 2.331986 -6.906082 8.752172 -0.233459 -8.004275 -10.337399 5.964091 6.424005 -1.696309 8.662605 19.520594 12.717186 -2.768762 7.519351 -17.921326 -2.151484 -34.208951 -0.436462 -4.208469 10.715094 7.891842
0.276869 118.765381 -1.185207 -0.042238 -1.245454 2.769724 -7.589731 1.208382 3.520244 5.698250 0.787549 -1.722083 4.841168 -3.525298 -3.177670 -4.350727 -8.783367 -1.712305 -1.341030 1.114256 0.745481 -9.263240 5.147575 -8.371622 7.610127 37.029522 3.470295 0.052642 7.268431 3.898714 4.981198 11.148504 3.514434 3.289313 -18.221181 -3.242459 -4.504043 7.464382 8.173580 2.297507 -0.386845 -0.639044 -0.620653 8.666833 1.956830 1.568330 0.204503 3.901421 -1.954038 -0.239882 4.552452 0.290298 -3.229942 -3.496120 1.452463 10.270567 -0.528459 0.783847 -0.408512 -2.081210 -1.157016 2.536424 1.322345 0.072633 -0.535564 -3.848269 -6.684350 8.491721 -5.848410 2.369901 -5.407106 9.445158 -0.247087 -7.489911 -10.450963 5.868677 5.556867 -1.890654 8.966743 19.146764 12.643844 -3.279272 6.383581 -17.749161 -1.880191 -34.844687 -0.257612 -4.535599 12.278334 9.110518
0.403213 118.714493 -0.729299 -0.411082 -1.256997 2.783100 -7.781650 1.093868 4.245790 5.062409 0.968407 -1.733624 3.607780 -2.603352 -2.438322 -4.878335 -8.915082 -2.354395 -1.174076 1.224489 0.568567 -9.474459 3.247738 -8.722503 7.955245 39.777933 3.349617 0.132896 9.747965 3.625867 5.733558 13.063663 3.799406 3.275452 -18.039887 -3.069922 -4.478059 8.457627 7.717824 2.513291 -0.455425 -0.584275 -0.622425 7.833257 1.501136 1.739178 0.163052 4.082073 -1.681073 -0.331846 4.146690 -0.213355 -3.353106 -3.085761 1.392353 10.176012 -0.294814 0.998815 -0.508339 -2.136853 -0.968022 2.550966 1.241691 -0.080948 -1.433896 -3.762695 -6.253751 9.255969 -5.889463 2.471429 -3.855581 10.107421 -0.319236 -6.912871 -10.620436 5.739629 4.600455 -1.917458 9.353012 18.739435 12.499796 -3.659321 4.856903 -17.387013 -1.661465 -34.827430 -0.161864 -4.838742 13.731510 9.901355
0.614992 118.796806 -0.214534 -0.776710 -1.101203 2.705413 -7.698414 0.756847 4.579598 4.500583 1.451738 -1.503035 3.010891 -1.950623 -1.764312 -5.755728 -8.486335 -2.546966 -0.975114 1.249028 0.307017 -9.508774 1.175176 -8.803726 8.222432 41.751385 3.281920 0.393697 12.439028 3.141519 6.594322 14.224185 3.800853 3.266750 -17.729382 -3.001400 -4.650195 9.437518 7.520285 2.782164 0.037611 -0.867577 -0.615618 6.150976 1.263398 1.900800 0.091167 4.128904 -1.416307 -0.373405 3.804733 -0.763263 -3.568656 -2.579374 1.239555 9.781751 0.163768 1.282393 -0.413175 -2.107142 -0.726918 2.682801 1.196134 -0.285509 -2.519444 -3.576321 -5.842884 10.001449 -5.852329 2.722053 -2.009964 10.710475 -0.445839 -6.414759 -10.799520 5.260717 3.820853 -1.935687 9.468293 17.835331 12.233332 -3.665099 3.116791 -16.901002 -1.490529 -33.863652 -0.010434 -5.010751 14.949960 10.242208
0.807106 118.888062 0.142838 -0.969604 -0.987273 2.642345 -7.538345 0.121223 4.895570 4.331565 2.289769 -1.336885 2.713948 -1.591885 -0.881953 -6.362083 -8.036826 -2.524543 -0.776534 1.407345 0.063529 -9.651606 -1.017789 -8.683040 8.413079 43.335573 3.151782 0.815602 14.380524 2.663366 7.582943 14.245592 3.791990 2.976929 -17.167702 -2.794436 -4.829907 11.441655 6.958802 3.041503 -0.409417 -1.056951 -0.952287 3.812122 1.663643 1.925330 -0.019942 4.054876 -1.095237 -0.446643 3.451231 -1.375338 -3.808915 -2.113588 1.089632 9.527161 0.779982 1.438313 -0.421805 -2.106937 -0.375684 2.637311 1.152857 -0.438825 -3.477999 -3.471778 -5.471949 10.888056 -5.736680 3.128033 -0.068258 11.172727 -0.754085 -5.962288 -10.718305 4.666421 3.426719 -2.182518 9.235966 16.772059 11.747992 -3.081564 1.230979 -16.134152 -1.602100 -32.307241 0.017869 -5.135374 15.920255 10.430925
1.041202 119.111679 0.562803 -1.113577 -0.845180 2.568336 -7.195026 -0.545704 4.946783 4.259300 3.106911 -1.167191 2.711460 -1.232066 0.089789 -6.194961 -9.094401 -2.007955 -0.575338 1.689378 -0.115106 -9.586430 -3.386893 -8.600727 8.234656 44.711602 2.996898 1.329845 15.088502 2.508336 8.754971 12.885982 3.716811 2.590477 -16.171712 -2.730386 -4.710130 12.884238 6.414887 3.211551 -0.548349 -1.103008 -1.144266 1.283694 1.658196 1.935161 -0.199634 3.794926 -0.799761 -0.647477 2.951673 -2.008886 -3.849536 -1.570834 1.067335 9.182413 1.436777 1.441155 -0.580140 -2.203026 -0.145454 2.537337 0.970046 -0.569789 -3.940503 -3.438764 -5.179160 11.674503 -5.524430 3.592495 1.885690 11.532567 -0.969427 -5.395981 -10.532945 4.154828 3.254035 -2.247099 8.655855 15.202748 10.980596 -1.944576 -0.610611 -15.107348 -1.678890 -30.288919 0.147734 -5.317372 16.737988 10.192429
1.187340 119.346565 0.939785 -1.119270 -0.681568 2.496251 -6.539715 -1.426863 4.795841 4.253830 3.990808 -0.824016 2.888306 -0.981430 1.197054 -5.411105 -12.321599 -0.495087 -0.384432 1.955498 -0.296532 -9.584797 -6.136895 -8.474414 7.959066 45.928065 2.636240 1.854114 14.937383 2.398146 9.876191 10.700747 3.614852 2.136025 -14.748529 -2.747172 -4.569943 14.206859 5.963458 3.359490 -0.792150 -1.050751 -1.314620 -1.302791 1.529441 1.866381 -0.356847 3.453454 -0.516418 -0.884220 2.508888 -2.651886 -3.873991 -1.139504 1.022967 8.976958 2.113018 1.338853 -0.725057 -2.152323 0.061749 2.337651 0.816833 -0.780785 -4.056228 -3.483264 -5.079315 12.836805 -5.212910 4.240576 3.532829 11.907303 -1.155803 -4.890020 -10.336676 3.423021 3.617589 -2.182523 8.046993 13.688172 9.960409 -0.865575 -2.881153 -13.971497 -1.694617 -27.444442 0.376942 -5.302284 17.320735 9.425231
1.408966 119.485962 1.277065 -1.041890 -0.577993 2.442036 -5.720073 -2.412866 4.348540 4.392618 4.553984 -0.697488 2.934884 -0.598145 2.368742 -4.340974 -16.557963 1.733374 -0.198180 2.230535 -0.411989 -9.627056 -9.168233 -8.147181 7.787492 46.364224 1.902763 2.190064 14.631381 2.340545 10.339912 8.946357 3.424980 1.637184 -12.859916 -2.754714 -4.201142 14.864027 5.455555 3.301641 -0.468834 -0.982139 -1.536691 -3.881746 1.256191 1.741611 -0.359005 2.977106 -0.369326 -1.069380 2.078321 -3.088423 -3.963875 -0.827350 1.131195 8.852928 2.705059 1.181918 -1.008719 -2.078801 0.051296 2.168870 0.655849 -1.066267 -4.076414 -3.502445 -5.232924 14.169550 -5.080292 5.011796 4.823503 12.275857 -1.287558 -4.229740 -9.857332 2.694237 4.424375 -2.353135 7.566973 11.380682 8.636540 0.014905 -4.685823 -12.787013 -1.775034 -23.942238 0.706697 -5.139535 17.658434 8.448952
1.510908 119.540649 1.573801 -0.903496 -0.480670 2.438025 -4.739310 -3.524650 3.766099 4.683378 4.735937 -0.801954 3.129092 -0.455479 3.897724 -3.579918 -20.798594 3.960437 -0.003246 2.655244 -0.517970 -9.418341 -12.509574 -7.676176 7.239072 45.961136 1.073612 2.440452 13.686343 2.545326 10.049023 7.580515 3.431509 1.069407 -10.803869 -2.780476 -3.953245 15.385678 5.063949 3.264611 -0.329260 -1.055935 -1.492113 -6.545784 1.207169 1.634926 -0.422849 2.479224 -0.323797 -1.433094 1.656526 -3.477650 -4.007201 -0.506018 1.291711 8.966696 3.101377 1.140223 -1.435811 -1.959902 -0.004985 1.855333 0.618551 -1.191339 -4.268695 -3.416696 -5.512967 15.738834 -5.114458 5.826576 5.946730 12.643319 -1.356904 -3.791850 -9.284684 2.131691 4.987614 -2.369415 7.219894 8.552301 6.885379 0.800603 -5.836415 -11.377153 -1.957067 -20.168113 1.075443 -4.992156 17.698168 7.522963
1.584444 119.468445 1.660904 -0.656476 -0.369882 2.336456 -3.867939 -4.528027 3.262495 5.040965 4.730966 -0.879819 3.647062 -1.496616 4.985393 -2.267523 -23.234914 6.439133 0.093170 2.896148 -0.542988 -8.855934 -15.812361 -7.114693 5.965662 44.282391 0.314203 2.639109 12.299603 2.738427 9.405963 5.976204 3.449004 0.680884 -8.312030 -2.803248 -3.835326 15.775524 4.708304 3.430574 -0.587028 -1.022537 -1.635309 -9.037360 0.995018 1.502797 -0.500410 2.044513 -0.267198 -1.623237 1.273218 -3.788789 -4.008411 -0.216397 1.431259 8.941389 3.489003 1.008607 -1.531172 -1.847605 0.108948 1.658186 0.526704 -1.253471 -4.399785 -3.273247 -5.998984 17.372576 -5.572114 6.676976 6.608650 13.382666 -1.480909 -3.254640 -9.002868 1.772084 5.844218 -2.127628 7.044579 4.872111 4.891138 1.350046 -5.870537 -10.056988 -1.973901 -16.567190 1.715984 -4.813933 17.929030 6.700714
1.405834 119.407295 1.649136 -0.433335 -0.253174 2.250318 -3.178610 -5.467354 2.778344 5.442296 4.563209 -1.137194 4.728885 -1.647317 5.526970 -0.505393 -26.164129 9.484071 0.148084 3.125027 -0.575213 -7.875531 -18.954469 -6.546518 4.011054 41.299195 -0.275465 3.051573 10.496446 2.992790 8.431826 4.300145 3.129972 0.493177 -5.850377 -2.873330 -3.749343 15.921151 4.496491 3.383526 -0.078867 -0.881040 -1.845040 -11.856078 0.581590 1.251888 -0.622558 1.638061 -0.343772 -1.912518 0.966330 -3.841087 -3.956827 0.035627 1.676976 8.987717 3.796725 0.864507 -1.463417 -1.575077 0.097799 1.539810 0.412425 -1.228690 -4.476978 -3.005127 -6.296182 19.170167 -6.369360 7.215583 7.205898 14.444597 -1.574718 -3.291066 -8.552029 1.660651 7.458406 -2.285360 6.551478 1.117329 3.079784 2.028536 -5.471373 -8.799743 -1.714136 -13.316780 2.611379 -4.513288 18.452439 5.715860
1.246950 119.160217 1.749108 -0.363270 -0.056040 2.207063 -2.524241 -6.011192 2.374898 5.825781 4.191165 -1.241520 6.895210 -1.893928 5.937541 1.915769 -29.397494 13.012713 0.318817 3.314631 -0.697779 -6.588725 -21.829661 -5.987656 2.211239 37.491499 -1.296497 3.113435 8.924673 3.730704 7.487431 0.848424 2.846413 0.360136 -3.955750 -2.817243 -3.990012 16.934574 4.254867 3.560527 0.180000 -0.336099 -2.170061 -14.481006 0.073176 1.002506 -0.844302 1.262253 -0.419476 -2.064425 0.630604 -3.951280 -3.911677 0.341462 1.934037 8.989762 4.123443 0.817229 -1.492516 -1.433322 0.289830 1.397828 0.340518 -1.159800 -4.546064 -2.701823 -6.412673 20.886165 -7.468563 7.571752 7.494715 15.718851 -1.497976 -3.230394 -7.917077 1.738570 9.748596 -2.535959 5.676357 -2.693836 1.352583 3.045133 -4.682043 -7.530631 -1.325648 -10.131176 3.538722 -4.229138 19.023688 4.968872
1.031664 118.956322 1.838879 -0.214963 0.068331 2.022070 -1.947670 -6.426147 2.125478 6.325686 4.068426 -1.289828 9.921766 -1.794670 5.613281 5.096781 -32.620496 16.875717 0.338937 3.499433 -0.675422 -5.207973 -23.717114 -5.580370 0.518091 33.146511 -2.410291 3.414016 6.188191 5.295682 6.645764 -1.905269 2.049315 0.499230 -1.934382 -2.761856 -4.397948 17.782999 4.164020 3.573885 0.844791 0.062055 -2.387534 -17.435838 -0.746881 0.652284 -1.135985 0.886499 -0.500572 -2.063090 0.232709 -3.936311 -3.636364 0.729522 2.249269 8.720772 4.346126 0.838224 -1.458148 -1.327187 0.284335 1.298149 0.410816 -1.075732 -4.602153 -2.365742 -6.236633 22.441233 -8.729820 7.756315 7.574682 17.026410 -1.243897 -3.245363 -7.245840 1.884621 12.573926 -2.673487 4.775131 -5.669777 0.048241 3.934147 -4.655416 -6.499436 -0.772250 -7.368093 4.374967 -3.857847 19.945374 4.293832
0.674415 118.771111 2.002446 -0.065931 0.143603 1.838023 -1.527228 -6.707481 1.913327 6.890379 3.859896 -1.369331 12.997018 -0.824126 4.688884 7.979166 -34.922313 20.307118 0.334936 3.633329 -0.662559 -3.961500 -24.495169 -5.151050 -0.563815 29.931667 -2.824575 4.004765 1.438073 6.472242 6.110832 -1.585790 0.212521 0.714695 0.207255 -2.605121 -4.849800 18.918830 4.157192 3.444633 0.966908 0.416986 -2.636816 -19.836666 -1.413828 0.358878 -1.472781 0.527366 -0.592485 -1.820546 -0.128315 -3.776158 -3.140521 1.036439 2.440346 8.099096 4.518367 0.723778 -1.399364 -1.217660 0.236598 1.391986 0.458300 -1.107631 -4.641533 -2.062621 -5.936208 23.539454 -10.117821 7.704624 7.605330 18.699829 -0.992043 -3.439538 -6.629423 2.239349 16.241535 -2.970585 3.939135 -8.002214 -0.877905 4.645500 -5.185175 -5.686258 -0.245130 -4.896121 5.256202 -3.620170 21.665209 3.601577
0.377568 118.511086 2.335686 0.043843 0.179446 1.763676 -1.181173 -6.797770 1.617759 7.734199 3.323816 -1.628486 18.126163 0.747477 2.485399 8.861101 -36.622816 24.788651 0.353655 3.809306 -0.655448 -2.643071 -25.538407 -4.634849 -1.300542 26.077608 -3.299949 4.525337 -0.760432 6.930863 5.240109 -0.360862 -1.370554 1.039017 2.469994 -2.394411 -5.439071 20.010705 4.039546 3.408069 0.647663 0.780829 -2.800212 -21.667523 -2.033252 0.128713 -1.705516 0.177139 -0.605774 -1.632604 -0.448700 -3.585214 -2.674095 1.220944 2.525867 7.492448 4.588152 0.566254 -1.342171 -1.001886 0.020559 1.403496 0.504578 -1.329335 -4.719135 -1.851074 -5.712879 24.444801 -11.444017 7.484512 7.838148 20.527805 -0.870142 -4.028508 -6.160088 3.032717 20.874194 -3.139391 3.060014 -9.532681 -1.615873 5.223870 -6.188604 -5.094634 0.088027 -2.558608 6.039233 -3.434462 24.577594 3.018028
0.040148 118.381966 2.765230 0.169496 0.193337 1.703245 -0.880148 -6.661574 1.285594 8.258440 2.634697 -1.714646 21.099969 1.180947 1.478159 10.587564 -37.526682 27.592083 0.332440 3.864743 -0.606678 -1.318116 -26.493102 -4.040558 -1.378580 22.546221 -3.788211 4.524623 -2.258400 6.794359 4.090819 0.825830 -2.769841 1.453332 5.145146 -2.302127 -5.955938 20.445818 3.695645 3.288915 0.170411 1.147228 -2.854353 -22.497008 -2.410211 -0.062735 -1.902556 -0.108984 -0.588543 -1.448731 -0.729156 -3.269112 -2.121737 1.248438 2.380100 7.000481 4.779381 0.475032 -1.210204 -0.933239 -0.114212 1.430142 0.603567 -1.469779 -4.836632 -1.830644 -5.601041 25.187394 -12.426004 6.892328 8.511729 22.100684 -0.330100 -5.280159 -5.247926 4.368577 27.680445 -3.639862 2.337070 -10.392704 -1.983087 5.744630 -7.576207 -4.764979 -0.042428 -0.172236 6.970387 -2.974977 28.819898 1.995262
-0.318394 118.338699 2.992104 0.433800 0.259528 1.619435 -0.721411 -6.568544 0.944403 9.064779 1.978341 -1.844786 23.203890 1.144511 0.809934 12.107847 -37.668343 29.665369 0.137389 3.783644 -0.517961 0.108417 -27.105119 -3.391443 -0.831954 18.338522 -4.266217 3.930174 -2.831197 6.233423 2.485139 2.031056 -4.009135 1.774429 7.483090 -2.376084 -6.284526 20.621190 3.530338 3.125335 -0.579337 1.394505 -2.895911 -21.612406 -2.573928 -0.115739 -2.015478 -0.383793 -0.617533 -1.362211 -0.824744 -2.826878 -1.386142 1.126523 2.093550 6.727921 4.901561 0.297613 -1.223055 -0.802178 -0.382731 1.244348 0.859727 -1.661924 -5.182324 -1.914156 -5.727609 25.557252 -13.183813 6.350130 9.327747 23.563538 0.242907 -6.808187 -4.360854 6.038378 33.939206 -4.230341 1.655778 -10.736480 -2.187561 6.250833 -9.555500 -4.554963 -0.418422 2.382116 7.732685 -2.764244 33.656429 0.692612
-0.665237 118.270645 3.220174 0.652173 0.212073 1.452844 -0.667081 -6.147620 0.690945 9.710439 1.291852 -1.916385 24.811864 0.925476 0.289344 13.310860 -37.148137 31.419416 -0.027195 3.671680 -0.299488 1.427056 -27.576976 -2.808140 0.555244 13.736234 -4.700982 2.691602 -2.341773 5.238305 0.387689 3.097456 -4.898648 2.177959 9.697676 -2.469140 -6.373515 19.944139 3.125002 3.099320 -1.411743 1.595961 -2.004184 -16.830397 -2.175701 -0.233299 -2.203705 -0.642687 -0.625797 -1.189060 -0.860900 -2.282700 -0.719470 0.952862 1.698937 6.582807 5.001191 0.150293 -0.881351 -0.516169 -0.470505 1.325697 0.961291 -1.818787 -5.378992 -2.056697 -5.710833 26.051620 -13.853270 5.305159 10.957446 25.381456 0.380110 -9.080386 -3.429562 7.662738 39.471645 -4.876440 1.035563 -10.583035 -2.334750 6.678637 -11.813938 -4.477489 -0.847540 4.052162 8.189819 -2.350554 38.366607 -0.372129
-1.121563 118.460014 3.510469 0.945853 0.236051 1.287608 -0.718904 -5.822835 0.430090 10.327322 0.983187 -2.174430 25.654774 0.451979 -0.364961 13.735481 -36.107081 32.570670 -0.306095 3.386596 -0.058053 2.809766 -27.667711 -2.262223 2.669523 8.327051 -4.866906 0.561721 -0.575086 3.895175 -1.777375 4.313213 -5.198333 2.436697 11.201810 -2.672443 -6.585238 18.820938 2.874903 3.169729 -1.996368 1.542359 -1.896886 -15.079999 -2.098349 -0.338420 -2.180435 -0.890623 -0.549556 -0.931599 -0.771970 -1.871222 -0.415253 0.752193 1.370916 6.603500 5.005055 0.132522 -0.352274 -0.327096 -0.623923 1.523931 1.062961 -1.923076 -5.589597 -2.033489 -5.877205 26.379388 -14.393523 4.691637 11.571024 26.856272 0.745593 -10.042632 -2.870667 9.234211 45.807637 -4.695174 0.681107 -10.018170 -2.221905 6.731787 -14.197540 -5.022096 -1.197839 4.769795 8.796617 -1.469254 41.707705 -1.570512
-1.620372 118.642685 3.570534 1.216535 0.087416 1.026994 -0.756586 -5.255465 0.301946 10.619265 0.855814 -2.399146 25.863669 -0.587555 -1.304688 13.249889 -34.313329 32.018446 -0.551204 3.157011 0.263006 4.016173 -27.380516 -1.740245 4.448029 2.757918 -4.725125 -1.610711 2.272837 2.820163 -4.051635 5.491891 -4.842533 2.732159 12.671049 -2.812637 -6.740413 17.490085 2.474478 3.056256 -2.585190 1.542187 -1.881927 -13.699451 -2.033375 -0.486863 -2.147494 -1.102956 -0.428962 -0.655702 -0.604259 -1.446397 -0.163044 0.566704 1.017349 6.826985 4.993023 0.143010 0.208614 -0.234470 -0.778997 1.648246 1.133338 -1.986162 -5.831123 -2.008426 -6.046965 26.664964 -14.725923 4.321741 11.902510 27.918683 1.111038 -10.448935 -2.203204 10.964088 52.050824 -4.505401 0.285201 -9.356214 -1.990700 6.586890 -15.736401 -5.557320 -1.356117 4.394300 8.999251 -0.919546 43.780787 -2.240712
-2.087764 118.873863 3.642159 1.498493 0.226738 0.814713 -0.926369 -4.863490 0.302782 10.721091 0.799216 -2.626965 25.474096 -2.351696 -2.516828 10.768075 -31.648013 28.577899 -0.876132 2.797252 0.507628 5.042859 -27.263300 -1.244416 5.600028 -1.729949 -4.376166 -3.492607 5.798956 2.196675 -6.286336 6.670606 -4.185383 3.055376 13.774541 -3.068157 -7.105190 16.143785 2.411987 2.831586 -2.555253 1.480963 -2.819848 -14.931472 -2.046303 -0.543939 -2.180818 -1.322337 -0.405911 -0.551638 -0.299733 -1.155412 -0.035969 0.331702 0.827769 7.240749 5.034505 0.079646 0.785257 -0.168744 -1.082948 1.826612 1.110207 -2.044099 -5.964981 -2.065210 -6.120350 27.097697 -15.088265 4.110087 11.746857 28.987778 1.294721 -10.463810 -1.719069 12.324429 55.828866 -4.147368 0.148533 -8.291625 -1.681850 6.166768 -16.900709 -6.094612 -1.468843 3.104222 8.781316 -0.618836 44.360863 -1.982743
-2.447760 119.125595 3.832495 1.736397 0.355579 0.620617 -1.099133 -4.030223 0.243776 10.545469 0.383768 -2.588872 24.637474 -4.287962 -4.113201 6.895958 -28.941947 22.589219 -1.173175 2.365760 0.709784 5.805627 -27.357576 -0.627435 5.721096 -4.335872 -3.983721 -4.520522 10.127325 1.651350 -8.861148 7.384449 -4.111408 3.384575 14.556870 -3.383251 -7.418777 15.278726 2.383838 2.750518 -2.887658 1.484305 -2.956196 -14.786126 -2.241196 -0.705275 -2.226465 -1.507385 -0.264105 -0.374575 0.037174 -0.876663 -0.189803 0.203746 0.695520 7.911257 5.034223 0.009173 1.305433 -0.150410 -1.211504 1.958086 0.898368 -2.099649 -6.018138 -2.143417 -6.298709 27.743612 -15.359542 4.140010 11.399984 29.799538 1.307393 -10.137548 -1.552332 13.622632 57.743488 -4.270961 -0.268581 -6.961924 -1.383245 5.764168 -17.427744 -6.532601 -1.342604 1.038758 8.067162 -0.640028 42.451653 -1.335107
-2.796977 119.428925 3.906814 1.945792 0.543544 0.392772 -1.408158 -3.112279 0.307292 10.232959 0.035223 -2.498951 23.361749 -6.125527 -5.575665 2.726781 -26.095267 15.753003 -1.460955 1.961610 0.889155 6.252998 -27.141385 -0.195660 5.263788 -5.337938 -3.949869 -4.933776 12.037158 1.489932 -8.961319 7.110018 -3.755449 3.621127 15.138724 -3.544972 -7.550145 14.620603 2.261913 2.500434 -3.144421 1.661779 -3.179609 -14.635988 -2.462969 -0.817160 -2.307615 -1.682662 -0.182303 -0.253681 0.462028 -0.622865 -0.614855 0.045038 0.585016 8.665957 5.125233 0.034309 1.936664 -0.190157 -1.258866 2.130652 0.757855 -1.948686 -5.957542 -2.180204 -6.663566 28.384228 -15.343812 4.344607 10.812499 30.123677 1.530201 -9.441005 -1.635880 15.379068 58.319344 -5.491106 -0.684523 -5.286948 -0.954213 5.473702 -17.304392 -6.814534 -0.987745 -1.587614 6.995367 -0.947733 38.001301 -0.057345
-3.106971 119.733360 3.983942 2.065381 0.779462 0.116806 -1.806284 -2.246711 0.457015 9.772620 -0.250379 -2.429001 22.018930 -7.473252 -6.735216 -0.904348 -22.910203 10.116450 -1.763409 1.580752 0.987483 6.639594 -27.017196 0.036986 4.326117 -5.115540 -4.044486 -4.876840 12.726449 1.177405 -8.575219 6.548335 -3.362507 3.932662 15.437107 -3.525523 -7.626519 14.264783 2.000615 2.186840 -3.543946 1.684397 -3.288426 -14.539010 -2.383852 -0.800153 -2.415321 -1.749338 -0.106746 -0.127320 0.876428 -0.476299 -1.251058 0.014829 0.498786 9.441877 5.230283 0.065023 2.495450 -0.017369 -1.228140 2.126655 0.744123 -1.709665 -6.063390 -2.224817 -6.926422 29.027522 -15.316267 4.758592 9.893954 29.922247 1.862941 -8.507758 -1.839434 17.454809 56.300434 -8.028752 -1.196235 -3.443063 -0.405155 5.184060 -16.467993 -6.786118 -0.031367 -5.026416 5.708697 -1.309951 32.221176 1.510499
-3.410781 119.854202 3.857380 2.220294 0.958946 -0.001987 -2.317833 -1.645096 0.659801 9.412298 -0.397455 -2.382221 20.741927 -8.400404 -7.730280 -2.817895 -20.089476 6.945213 -1.955194 1.256000 0.942356 6.795304 -26.778653 0.388087 3.528992 -4.799184 -4.309565 -4.742702 13.044212 0.946739 -7.652579 5.745414 -3.166361 4.175130 15.527404 -3.372851 -7.708932 14.223398 1.858637 1.911571 -3.836698 1.614850 -3.542687 -14.112901 -2.353351 -0.845173 -2.495357 -1.811811 -0.167936 0.082991 1.227270 -0.279544 -2.066532 0.001682 0.424153 10.081118 5.406025 0.156820 3.010299 -0.033790 -1.274232 2.314870 0.658391 -1.516305 -6.316985 -2.034087 -7.229825 29.284865 -15.045231 5.387611 8.472826 29.430123 2.377849 -6.977953 -2.405162 18.894246 51.636669 -10.708641 -1.756780 -2.041856 0.183910 5.029687 -14.546440 -6.345934 1.130027 -8.614972 4.558874 -1.694816 28.279878 2.417736
-3.615318 119.891029 3.693030 2.214409 1.141232 -0.072465 -2.843824 -1.158772 0.641108 8.843620 -0.248926 -2.192510 19.635119 -9.122332 -8.361066 -4.253626 -16.923867 4.371285 -2.036783 0.935433 0.813706 6.767000 -26.409808 0.547445 2.755956 -4.089184 -4.568260 -4.463428 12.791254 0.855443 -6.543304 5.445712 -3.362613 4.433642 15.097003 -3.199829 -7.907581 14.881646 1.926768 1.578863 -4.011360 1.450093 -4.225657 -13.205175 -2.320919 -0.849438 -2.672253 -1.790790 -0.165898 0.270769 1.474008 -0.306572 -2.932253 0.054661 0.335259 10.758727 5.611281 0.282883 3.462762 0.023129 -1.250973 2.360728 0.666412 -1.174952 -7.035433 -1.789465 -7.499422 29.507975 -14.580582 6.493272 6.036688 28.491934 3.091131 -4.573582 -2.986992 18.653059 45.424693 -12.313267 -2.396367 -0.825134 1.077858 5.045753 -12.117733 -5.816367 2.402817 -11.707712 3.822179 -2.258594 27.746372 2.509529
-3.768643 119.884598 3.379255 2.315806 1.178699 -0.036135 -3.339066 -0.899167 0.646039 8.141054 -0.021522 -2.045388 18.372723 -9.254803 -8.728991 -5.123408 -14.170419 2.417079 -2.142414 0.760106 0.691822 6.366954 -25.787364 0.571481 2.164753 -3.224160 -4.928505 -3.996816 12.255237 0.884909 -5.492691 5.339130 -3.468900 4.661858 14.268213 -3.007373 -8.179772 16.298162 2.162122 1.165984 -4.334113 1.384900 -5.418853 -11.837425 -2.486916 -0.888837 -2.684968 -1.831468 -0.071424 0.311583 1.702914 -0.444784 -3.648621 0.041450 0.328929 11.128301 5.763818 0.416283 3.953723 0.118287 -1.278878 2.327607 0.727335 -0.959503 -8.130804 -1.538637 -7.850903 29.416678 -13.656613 7.672474 2.818805 27.552365 3.753330 -2.120572 -3.420216 17.276586 39.355881 -13.075603 -2.643685 0.333874 1.692169 5.205694 -10.347085 -5.427118 2.857152 -13.362179 3.375550 -2.834452 27.352382 2.726378
-3.796046 119.776680 3.158427 2.397966 1.159302 0.025900 -3.801804 -0.751308 0.676758 7.282932 0.282902 -1.915326 17.158884 -9.054231 -8.962109 -5.791834 -11.332784 1.094960 -2.239742 0.567793 0.641115 5.765997 -24.718041 0.499753 1.585895 -1.771428 -5.333609 -3.383104 10.750747 1.041234 -4.137465 4.529395 -3.698438 5.009710 12.983018 -2.691056 -8.675813 18.714188 2.550343 1.002503 -4.985189 1.060545 -7.485043 -9.745818 -2.493080 -0.941746 -2.679159 -1.841044 -0.073398 0.278255 1.947417 -0.413277 -3.886520 -0.061439 0.428997 11.261467 5.582922 0.295468 4.233409 0.351783 -1.498381 2.302811 0.800074 -0.856050 -9.587582 -1.270670 -8.269265 28.732694 -12.644056 8.694469 -0.127854 26.710841 3.998176 -0.296513 -3.644884 15.597784 34.959112 -13.069550 -2.504106 1.436020 2.293140 5.120371 -8.664717 -5.518278 2.794566 -14.368519 2.824914 -3.129365 25.896500 3.254668
-3.925059 119.676537 2.896325 2.497060 1.146923 0.091403 -4.190008 -0.582651 0.645745 6.179193 0.643038 -1.718222 15.900862 -8.951165 -9.013606 -6.013447 -9.078840 -0.261330 -2.277701 0.355132 0.652091 4.747396 -22.615215 0.449031 1.481833 -0.398032 -6.019956 -2.878087 7.844110 1.491963 -2.533906 3.903503 -3.738014 5.327965 11.133842 -2.176764 -9.422389 21.372465 3.150619 0.863847 -5.071850 0.534158 -10.038833 -7.286502 -2.558881 -1.077776 -2.674612 -1.760955 -0.086439 0.239634 2.022209 -0.384653 -3.763713 -0.205204 0.606347 11.056962 5.294579 0.183941 4.413901 0.518202 -1.624236 2.367067 0.819740 -0.765647 -11.154198 -1.183384 -8.711792 27.525727 -11.288531 9.452993 -2.449930 25.649226 3.922833 0.426522 -3.569232 13.921975 32.126349 -12.874723 -2.161177 2.174404 2.651941 5.143922 -6.809182 -5.632468 2.168951 -14.851411 2.188561 -3.210296 23.514673 3.782253
-3.920184 119.619148 2.883978 2.616760 1.096194 0.288656 -4.591911 -0.577048 0.479475 4.993572 1.075915 -1.472754 14.781917 -8.716717 -8.939673 -5.960231 -7.251852 -1.352495 -2.389053 0.069309 0.554527 3.623401 -19.303034 0.795018 2.080259 0.294979 -7.004093 -2.441729 4.494597 2.239522 -1.531703 3.574670 -3.798310 5.638006 9.331174 -1.720487 -10.138414 23.819874 3.785481 1.010946 -5.608324 0.052498 -12.325634 -4.689049 -2.503999 -1.109249 -2.586685 -1.594786 -0.247592 0.199173 2.080396 -0.250765 -3.490616 -0.522172 0.825466 10.809015 4.930743 0.032756 4.583615 0.670432 -1.752797 2.341034 0.927582 -0.701683 -12.332321 -1.142232 -9.133388 25.945872 -9.873979 9.958565 -4.206839 24.277022 3.334290 0.057827 -3.668429 12.012763 29.977768 -12.102858 -1.890384 2.766872 2.955536 5.141883 -4.850302 -5.833773 1.596903 -15.055325 1.602908 -3.147979 21.093642 4.183341
-3.881029 119.534981 2.878866 2.753167 0.950878 0.571778 -4.884711 -0.744972 0.094606 3.884131 1.685133 -1.057997 13.230662 -7.940518 -8.773088 -6.150598 -5.409982 -2.846659 -2.452006 -0.157394 0.420578 2.559208 -15.353285 1.607724 3.089115 0.522254 -7.869753 -2.129073 1.489420 2.718518 -1.086038 3.309216 -3.847255 5.736227 7.336820 -1.303798 -10.782605 25.971595 4.635124 1.502879 -7.124067 -0.329581 -13.490845 -2.471640 -2.527167 -1.194906 -2.377717 -1.372984 -0.434876 0.194104 2.069066 -0.065469 -3.195450 -0.751268 1.069568 10.302395 4.213011 -0.143716 4.644425 0.732969 -1.704371 2.378714 1.005404 -0.650374 -12.915487 -1.020409 -9.481851 24.037823 -8.630346 10.444575 -5.967775 22.299673 2.519674 -1.169601 -4.003573 10.283186 28.357857 -11.086660 -1.531509 2.955163 2.927803 5.139660 -2.681543 -5.984289 1.003175 -14.722255 1.228579 -3.110144 18.475061 4.375762
-3.850550 119.610863 2.932341 2.852210 0.895876 0.891415 -5.068020 -0.822918 -0.348589 2.935544 2.093921 -0.501679 12.003329 -7.342809 -8.639257 -6.008366 -4.316215 -4.144861 -2.507258 -0.382994 0.238981 1.792443 -11.433656 2.363932 4.050786 0.911229 -8.297545 -2.146911 -0.917348 3.051383 -0.840588 2.751280 -3.868448 5.869061 5.142948 -1.086078 -11.353022 27.800447 5.632284 2.096993 -9.322549 -0.770173 -13.737539 -0.314904 -2.239535 -1.241344 -2.254992 -1.017264 -0.623778 0.251453 1.887583 0.156677 -2.946719 -0.949194 1.354620 9.807188 3.524407 -0.426837 4.769281 0.825348 -1.767184 2.473391 0.951932 -0.855906 -12.930511 -0.909013 -9.744543 22.123463 -7.568456 10.827251 -7.906494 20.032253 1.501984 -3.435841 -4.577921 8.751618 27.341859 -9.847871 -1.096591 3.252469 2.735874 5.147058 -0.838186 -6.230116 0.735730 -14.175363 1.056442 -3.245575 15.782427 4.680361
-3.801780 119.866463 2.997659 2.891677 0.796825 1.324677 -5.147178 -0.715866 -0.799062 2.277983 2.398146 -0.077591 10.979978 -6.939305 -8.350964 -5.695079 -3.795228 -4.857087 -2.586574 -0.571169 -0.025889 1.190189 -8.335911 2.981126 4.913452 1.947587 -8.714831 -2.279352 -2.120845 3.374712 -0.887401 1.513186 -3.920187 5.876572 2.689853 -0.818223 -11.395976 29.100598 6.171309 2.324848 -11.653840 -1.155018 -13.343695 1.847336 -1.905252 -1.172095 -2.015574 -0.672586 -0.787371 0.267134 1.684858 0.305990 -2.752100 -1.144566 1.559954 9.211736 2.813349 -0.494619 4.878000 0.822456 -1.899115 2.422406 1.032876 -0.953483 -12.786791 -0.765110 -9.902350 20.351188 -6.711433 11.036585 -9.910706 17.504741 0.795793 -6.038351 -4.816843 7.634015 26.597632 -8.511738 -0.513597 3.546499 2.286084 5.045752 0.643576 -6.657829 0.589309 -12.403045 1.265399 -3.312707 12.372592 4.724359
-3.836092 120.037361 3.113644 2.925350 0.672189 1.740033 -5.208935 -0.467352 -1.210900 1.921214 2.486507 0.256517 10.238251 -6.385748 -7.938699 -5.682442 -3.444523 -5.447895 -2.673452 -0.619650 -0.237983 0.884634 -5.570495 3.532641 5.691911 2.836772 -8.828282 -2.969643 -2.027031 3.308175 -0.649155 -0.642429 -3.797277 5.843958 -0.055682 -0.698627 -11.330767 29.869087 6.644679 2.607382 -13.071530 -1.375986 -12.988256 3.418061 -1.581798 -1.214696 -1.712122 -0.270717 -0.902993 0.394168 1.447725 0.492673 -2.734769 -1.450097 1.733132 8.524256 2.232531 -0.530039 4.785607 0.873685 -1.833443 2.247382 1.104644 -0.959156 -12.914701 -0.671896 -9.944667 18.666239 -5.950865 11.134849 -11.881716 15.002414 0.432598 -8.697085 -4.953227 6.755092 27.000271 -7.338287 0.074507 3.890553 2.078444 4.680806 1.648096 -7.006631 0.547949 -10.505595 1.234321 -3.266202 9.703182 4.503098
-3.873467 120.295593 3.042658 2.916309 0.580329 2.154533 -5.133541 -0.017986 -1.662231 1.844232 2.552253 0.643447 10.047972 -6.458785 -7.603897 -5.637987 -3.124824 -5.456909 -2.751775 -0.723259 -0.370416 0.814634 -3.213068 3.771620 6.210449 4.004196 -8.957992 -3.486843 -1.863804 3.247925 -0.410392 -2.755408 -3.480529 5.860420 -2.694714 -0.769023 -11.179463 30.319825 7.104648 2.560087 -14.111635 -1.746742 -12.428572 4.775245 -1.045426 -1.155765 -1.194673 0.042722 -1.033109 0.386330 1.257156 0.661635 -2.668747 -1.752934 1.966100 7.837229 1.749550 -0.807353 4.607397 0.706827 -1.799996 2.118567 1.009372 -1.000164 -12.849283 -0.589239 -9.572264 16.977543 -5.411733 10.535999 -13.379745 12.778551 0.366827 -10.850447 -5.008076 6.122487 27.353117 -6.365724 0.570420 4.531339 2.066901 4.259492 2.428124 -7.697916 0.452817 -8.309394 1.111850 -3.278635 6.116048 4.505230
-3.964988 120.505890 2.989387 2.844226 0.537693 2.606238 -5.043519 0.261597 -2.096479 1.897077 2.793282 1.087194 9.945387 -6.275570 -7.333444 -5.606374 -2.853216 -5.254244 -2.806501 -0.764624 -0.455664 0.859337 -1.243470 3.804835 6.723195 4.958275 -8.947811 -4.053632 -1.312849 3.191445 -0.217056 -4.874844 -3.264268 5.842370 -5.389956 -0.823676 -10.892110 30.439801 7.244006 2.641535 -14.362776 -1.983960 -11.942029 5.851305 -0.550931 -0.997156 -0.747963 0.369762 -1.208959 0.473278 1.159529 0.822434 -2.909530 -2.092355 2.029899 7.401700 1.319685 -0.965348 4.206977 0.570782 -1.583933 1.881779 0.903755 -0.943596 -12.623464 -0.561634 -9.359243 15.637726 -5.031565 10.022086 -14.605889 10.961069 0.301439 -12.643060 -5.218177 5.684204 27.377325 -5.527405 1.113166 5.703151 2.335708 3.642958 2.341561 -8.520264 0.391153 -6.050435 1.040522 -3.260545 2.038672 4.269795
-4.005366 120.744911 2.909584 2.759372 0.487346 3.097928 -5.042614 0.881672 -2.444356 2.320099 2.724900 1.276560 10.362419 -6.272149 -7.131055 -5.693125 -2.198037 -4.672245 -2.848411 -0.651028 -0.515698 1.025967 0.450444 3.749161 7.145676 6.758108 -8.835090 -4.368018 -0.873440 2.894456 -0.112893 -7.532306 -2.820396 5.746145 -8.625557 -1.015114 -10.382089 30.561305 6.932918 2.512088 -13.962793 -2.179185 -11.055101 6.155618 0.145971 -0.826752 -0.251451 0.756738 -1.389143 0.526182 1.129883 0.901567 -3.506872 -2.473340 2.227500 7.090062 0.912780 -1.250556 4.060893 0.362227 -1.485633 1.693154 0.871288 -0.964253 -12.024279 -0.686593 -8.900193 14.248287 -4.524609 9.134405 -15.101391 9.089771 0.150166 -14.029449 -5.507739 5.351098 26.578264 -4.744251 1.859233 7.131671 2.817577 3.045214 2.044307 -9.658590 0.473505 -5.194245 1.046312 -3.362087 -0.395379 4.169533
-4.055171 120.770218 2.839945 2.728046 0.450306 3.672446 -5.060308 1.274332 -2.792228 2.764215 2.698558 1.412548 11.233332 -6.404925 -7.156299 -5.585075 -1.705486 -4.367836 -3.024469 -0.521008 -0.519178 1.401264 1.787792 3.542557 7.254410 8.295030 -8.706992 -4.618350 -0.175462 2.436732 -0.032605 -9.872805 -2.489572 5.593518 -11.639443 -1.345570 -9.954494 29.133855 6.676407 2.552533 -12.586496 -2.356710 -9.678673 6.389193 0.935674 -0.588111 0.263332 1.180984 -1.595413 0.372519 1.113620 0.971061 -4.100684 -3.030685 2.439951 7.006830 0.459810 -1.607940 3.910748 0.151351 -1.627107 1.602599 0.837597 -1.107232 -11.053375 -0.969992 -8.615573 13.223375 -4.009201 8.352903 -14.808003 7.659436 0.014717 -15.542396 -6.062446 4.778073 25.393077 -3.818779 2.872627 9.215898 3.937027 2.223637 1.022930 -11.199364 0.481742 -5.415518 0.868689 -3.358884 -1.322056 4.190652
-4.108255 120.455528 2.652518 2.615526 0.465372 4.027219 -5.148240 1.414699 -2.921191 3.189158 2.686581 1.319894 12.064296 -6.639654 -7.066697 -5.370618 -1.651557 -4.148081 -3.079439 -0.358160 -0.453200 1.776597 2.745018 3.346485 7.479652 10.090214 -8.477608 -4.919835 0.325029 1.736274 0.309427 -11.998536 -1.939878 5.361582 -14.641779 -1.556288 -9.590319 26.183341 6.652472 2.990836 -11.420632 -2.670856 -7.437345 6.862809 1.940495 -0.420817 0.640721 1.596897 -1.744460 0.207410 1.244531 0.855373 -4.559563 -3.488569 2.962828 7.023857 -0.157542 -2.097870 3.713220 0.115797 -1.839763 1.664407 0.901225 -1.418307 -9.946087 -1.166488 -8.353789 12.376942 -3.737793 7.712349 -14.007104 6.750526 -0.143296 -16.945289 -6.755416 4.194843 23.928307 -2.974580 3.972860 11.132088 5.221345 1.397779 0.316795 -12.868442 0.546916 -6.626189 0.393749 -3.329945 -0.954810 4.368157
-4.208279 120.038467 2.371729 2.434336 0.481900 4.347320 -5.133498 1.467503 -3.007160 3.582719 2.774032 1.425396 13.312105 -6.939157 -7.431406 -5.166588 -1.809028 -3.855737 -3.146638 -0.199140 -0.290436 2.254549 3.637840 3.033769 7.580339 11.270093 -8.241526 -4.978351 1.241298 1.106014 0.415005 -13.968168 -1.480946 5.054170 -17.514982 -1.837547 -9.013673 22.106056 6.356610 3.018153 -9.954175 -2.656797 -4.038713 7.341713 2.573609 -0.227524 0.932817 1.941832 -1.834308 -0.094527 1.381419 0.842586 -5.053756 -3.864564 3.355151 7.348152 -0.876304 -2.333458 3.202455 -0.014166 -2.043902 1.577011 0.971623 -1.618414 -9.121721 -1.413918 -8.019868 11.772592 -3.623587 6.805771 -12.770160 6.291573 -0.491074 -17.446366 -7.367540 4.177277 22.391565 -2.488011 4.994614 13.091144 6.343506 0.510554 -0.081559 -14.319183 0.518004 -8.008152 -0.121606 -3.227091 -0.828327 4.279643
-4.348959 119.432755 2.252185 2.271194 0.481111 4.617949 -5.203951 1.446822 -3.125170 4.051951 2.781967 1.578499 14.718144 -7.503424 -7.965533 -5.052612 -2.313623 -3.901486 -3.247713 -0.196343 -0.052755 2.805244 4.536070 2.604741 7.809571 12.273286 -8.008849 -5.038109 2.171109 0.507355 0.306418 -15.667254 -1.370156 4.695075 -19.898474 -2.247289 -8.548385 17.940561 6.682162 3.469139 -8.773021 -2.323635 -1.560239 8.516164 2.437015 -0.101439 1.201809 2.284395 -1.818037 -0.514755 1.515110 0.702161 -5.412805 -4.209586 3.854476 7.635601 -1.597549 -2.517238 2.761083 -0.054603 -2.283620 1.742570 0.998413 -1.935876 -8.343896 -1.630936 -7.657293 11.325736 -3.544297 5.954880 -11.504729 6.142753 -0.705594 -17.757352 -8.060689 4.259685 21.279493 -2.265490 6.336242 15.217045 7.576992 -0.681328 -0.846210 -15.986205 0.621150 -9.151028 -0.604651 -3.176443 -0.728724 4.075964
-4.436619 118.735626 2.162275 2.082287 0.360432 4.767712 -5.223486 1.402435 -3.159493 4.399147 2.840234 1.581880 16.087396 -8.393110 -8.448554 -5.058783 -2.706855 -4.045571 -3.326893 -0.173965 0.221071 3.387286 5.297493 2.181491 7.982275 13.377433 -7.909248 -5.281976 3.015806 0.049151 0.541063 -16.556560 -1.177670 4.562880 -21.273673 -2.368289 -8.114553 13.343803 7.253634 3.852225 -6.516538 -2.219690 -0.077445 9.400033 2.186907 0.057539 1.391235 2.560470 -1.720437 -0.958871 1.586048 0.558285 -5.838769 -4.254352 4.188262 7.974458 -2.441432 -2.630261 2.498287 -0.050871 -2.349141 2.075644 1.164196 -2.088716 -7.670597 -1.597820 -7.263859 11.308248 -3.866644 5.191374 -10.616702 6.274454 -0.820787 -17.725653 -8.390943 4.547356 20.268638 -2.287292 7.512659 17.604356 8.626333 -1.747972 -1.746948 -17.367498 0.439788 -10.499714 -1.222475 -2.861766 -0.534363 3.716996
-4.409636 118.013313 2.025539 1.903400 0.150718 4.811888 -5.269056 1.361118 -3.173469 4.610014 3.117279 1.486363 17.239194 -9.071249 -8.693527 -5.003104 -3.406359 -4.140348 -3.455179 -0.174616 0.512528 3.977791 6.040277 1.831902 8.221863 14.186414 -7.761014 -5.413896 3.668408 -0.582464 0.595759 -16.321163 -0.826070 4.772619 -21.656654 -2.461488 -7.943939 8.909954 8.395366 4.497464 -4.283617 -2.187626 0.930685 9.315008 2.140463 0.258737 1.506697 2.835321 -1.586747 -1.406331 1.800982 0.479239 -6.298980 -4.222153 4.400463 7.984921 -3.191903 -2.846013 2.598835 -0.228433 -2.341344 2.695349 1.340345 -2.240566 -6.890037 -1.574830 -6.903962 11.403009 -4.171413 4.357129 -9.694536 6.602778 -0.929341 -17.543669 -8.887219 4.884383 19.271873 -2.435870 8.730525 19.703570 9.133588 -2.943839 -2.518169 -18.462254 0.272271 -11.917430 -1.964199 -2.521028 -0.085300 3.473506
-4.445516 117.248375 1.954969 1.714156 0.009451 4.970819 -5.302788 1.110010 -3.195508 4.621855 3.296685 1.280683 18.331871 -9.478699 -9.089131 -5.063636 -3.875457 -4.219665 -3.635957 -0.281322 0.633505 4.486048 6.676456 1.426999 8.661105 15.041500 -7.577985 -5.729705 3.945956 -1.087591 0.594379 -14.493474 -0.553668 5.078612 -21.620510 -2.521399 -7.845279 6.389516 9.243532 4.873858 -2.854371 -2.110595 2.284711 7.832969 2.166659 0.432114 1.555306 3.073174 -1.277033 -1.868525 1.850190 0.407651 -6.937037 -4.125586 4.616158 8.424886 -3.803790 -3.051914 2.590450 -0.530577 -2.481901 2.944841 1.377486 -2.462728 -6.450421 -1.459185 -6.599784 12.120009 -4.489470 3.582237 -9.231700 6.995084 -1.075949 -17.136539 -9.397996 5.176746 18.364132 -2.464880 10.095125 22.085594 9.367570 -4.390390 -3.136916 -19.131719 0.088980 -13.089428 -2.928943 -2.189241 0.188134 3.278913
-4.439431 116.599884 1.995498 1.604233 -0.068537 4.866186 -5.131893 0.621755 -3.131577 4.452743 3.418476 1.316030 18.734390 -9.341682 -9.306536 -5.304633 -4.230203 -4.106933 -3.713179 -0.315524 0.790871 4.625864 7.069923 1.031453 9.086440 15.732278 -7.268546 -5.620616 3.463152 -1.224889 0.176408 -10.512960 0.065816 5.271959 -21.933887 -2.402422 -8.013526 5.971507 9.700054 5.254434 -1.501670 -2.434882 2.593643 7.782171 2.402357 0.549290 1.508575 3.080391 -1.096814 -2.156679 1.800937 0.223730 -7.203591 -3.945922 4.729016 8.751922 -3.944882 -3.002327 2.506269 -0.830772 -2.488634 3.009058 1.426884 -2.405529 -6.247800 -1.396886 -6.277847 12.633854 -4.799347 3.260396 -9.136080 7.365468 -1.220555 -16.489496 -9.463277 5.376053 17.668973 -2.600938 10.571323 22.932765 9.512773 -4.684597 -2.582591 -19.247845 -0.104227 -14.208086 -3.105543 -2.038620 0.484200 3.091621
