HIERARCHY
ROOT Bip01_Pelvis_02
{
  OFFSET 0.000000 0.000000 0.000000
  CHANNELS 6 Xposition Yposition Zposition Zrotation Xrotation Yrotation
  JOINT BN_Tail_01_03
  {
    OFFSET 0.000022 8.763180 -11.713659
    CHANNELS 3 Zrotation Xrotation Yrotation
    End Site
    {
      OFFSET 0.000005 2.190795 -2.928415
    }
  }
  JOINT Bip01_Spine_04
  {
    OFFSET -0.000002 0.014450 12.781818
    CHANNELS 3 Zrotation Xrotation Yrotation
    JOINT Bip01_R_Thigh_05
    {
      OFFSET -8.583454 -0.014438 -12.781816
      CHANNELS 3 Zrotation Xrotation Yrotation
      JOINT Bip01_R_Calf_06
      {
        OFFSET -0.318908 -15.109710 0.938041
        CHANNELS 3 Zrotation Xrotation Yrotation
        JOINT Bip01_R_HorseLink_07
        {
          OFFSET 3.075160 -15.166993 -10.353959
          CHANNELS 3 Zrotation Xrotation Yrotation
          JOINT Bip01_R_Foot_08
          {
            OFFSET 0.414758 -23.180181 -1.568410
            CHANNELS 3 Zrotation Xrotation Yrotation
            End Site
            {
              OFFSET 0.103689 -5.795045 -0.392102
            }
          }
        }
      }
    }
    JOINT Bip01_L_Thigh_010
    {
      OFFSET 8.583446 -0.014471 -12.781816
      CHANNELS 3 Zrotation Xrotation Yrotation
      JOINT Bip01_L_Calf_011
      {
        OFFSET 0.318869 -15.109711 0.938038
        CHANNELS 3 Zrotation Xrotation Yrotation
        JOINT Bip01_L_HorseLink_012
        {
          OFFSET -3.075188 -15.166978 -10.353949
          CHANNELS 3 Zrotation Xrotation Yrotation
          JOINT Bip01_L_Foot_013
          {
            OFFSET -0.414818 -23.180175 -1.568425
            CHANNELS 3 Zrotation Xrotation Yrotation
            End Site
            {
              OFFSET -0.103705 -5.795044 -0.392106
            }
          }
        }
      }
    }
    JOINT Bip01_Spine1_016
    {
      OFFSET 0.000004 0.001391 18.145702
      CHANNELS 3 Zrotation Xrotation Yrotation
      JOINT Bip01_Neck_017
      {
        OFFSET 0.000018 5.655261 24.446855
        CHANNELS 3 Zrotation Xrotation Yrotation
        JOINT Bip01_R_Clavicle_018
        {
          OFFSET -4.019912 -3.216724 -7.464439
          CHANNELS 3 Zrotation Xrotation Yrotation
          JOINT Bip01_R_UpperArm_019
          {
            OFFSET -6.384466 0.000038 0.000020
            CHANNELS 3 Zrotation Xrotation Yrotation
            JOINT Bip01_R_Forearm_020
            {
              OFFSET 2.356432 -19.118759 0.863471
              CHANNELS 3 Zrotation Xrotation Yrotation
              JOINT Bip01_R_Hand_021
              {
                OFFSET 2.366158 -20.021737 -0.571036
                CHANNELS 3 Zrotation Xrotation Yrotation
                JOINT Bip01_R_Finger0_022
                {
                  OFFSET 0.396674 -16.675415 -0.073905
                  CHANNELS 3 Zrotation Xrotation Yrotation
                  End Site
                  {
                    OFFSET 0.099168 -4.168854 -0.018476
                  }
                }
              }
            }
          }
        }
        JOINT Bip01_L_Clavicle_024
        {
          OFFSET 4.019897 -3.216732 -7.464446
          CHANNELS 3 Zrotation Xrotation Yrotation
          JOINT Bip01_L_UpperArm_025
          {
            OFFSET 6.384471 -0.000047 -0.000009
            CHANNELS 3 Zrotation Xrotation Yrotation
            JOINT Bip01_L_Forearm_026
            {
              OFFSET -2.356583 -19.118717 0.863745
              CHANNELS 3 Zrotation Xrotation Yrotation
              JOINT Bip01_L_Hand_027
              {
                OFFSET -2.366316 -20.021723 -0.570740
                CHANNELS 3 Zrotation Xrotation Yrotation
                JOINT Bip01_L_Finger0_028
                {
                  OFFSET -0.396810 -16.675420 -0.073659
                  CHANNELS 3 Zrotation Xrotation Yrotation
                  End Site
                  {
                    OFFSET -0.099202 -4.168855 -0.018415
                  }
                }
              }
            }
          }
        }
        JOINT Bip01_Neck1_030
        {
          OFFSET -0.000003 1.578455 11.329226
          CHANNELS 3 Zrotation Xrotation Yrotation
          JOINT Bip01_Head_031
          {
            OFFSET 0.000009 2.902654 9.775581
            CHANNELS 3 Zrotation Xrotation Yrotation
            JOINT BN_Ear_L_01_032
            {
              OFFSET 4.901246 6.601760 3.792944
              CHANNELS 3 Zrotation Xrotation Yrotation
              End Site
              {
                OFFSET 1.225311 1.650440 0.948236
              }
            }
            JOINT BN_Ear_R_01_033
            {
              OFFSET -4.900918 6.601783 3.792942
              CHANNELS 3 Zrotation Xrotation Yrotation
              End Site
              {
                OFFSET -1.225230 1.650446 0.948236
              }
            }
            JOINT BN_Mouth_01_034
            {
              OFFSET 0.000004 -2.381578 1.281788
              CHANNELS 3 Zrotation Xrotation Yrotation
              End Site
              {
                OFFSET 0.000001 -0.595395 0.320447
              }
            }
          }
        }
      }
    }
  }
}
MOTION
Frames: 92
Frame Time: 0.03333333
0.490249 55.420532 3.691067 0.236345 -6.191782 -3.648876 -2.293275 -19.244461 -2.206845 -1.298046 7.291810 5.479165 -4.273822 4.292584 -2.246425 -3.301711 -9.111258 -0.223515 3.705559 7.484359 3.130994 -1.050258 -3.269215 -4.783187 2.787568 -16.261694 5.345288 -10.908238 0.726769 2.110266 26.300797 12.939964 -17.321910 -11.349455 -0.770026 6.581486 -0.450843 8.895254 3.810126 -4.031155 2.718661 5.705963 -4.160132 -4.667647 11.861876 36.066679 56.157537 -23.809660 3.359062 -73.329335 -2.650794 -5.769435 4.267486 0.014113 4.344596 4.623212 -6.528674 1.771567 4.247398 2.824957 23.295815 21.085691 -13.213565 -25.005324 -63.341197 -6.941820 4.393887 32.992296 -7.978449 -1.765623 -1.468786 -0.887746 -25.617569 63.505445 31.573202 2.089098 -22.100959 -1.247168 14.025668 -32.507435 -3.015089 -6.202032 -19.406213 21.780587 6.604697 19.632425 -5.886917
0.457767 55.394268 3.246269 0.229032 -6.018885 -3.817938 -3.516442 -18.193276 -3.882277 -1.368801 7.422105 5.703695 -4.571434 4.531837 -2.339273 -3.251205 -11.254986 -0.284112 4.120591 8.466573 2.968739 -0.971464 -2.154696 -4.756011 2.150757 -15.009871 5.367822 -10.555058 -0.151332 2.997405 26.571070 11.680630 -18.146873 -11.084930 -0.910102 6.823822 -0.462320 9.127473 3.982807 -3.608028 2.257545 5.630013 -2.986745 -5.026735 10.705920 35.978534 56.880705 -24.655650 5.365909 -71.821996 0.116948 -6.827430 2.734004 1.038463 4.307621 4.896485 -6.588866 1.126211 4.032431 2.137674 23.582783 21.469104 -12.747902 -26.169065 -63.318558 -7.700376 4.218196 32.520829 -8.060279 -2.025395 -1.370209 -0.680151 -22.690608 59.688679 29.149998 2.783713 -18.780667 -0.979486 12.841821 -30.897279 -3.413243 -5.991798 -16.756543 22.043227 6.429348 18.344005 -5.387569
0.504045 55.370029 2.647882 0.309191 -5.676858 -3.533262 -4.837209 -18.011147 -6.032151 -1.435974 7.577978 5.445461 -5.299636 4.451217 -1.869036 -2.980912 -13.155324 -0.367582 4.459153 9.761902 2.280540 -0.499142 -1.633974 -5.131259 1.470471 -13.567477 5.044911 -9.911528 -1.333051 4.115895 26.036172 10.478778 -18.592640 -10.580068 -0.450239 6.823862 -0.418818 8.859852 4.108772 -2.873532 1.950546 5.423702 -1.379667 -5.883509 8.814461 35.334935 59.854473 -25.141911 7.904378 -70.853309 3.314948 -8.074103 0.294411 2.046766 4.189905 5.069247 -6.563374 0.102394 3.852003 1.385879 23.974911 21.713006 -11.989281 -27.775539 -63.001703 -8.798673 4.021046 31.623541 -8.166934 -2.360553 -1.825562 -0.391019 -20.392896 55.583539 27.534735 3.667679 -16.527372 0.192018 9.484933 -30.513010 -4.995455 -2.728164 -13.929793 24.397993 6.272702 17.552632 -5.142370
0.521625 55.443687 1.863174 0.432518 -5.187428 -2.747441 -6.203359 -19.170229 -8.467285 -1.382715 7.711642 4.608071 -6.256579 3.591712 -0.945079 -2.510935 -13.343298 -0.254541 4.188121 10.492478 1.581511 0.444613 -1.712000 -5.909717 0.513677 -11.753826 4.594950 -9.416599 -3.294001 5.374131 25.548495 8.974443 -18.892351 -9.774244 0.903224 6.606754 -0.292773 8.587154 4.144881 -2.161815 1.621209 5.273835 0.353189 -7.440788 6.842916 36.422981 64.231186 -27.256826 11.177827 -70.565946 7.317606 -10.179613 -3.670122 2.872301 3.749956 4.431254 -6.624907 -0.922937 3.355315 0.575196 24.281156 22.553861 -10.901878 -30.310312 -63.263079 -11.128900 3.774895 31.025899 -8.215626 -2.463400 -2.423693 -0.222708 -19.171665 52.565553 26.906055 4.876165 -16.217348 1.951224 6.391886 -29.058341 -6.589020 3.494200 -12.143164 26.372506 5.785675 17.191652 -5.822383
0.455153 55.600784 1.013183 0.555948 -4.396568 -1.435576 -7.431965 -20.156601 -11.173611 -1.146827 7.729086 3.148258 -7.342463 2.316068 0.231523 -1.598841 -11.772490 0.748986 3.507328 9.315692 0.416669 1.199873 -1.485548 -7.765548 -0.703971 -9.867719 3.656297 -8.768372 -3.962090 6.505825 24.653739 6.152886 -18.070308 -8.634910 1.849480 6.379976 -0.168902 8.054697 4.078529 -1.559901 1.445820 5.191228 1.973628 -9.429286 5.379428 41.127863 68.949483 -32.374466 13.930656 -70.761984 11.048902 -12.912796 -7.933851 3.434767 3.490541 3.867448 -6.821742 -1.921151 2.606182 -0.269984 24.413387 23.364766 -9.714849 -32.065030 -63.493268 -12.767335 3.532221 30.698794 -8.354571 -2.408491 -2.423627 -0.232560 -18.356881 50.653877 26.262788 5.663558 -15.612007 3.249050 4.513071 -28.167084 -7.262364 7.500951 -11.801421 27.133728 5.382149 17.111803 -6.404222
0.313545 55.860710 0.167294 0.465814 -3.222376 0.129805 -8.307694 -20.741054 -13.415675 -0.572364 7.086269 1.441263 -8.322363 1.571352 1.057610 -0.248544 -8.425899 1.977685 2.612388 6.209273 -0.373883 1.624917 -1.054590 -9.931970 -2.051267 -7.020568 2.048935 -7.692088 -3.111131 7.198693 23.121195 2.223996 -15.506585 -6.995340 1.050374 5.526306 -0.079832 7.849109 3.856556 -1.180320 1.420948 4.998348 3.902044 -11.522342 5.261656 50.686158 73.275274 -42.185427 15.697387 -72.215037 13.683338 -15.406041 -11.177404 4.120873 3.724027 3.319258 -7.436922 -2.958255 1.890664 -0.810128 24.467909 23.784442 -8.262015 -34.331824 -63.843603 -14.971506 3.534768 31.304720 -8.418330 -2.339438 -2.183998 -0.590580 -18.344481 49.295371 25.974542 6.427712 -15.442367 4.136429 3.421632 -27.167233 -6.855779 8.376341 -11.736818 26.614862 5.023345 16.817607 -6.748718
0.089260 56.012611 -0.586960 0.199970 -1.554255 1.616312 -7.834362 -20.918254 -13.745002 0.117336 5.818183 -0.102133 -9.087762 1.271876 1.348839 1.835336 -1.984821 3.178523 1.742504 0.102779 -0.974048 0.985217 -0.630378 -10.703193 -3.266336 -3.628766 -0.303035 -6.465005 0.941576 7.677252 21.287690 -4.487648 -11.031875 -4.632782 -1.924651 3.771544 -0.091809 7.672900 3.694177 -0.822164 1.185263 4.723003 6.201968 -12.936696 5.808428 67.333777 76.230940 -59.573434 17.429415 -75.242837 16.589747 -17.168524 -12.289770 5.208232 4.553650 3.222721 -8.067997 -3.606876 1.470260 -1.084135 24.513050 23.793238 -7.017484 -35.980631 -63.491539 -16.589986 3.540507 31.559856 -8.481162 -2.393093 -1.913963 -0.715821 -18.180925 48.321443 25.437171 7.187674 -15.101018 4.408220 2.583725 -25.986497 -5.955653 6.713979 -10.337051 24.543318 4.788889 16.016475 -6.812991
-0.170489 55.914608 -1.161896 -0.135578 -0.586517 2.814988 -6.342611 -21.067598 -11.814872 0.560045 4.912920 -1.149708 -9.226807 0.486556 1.305441 3.612209 7.553737 4.138987 1.430556 -8.081799 -1.977564 -0.305988 -2.090432 -10.411326 -3.835429 -2.023673 -2.258482 -5.148010 10.971775 7.359275 19.892649 -13.782779 -5.365130 -1.401350 -9.725482 1.455418 -0.056134 7.459012 3.590251 -0.162098 0.603679 4.252380 8.214182 -13.632216 6.290021 85.717286 77.712339 -78.763479 18.160530 -78.088468 18.294276 -18.168799 -12.035110 6.944994 6.289400 3.336078 -8.518674 -4.141614 1.472785 -1.061346 24.498047 23.954614 -6.179072 -37.741323 -63.301303 -18.406417 3.509689 31.389355 -8.240638 -2.569720 -1.522259 -1.229223 -18.607667 47.746467 25.546338 7.574040 -14.515459 4.045506 2.076380 -24.758193 -4.961124 4.122669 -8.257947 21.662258 4.627641 15.081436 -6.511809
-0.453375 55.618462 -1.702446 -0.404969 -0.334940 3.986709 -4.244370 -21.181269 -9.024642 0.850832 4.432576 -2.017380 -9.237687 -1.015837 1.163361 4.477081 16.591030 5.409532 1.069256 -14.690584 -3.110410 -1.317295 -3.864417 -10.395078 -3.959687 -1.928530 -3.677298 -4.408842 20.363132 6.828380 19.030217 -20.885621 -1.379791 3.065141 -20.367630 -1.323406 0.137840 7.281619 3.322338 0.197575 0.034723 3.703846 9.234699 -13.337020 6.552624 104.091998 77.725206 -97.162895 21.858964 -81.566293 22.655223 -19.014626 -10.793552 8.300169 7.908236 2.806407 -8.646226 -4.341114 1.266172 -0.993093 24.297295 24.526633 -5.197911 -39.365091 -62.905759 -20.101622 3.354543 31.380166 -7.909133 -2.514464 -1.150859 -1.527022 -19.357073 47.406744 25.920446 8.093861 -14.020812 3.084442 1.713101 -24.034722 -3.958193 1.504898 -6.817235 18.810162 4.664461 14.002204 -6.109008
-0.661780 55.135952 -2.162137 -0.655595 -0.707481 5.064693 -2.700624 -21.668442 -6.756198 1.097804 4.292276 -2.807895 -9.146540 -2.595147 1.077688 5.069106 25.435130 6.851487 0.360400 -20.645000 -4.431234 -2.042819 -5.923725 -10.560562 -3.565826 -2.164217 -4.563831 -4.304811 27.708219 6.296674 18.810541 -25.446083 1.329526 7.488842 -30.488495 -4.048497 0.221252 7.254275 3.181760 0.402532 -0.533330 3.156416 9.650243 -12.250444 6.604642 118.430709 77.509464 -111.188371 33.883529 -84.732814 34.706315 -19.575809 -9.144568 9.241230 9.552412 2.650796 -8.940598 -4.422401 0.959634 -1.003437 24.156994 25.140836 -4.483166 -39.649433 -62.425975 -20.668611 3.132046 31.112679 -7.569293 -2.301808 -0.763898 -1.821110 -19.890089 47.135153 26.446345 8.343541 -13.281803 2.068529 1.047248 -23.737606 -3.152218 -0.809388 -6.413666 16.293229 4.926124 13.152387 -5.890230
-0.837110 54.564983 -2.536599 -0.731625 -1.284436 6.218413 -0.972330 -22.101245 -4.070096 1.149708 4.225011 -3.643097 -8.976562 -3.564801 0.909716 5.244285 30.964773 8.019913 0.281962 -23.708813 -5.094046 -2.820023 -7.296841 -11.018526 -3.007784 -2.429264 -5.232907 -4.556205 31.847169 6.323883 18.825911 -27.011949 2.773714 10.740864 -37.412300 -5.747441 0.344700 7.322748 3.127865 0.695625 -1.443583 2.622619 9.414200 -10.986055 6.466170 129.504500 77.297596 -121.872592 68.854392 -86.814127 68.862199 -20.293299 -6.541048 9.379339 10.567452 2.488734 -8.547337 -4.666740 1.181146 -0.763656 23.819688 25.169158 -3.729309 -39.286503 -61.269732 -20.510727 3.153925 30.249851 -7.376395 -2.291782 -0.231181 -2.029711 -20.117591 46.929380 26.466678 8.367548 -12.080340 1.089401 0.372883 -23.034850 -2.599675 -2.239635 -6.704081 14.157648 5.299653 12.484392 -5.695228
-0.975138 53.926933 -2.839239 -0.676298 -2.419235 7.162945 0.082880 -22.492088 -2.000318 1.060400 4.701906 -4.179774 -8.848085 -3.877512 0.690083 5.174906 35.143478 8.842954 0.238321 -25.984690 -5.510331 -3.236814 -8.487306 -11.324556 -2.301504 -3.126884 -5.831549 -5.018184 36.034622 6.644294 18.734525 -28.056984 3.894432 12.874125 -41.290855 -6.141571 0.476252 7.222009 3.068096 0.862844 -2.670273 1.802072 8.621561 -9.826853 6.323474 139.918197 78.052448 -131.450254 110.330387 -86.762908 108.896998 -20.629731 -3.692740 9.245613 11.280740 2.825416 -8.002010 -4.740504 1.961662 -0.283424 23.318940 24.922288 -2.940573 -38.063705 -59.512420 -19.615675 3.443566 29.213035 -7.173643 -2.403143 -0.009340 -2.208579 -20.210765 46.667179 26.839859 8.456784 -10.587877 -0.172919 0.045718 -22.141253 -1.772180 -2.717732 -8.050257 12.788045 5.695904 12.275096 -5.702603
-1.084722 53.255981 -3.045475 -0.514855 -3.810195 7.907208 0.801235 -21.906963 -0.407115 0.681372 5.413274 -4.460066 -8.464207 -3.974466 0.323917 4.707294 38.224644 8.940027 0.623472 -27.211183 -5.094619 -3.436765 -9.997593 -11.605270 -1.511066 -4.051562 -6.335233 -5.549073 40.167373 7.122334 18.494399 -28.758883 4.632197 14.185527 -44.105213 -6.148289 0.691023 7.074406 2.994064 0.988511 -4.078186 0.897213 7.267239 -8.964595 6.076812 145.811391 79.921530 -137.245381 106.942259 -86.061435 103.860847 -20.154275 -0.628817 8.929594 11.364894 3.362853 -7.348778 -4.725380 3.264921 0.625726 23.083557 24.160142 -2.205132 -36.393655 -57.467219 -18.292961 3.553431 28.130800 -6.892123 -2.548001 -0.084586 -2.227113 -19.931533 46.052699 27.217710 8.283529 -9.159634 -1.685921 0.101469 -20.731190 -0.708769 -2.040646 -9.906827 12.239467 6.003809 12.123720 -5.804561
-1.152369 52.528263 -3.206686 -0.374268 -5.366649 8.296105 1.259289 -19.708214 1.073934 0.225469 6.034762 -4.431496 -7.979273 -3.682729 0.358711 4.349122 41.648906 9.116724 0.764335 -28.658434 -4.885542 -3.760318 -11.294333 -12.185203 -0.507763 -5.203462 -6.524977 -6.102929 45.236304 7.214605 18.518326 -29.274869 5.891746 13.439889 -46.390178 -6.482024 0.942623 7.284027 2.841276 1.082929 -5.915869 0.102569 6.213395 -7.842301 5.790666 151.427581 81.936572 -143.618955 96.101939 -85.058101 91.513154 -19.262304 2.341312 8.357750 11.051762 4.194092 -6.183926 -4.844034 4.983094 1.517273 22.729810 23.387609 -1.352842 -34.598149 -54.994750 -16.610371 3.841908 27.260860 -6.745902 -3.021096 -0.377128 -1.779151 -19.091477 44.763726 26.962449 8.035542 -6.871789 -3.471662 0.384855 -19.968404 -0.041341 -0.594144 -13.037814 11.452925 6.075287 11.637277 -5.771973
-1.179618 51.799950 -3.223525 -0.167508 -7.031565 8.450294 1.649858 -17.078971 2.320186 -0.269263 6.694612 -4.207715 -7.646748 -3.107682 0.707757 3.502640 44.763336 9.255535 1.533554 -29.908171 -4.546132 -3.976650 -12.530418 -12.649236 0.328911 -6.485511 -6.564221 -6.266410 50.813280 6.862647 18.610791 -30.006176 7.310651 10.072929 -47.471406 -7.352677 1.135299 7.578704 2.589726 1.129520 -7.458674 -0.525784 5.685786 -6.392203 5.816465 152.899544 85.095140 -147.284491 86.363799 -83.275483 80.207317 -17.938525 6.259224 7.130356 10.464775 4.958549 -4.801930 -4.928674 6.491505 2.395968 22.548201 22.942345 -0.557368 -33.278294 -52.814466 -15.200594 4.468864 26.113587 -6.806621 -3.629738 -1.222171 -1.039291 -18.307589 42.992507 26.453740 7.659176 -5.300355 -5.083228 0.832847 -20.404758 0.015084 1.626126 -18.071384 9.965780 6.228611 10.936302 -5.630574
-1.158829 50.972004 -3.190190 0.194083 -8.790367 8.358810 1.740057 -13.507809 3.038627 -0.916376 7.211577 -3.649225 -7.245800 -2.364539 1.097990 2.759656 47.575881 8.992984 2.025936 -30.547742 -4.380220 -3.922293 -13.676291 -13.081658 1.343277 -8.168009 -6.590193 -6.242258 56.703544 6.279049 18.242491 -30.658494 8.211024 3.339476 -46.673578 -9.726071 1.121416 7.942845 2.229597 1.192006 -9.267395 -1.214497 5.286598 -4.546428 5.791799 178.541517 88.525766 -174.972936 79.593081 -81.705248 71.674953 -16.384090 10.264182 5.240391 9.458026 5.366988 -3.466501 -4.765776 8.448710 3.181401 22.007742 22.695516 0.437664 -31.968458 -50.323797 -13.602935 5.095334 24.671168 -7.137490 -4.126118 -1.586827 -0.863512 -18.293984 40.783867 25.849191 7.518063 -3.662206 -6.194471 0.628544 -21.998415 -1.188645 2.489351 -22.349030 7.270843 6.108761 10.462666 -5.540393
-1.072673 50.170822 -2.903211 0.661154 -10.215339 8.160577 1.796992 -10.082336 3.366312 -1.604798 7.239139 -2.940653 -6.933240 -1.167466 1.774722 1.978292 49.999166 8.785033 2.214791 -30.741572 -4.512892 -3.800171 -14.448455 -13.719376 2.321083 -10.410114 -6.393425 -5.233079 63.191762 5.001729 17.819719 -31.810928 8.838173 -2.513677 -44.529905 -11.282952 0.998256 8.305736 1.729399 1.063999 -11.132351 -1.828338 4.911706 -2.466059 5.872674 305.368255 87.203716 -302.761694 74.203547 -80.855178 64.497320 -14.615195 14.418086 2.851833 8.312588 5.789366 -2.082707 -4.356637 10.605294 3.743950 21.245840 22.565049 1.477579 -30.074290 -47.308592 -11.468373 5.596246 22.975343 -7.805231 -4.522762 -2.070906 -0.872878 -18.812822 37.693744 25.213412 7.558189 -2.726119 -6.832526 -0.221624 -24.134725 -3.090329 2.252439 -25.504427 4.517073 6.033031 10.699189 -5.288253
-0.926284 49.291283 -2.495103 0.997405 -11.638959 7.794618 1.572868 -7.164783 3.134485 -2.136739 6.770878 -2.043005 -6.718306 0.481616 2.511804 1.189409 52.130564 8.965189 2.372383 -30.316839 -4.629256 -3.841468 -15.240703 -14.931349 3.599436 -13.157710 -6.022364 -3.117314 69.986420 2.715636 16.962825 -33.181057 8.645241 -7.751882 -40.637239 -11.545966 0.793475 8.926437 1.158484 0.851370 -12.812257 -2.352297 4.312140 -0.366868 6.083850 322.482159 82.846178 -320.397390 65.220807 -79.583310 53.758321 -12.998479 17.796596 0.068739 6.981934 6.183069 -1.330990 -3.826739 12.774280 3.978482 20.395288 22.546707 2.427937 -27.771989 -43.965898 -9.138884 6.061687 21.772995 -8.732457 -4.192533 -2.528309 -1.685873 -20.404681 34.582763 24.829040 8.177294 -4.119624 -6.773088 -1.865548 -26.040476 -5.152550 0.213414 -26.913024 1.680906 5.483507 12.357750 -5.205772
-0.747088 48.359974 -1.862359 1.482624 -13.312578 7.556254 1.516800 -5.474969 3.210496 -2.674091 6.411944 -1.286758 -6.747407 2.442251 3.191426 0.150823 54.143137 9.729756 1.783840 -29.667309 -5.243442 -3.338710 -16.217223 -16.147471 5.704810 -16.991020 -5.372645 -5.860632 77.047150 4.838874 17.624778 -35.496086 7.811504 -11.625455 -34.158880 -9.616056 0.526906 9.564901 0.623511 0.537264 -14.157848 -2.786742 4.077748 1.410737 6.378839 327.021424 78.242764 -325.456086 56.809081 -78.465486 43.630008 -11.262343 21.020360 -2.838141 5.630219 6.765119 -1.204092 -3.270150 14.607930 3.846471 19.408641 22.854773 3.314067 -25.389950 -41.355097 -6.764472 6.140901 20.859069 -9.896027 -4.137707 -3.285244 -2.062108 -22.282740 32.271970 25.132948 8.375204 -8.532822 -7.148434 -5.146653 -28.091892 -7.373387 -1.864226 -25.436486 0.341606 4.341341 16.029615 -4.938814
-0.533741 47.446529 -1.168356 1.749599 -14.917049 7.150921 1.518745 -4.718727 3.587505 -3.047318 5.761785 -0.476512 -7.029638 4.837503 3.679928 -0.472443 55.593536 10.657252 0.852353 -29.167534 -5.841309 -2.623228 -17.248687 -17.041961 6.875267 -17.469340 -5.536224 -10.162995 80.238130 8.629007 18.067742 -36.237119 7.484579 -13.884763 -28.622132 -7.055944 0.330343 10.219162 0.077274 0.333043 -15.099080 -3.197244 3.869636 2.702943 6.749989 329.192429 73.599944 -327.635086 47.182898 -77.195059 32.511484 -9.486098 23.746724 -5.518449 4.477557 7.492676 -1.326948 -2.743820 15.867952 3.619030 18.290395 23.653808 4.091811 -22.876468 -39.057803 -4.380025 5.805854 20.135161 -11.115841 -4.209777 -4.508141 -2.515010 -23.805702 29.989294 25.805589 7.843341 -13.555444 -7.967082 -8.409935 -29.174354 -8.204382 -3.009112 -21.968231 0.330166 2.297111 20.322452 -3.873394
-0.213212 46.559727 -0.326448 1.959042 -16.620759 6.530858 1.701398 -5.881828 4.621927 -3.217217 5.282750 0.140684 -7.485474 7.192586 4.341524 -1.629757 56.348314 12.335018 -0.044174 -28.627758 -6.173749 -1.937979 -18.378001 -17.838200 7.802486 -15.669101 -6.066585 -13.875128 80.056816 12.998598 18.699101 -34.917815 6.615879 -15.860255 -26.714242 -5.079399 0.065252 10.606782 -0.042607 0.019559 -15.703397 -3.686707 3.871279 3.685591 7.466716 330.935393 69.588029 -329.458492 40.120500 -75.713055 24.303652 -7.931724 26.185351 -7.921940 3.679973 8.065725 -1.491830 -2.146228 16.641040 3.419639 17.577198 24.995900 4.270895 -20.510708 -38.670302 -2.466879 4.665189 20.627818 -11.724956 -4.228599 -4.861579 -2.734936 -24.640937 27.454605 26.733303 6.707076 -17.730125 -9.152500 -8.955123 -29.991820 -6.701524 -3.486670 -16.883043 1.035256 0.188306 24.770851 -1.403935
0.128318 45.781746 0.399447 1.914403 -18.038402 5.769549 1.806351 -7.122000 5.883376 -3.188370 4.815215 0.803328 -7.908860 9.478476 4.779137 -2.400735 56.826896 13.760130 -0.625702 -29.264745 -6.006242 -1.477090 -18.804003 -18.991329 8.317208 -13.650070 -6.503973 -14.429395 79.067697 14.432118 19.980299 -33.052199 6.242002 -18.374201 -25.423012 -3.588664 -0.112105 10.383568 -0.153988 -0.324122 -16.183389 -4.248169 3.694108 4.660243 8.289723 332.781573 66.170569 -331.167589 34.253092 -73.959523 17.617960 -6.588077 27.628331 -9.862318 2.895172 8.613231 -1.701572 -1.650740 17.211620 3.206143 17.081578 27.139130 4.227894 -18.181911 -39.820029 -0.974692 2.828981 21.423527 -11.913100 -4.359329 -4.610896 -2.727190 -24.575195 24.013836 27.496962 5.679610 -20.082315 -9.950580 -8.969858 -31.738181 -4.423752 -3.836911 -13.278401 2.143285 -1.409131 28.492356 1.587080
0.470361 45.093975 1.015620 1.704441 -19.175709 4.867137 1.805192 -8.185844 6.692323 -3.104744 4.239541 1.306407 -8.234870 12.257771 5.237630 -3.483687 56.660080 15.244672 -1.032136 -29.965916 -6.133385 -0.903103 -19.981743 -19.028626 8.950941 -11.849257 -6.832226 -13.484851 78.481812 13.790901 19.824826 -31.692659 5.582814 -20.745711 -23.297411 -2.137455 -0.163127 9.794316 -0.054896 -0.434075 -16.225696 -4.657268 3.476592 5.753370 8.703293 333.499358 63.367199 -332.079978 30.933884 -72.429018 14.026144 -5.537128 28.052738 -11.184361 2.296446 8.962924 -1.869351 -1.321575 17.285008 2.861477 16.966264 30.042748 3.625722 -16.369956 -41.802601 0.144264 0.906735 23.069177 -12.015745 -4.587635 -4.581208 -2.535663 -23.273892 19.998149 26.915375 5.585275 -20.219453 -9.585158 -8.371482 -32.499375 -2.314854 -3.943457 -10.987299 3.615422 -1.781184 31.276010 3.726555
0.880907 44.387825 1.651634 1.372567 -20.002850 3.878722 1.876568 -9.358925 7.122836 -2.882130 3.534958 1.694009 -8.643276 15.018033 5.825612 -4.736169 56.379919 16.826178 -1.443092 -30.953156 -6.394059 -0.374412 -21.105447 -18.943563 9.591206 -9.905717 -6.987187 -11.134929 77.602774 11.678680 19.165068 -30.511904 4.970414 -22.412316 -21.865945 -1.235030 -0.126575 8.748238 0.047259 -0.517723 -16.073556 -5.004839 3.331791 7.523190 8.670805 333.311478 60.410232 -332.108661 28.352696 -71.230199 11.185409 -4.936634 27.826361 -12.071146 1.417192 8.350790 -1.975522 -1.199363 17.307021 2.526723 17.063325 33.302803 2.922089 -15.105836 -43.610327 0.976111 -0.589888 24.518891 -11.545401 -4.637531 -4.334985 -2.435597 -21.179238 15.512025 25.356995 5.879643 -18.159760 -8.128438 -7.924340 -33.137340 -0.636644 -4.008534 -10.152452 4.722703 -0.872364 33.883871 4.026913
1.217610 43.659897 2.123008 0.939985 -20.564507 2.946862 2.032451 -10.014513 7.645903 -2.577081 2.833667 1.819165 -9.141304 17.138732 6.416458 -6.131889 56.531184 18.346931 -1.507214 -32.133824 -6.114350 -0.022506 -22.262459 -19.056088 10.435901 -8.228650 -6.708059 -8.388619 76.522352 8.818818 18.472600 -28.597497 4.079797 -23.745268 -21.339418 -0.467132 -0.131352 7.522774 0.295683 -0.444241 -15.536590 -5.340277 3.186216 9.230369 8.643651 333.484290 57.400792 -332.585761 25.993796 -69.796935 8.926110 -4.349978 26.994159 -12.749545 0.536485 6.998304 -2.316528 -1.187241 17.075234 2.452139 17.609513 36.531520 1.751389 -14.213108 -45.741319 1.298812 -1.956529 25.941256 -10.660923 -4.662387 -3.683321 -2.294533 -18.914079 11.496717 23.357628 6.065474 -16.447187 -6.004262 -8.217550 -34.249405 1.236405 -4.201576 -11.541870 5.972890 0.270722 36.631602 2.970068
1.595610 42.811245 2.486589 0.558539 -21.181355 2.054934 2.381751 -11.325034 7.819961 -2.222846 2.314739 1.768194 -10.156392 18.543603 7.466315 -6.864745 56.968396 19.538387 -1.659080 -32.897368 -5.900232 0.612997 -23.303551 -18.903574 11.513641 -6.426090 -6.347494 -6.426079 75.204839 6.385521 17.789386 -26.923863 3.367596 -24.707597 -21.531412 -0.056097 -0.025341 5.797402 0.556192 -0.478736 -15.141651 -5.751251 2.864445 11.036609 8.632413 332.916037 55.023600 -332.200081 24.835597 -68.523976 7.596365 -4.080911 26.804084 -13.258966 0.043021 5.835894 -2.396128 -1.289915 16.797080 2.501636 18.349555 40.186232 0.456943 -13.619326 -47.872804 1.692721 -2.977519 27.438443 -9.914426 -5.126495 -3.360110 -1.978921 -16.337060 7.248923 21.535415 5.972510 -13.853658 -3.042086 -8.680961 -36.067473 2.647625 -4.153449 -14.791188 7.309642 2.723496 38.566448 0.096789
1.899171 41.934452 2.677574 0.065381 -22.109705 1.035143 2.624715 -13.166987 7.770685 -1.820547 2.392624 1.560375 -11.372655 18.594496 8.890043 -7.534176 58.533580 20.505520 -1.777024 -33.956287 -5.630138 1.375030 -24.113713 -18.696171 12.657337 -4.918729 -5.772569 -5.852046 74.215134 5.080957 17.445943 -25.981726 3.135189 -25.414762 -21.733135 0.020928 0.068303 4.563826 1.060173 -0.442257 -15.007413 -5.910636 2.450094 12.270060 8.578061 333.003744 52.712643 -332.167381 23.644699 -66.848764 6.440682 -3.661388 26.665419 -14.140610 -0.493052 5.480652 -2.786518 -1.521222 16.855859 2.771898 19.780765 42.969737 -1.456716 -13.030730 -50.204996 2.129697 -3.816736 29.177139 -8.981033 -5.467215 -2.741808 -2.078121 -14.077676 3.532292 20.023548 5.783709 -11.454543 -0.266748 -9.078282 -37.776705 4.149467 -3.601656 -17.967437 7.782103 4.911467 39.533154 -3.027645
2.224784 41.123970 2.754316 -0.356599 -23.020351 0.077257 2.794765 -15.089516 7.745112 -1.374207 2.680636 1.200282 -12.848147 18.002474 10.544163 -7.764779 60.376172 21.311592 -1.876873 -35.049329 -5.065328 2.096167 -24.740233 -18.816340 13.536383 -3.483330 -5.115568 -6.023344 72.949404 4.357090 17.157149 -25.045180 2.932609 -25.801602 -21.663347 0.098866 0.088283 3.584000 1.642067 -0.333898 -14.859038 -5.934608 1.855055 13.054841 8.609440 332.613316 50.933262 -331.677410 23.801021 -65.430912 6.541972 -3.412158 26.787111 -14.820294 -0.466919 5.871329 -3.391832 -1.977318 16.976011 3.192989 21.035627 45.261869 -2.885550 -12.593159 -51.873686 2.296052 -4.484935 30.328214 -7.963455 -5.644257 -2.181426 -2.032035 -12.207568 0.165710 18.674329 5.345887 -9.662478 2.424798 -9.261666 -39.007613 4.861842 -3.612138 -20.590596 7.960673 7.416947 39.798944 -6.492544
2.545105 40.290298 2.889246 -0.932863 -24.065960 -0.861832 2.864826 -18.349340 7.406930 -0.832065 3.271830 0.856688 -13.922029 17.194777 11.964647 -8.463970 62.227646 22.479469 -2.122918 -35.682596 -4.698205 2.744172 -25.869460 -19.190028 13.881897 -2.420550 -4.294258 -5.174280 71.384256 3.154147 16.736454 -23.650069 2.315789 -26.141570 -21.674431 0.246817 0.129711 2.569008 2.153927 -0.190649 -14.637994 -6.011283 1.393114 13.579671 8.638069 331.847392 49.845185 -331.275598 25.220252 -64.621146 7.711066 -3.193455 27.307289 -15.199430 -0.649730 5.928323 -3.819896 -2.419520 17.160514 3.570734 22.411551 47.105843 -4.597461 -12.295405 -53.101557 2.569613 -5.442565 31.367607 -6.796376 -5.922214 -2.468722 -1.890039 -10.618164 -2.503898 17.853837 4.860914 -8.181226 4.771924 -9.442805 -40.530477 5.739519 -4.132304 -23.120968 8.313193 9.599983 39.411910 -9.460896
2.838540 39.535877 3.017488 -1.687037 -25.372055 -1.765707 2.637322 -22.010098 6.498584 -0.205191 4.274595 0.612580 -14.938757 16.379965 13.002581 -8.937328 63.701384 23.367320 -2.277532 -36.006274 -4.128510 3.303984 -26.632703 -19.356371 14.555099 -1.593319 -4.714713 -7.660078 69.601546 4.793270 16.381262 -22.411899 1.886889 -26.418559 -22.070359 0.320767 0.044827 1.629506 2.636022 0.117366 -14.518740 -6.151024 1.077464 13.956095 8.755457 331.266774 48.992692 -330.715159 25.711234 -63.984150 7.845616 -3.137185 27.598341 -15.549486 -0.549777 6.073835 -3.948127 -3.052923 17.562399 4.213543 24.036804 48.064618 -6.147842 -12.058842 -53.807629 2.872639 -6.081505 31.342170 -6.029230 -5.638758 -2.094265 -2.098463 -9.452107 -4.534974 17.192873 4.663709 -7.492340 6.635447 -9.234471 -41.131200 7.059088 -4.900860 -25.955800 8.975408 11.529147 37.909444 -12.483917
3.101911 38.981998 3.162266 -2.274411 -26.382367 -2.752940 2.681438 -24.146102 5.917702 0.250823 5.238873 0.473379 -15.580303 15.608616 13.467444 -10.899239 64.754163 25.567933 -2.196225 -36.340199 -3.568744 3.920762 -27.393315 -19.800451 14.868007 0.503112 -4.225361 -7.573410 66.444706 3.614172 15.507266 -21.508090 1.661575 -25.755519 -21.348608 0.659689 -0.043252 0.937420 3.074486 0.485434 -14.425665 -6.114597 0.949657 14.201389 8.784991 330.710351 48.639006 -330.131059 25.594357 -63.939106 7.757184 -3.227825 27.646816 -15.931458 -0.435241 6.195245 -3.743999 -3.728106 17.976480 4.872746 25.750401 48.029025 -7.924292 -11.636098 -53.526037 3.386312 -7.036902 30.902556 -5.046006 -5.663911 -1.917414 -1.853312 -8.556059 -6.328205 16.603942 4.858314 -7.680921 8.115631 -9.074869 -41.088658 7.754931 -5.356153 -28.351894 10.007113 12.736265 36.139807 -15.100645
3.393557 38.597321 3.328645 -2.826359 -26.778389 -3.617701 2.831829 -25.396383 5.316161 0.560308 5.733792 0.488124 -16.358640 15.114095 13.744235 -12.605991 65.246994 27.862684 -2.268961 -36.362794 -2.913965 4.368816 -28.651750 -20.530943 15.336495 2.718881 -3.807481 -7.336214 63.297634 2.369342 14.967775 -20.608875 1.540746 -25.149829 -20.996487 0.978345 -0.028095 0.139292 3.407908 0.724473 -14.299590 -6.120931 1.031477 14.114317 8.660134 330.076089 48.959927 -329.388417 25.750122 -64.192079 7.730309 -3.559497 27.485517 -15.969544 -0.281783 6.645857 -3.638265 -3.978002 18.179078 5.320165 27.232747 47.842942 -9.843654 -11.390122 -52.508893 3.789485 -7.575012 30.036082 -4.252052 -5.651711 -1.844393 -1.793475 -7.871324 -7.644814 16.183159 5.009265 -7.792568 9.108550 -9.028858 -40.543472 8.652801 -5.285162 -31.480861 11.420884 13.339857 35.000553 -16.726635
3.601960 38.388195 3.552369 -3.541211 -27.220385 -4.534716 2.899072 -27.603294 4.682700 1.026923 6.286469 0.539954 -17.083644 14.444277 13.882202 -13.553453 65.593996 29.412745 -2.093333 -36.125572 -2.467447 4.958819 -29.575173 -20.815882 15.648529 5.290723 -3.354660 -7.095878 59.581474 0.947880 14.121744 -20.037651 1.469201 -24.091395 -20.228099 1.277490 0.028769 -0.544072 3.646995 1.071632 -14.192804 -5.977131 0.940750 14.170956 8.350172 329.552792 49.037015 -328.849484 26.299419 -64.555317 7.998310 -4.069277 27.312053 -16.098482 -0.257091 7.247243 -3.661177 -4.241049 18.168882 5.733877 28.996645 47.396439 -12.257316 -11.120247 -50.952808 4.272135 -8.375058 28.660496 -3.258807 -5.728290 -1.996245 -1.827249 -7.368793 -8.217697 15.935407 5.133167 -8.570405 9.735978 -8.563621 -39.901445 9.366989 -4.541570 -33.011029 12.363745 13.550754 34.257806 -17.883356
3.713362 38.322666 3.706659 -4.129923 -27.725034 -5.479005 3.357102 -28.356815 4.630447 1.282280 6.968809 0.692928 -17.394583 13.705101 13.961395 -14.821507 65.764026 31.146634 -1.924635 -35.658247 -1.840705 5.277637 -30.389298 -21.548345 15.967259 7.777787 -3.145411 -6.837983 55.799788 -0.509454 12.875092 -19.364816 1.516026 -22.915673 -19.448167 1.508816 0.218623 -1.169251 3.762915 1.344509 -13.996768 -5.896124 1.072646 14.144780 8.140685 328.950250 49.096453 -328.287733 26.583033 -65.111536 7.723018 -4.631901 27.189917 -15.633289 -0.121834 8.015700 -3.682863 -4.392539 18.018758 6.444143 30.581638 46.193768 -14.545268 -11.389857 -48.252191 4.250246 -9.000037 26.524178 -2.163970 -5.750973 -2.123650 -1.865754 -6.988435 -8.467007 15.788710 5.247226 -9.175667 10.069907 -8.321194 -37.673932 10.034593 -4.351680 -31.103426 12.124641 13.380516 33.247650 -18.402269
3.806975 38.425755 3.897803 -4.556157 -28.032343 -6.430363 3.916373 -29.729996 4.808557 1.407057 7.515497 0.833764 -17.315486 12.673794 13.991577 -15.768957 65.882487 32.377600 -1.915517 -35.184267 -1.432179 5.426319 -30.681416 -22.110273 14.791550 11.063909 -2.679590 -5.354774 51.228671 -2.358279 11.770114 -18.735939 2.146794 -21.413006 -18.692313 1.959555 0.411148 -1.628587 4.190373 1.504717 -13.932033 -5.914684 1.202485 14.058328 8.081326 328.744975 49.851238 -327.775049 26.554283 -66.097650 7.214899 -5.514178 27.024682 -15.115347 -0.168996 8.840357 -3.573082 -4.418545 17.730775 6.913825 31.737003 44.855431 -16.900481 -11.613287 -44.862216 4.013413 -9.713283 23.902188 -1.057831 -5.592511 -2.222831 -1.748604 -6.737032 -8.585601 15.549034 5.374151 -9.989645 10.338208 -7.743783 -35.519561 10.798863 -3.917837 -28.732568 12.237257 13.368129 32.571205 -18.708859
3.926552 38.617920 4.072594 -4.984733 -28.029238 -7.203792 4.360049 -30.609941 5.240891 1.712287 7.642438 0.888939 -17.306114 11.928659 14.037817 -16.865109 65.931372 33.678725 -1.917908 -34.722527 -1.127493 5.461698 -31.160755 -22.688609 14.197653 12.840192 -3.268723 -5.732312 47.877097 -2.288789 10.400443 -18.111251 2.572914 -20.087833 -17.494217 1.984254 0.635905 -1.908902 4.336256 1.546196 -13.566970 -5.922214 1.374116 13.905287 8.157451 329.000020 50.069627 -327.919606 26.492654 -66.761524 6.494900 -6.688504 26.744624 -14.085388 -0.163025 9.590671 -3.652864 -4.299222 17.120636 7.336366 32.257790 43.839530 -18.684688 -11.921151 -41.300140 3.228333 -10.173403 20.902739 0.067567 -5.322216 -2.334182 -1.574073 -6.283402 -8.943660 15.496448 5.170049 -10.329065 10.233703 -6.185648 -32.130145 11.661929 -3.431436 -24.422499 12.388275 13.036151 32.148311 -18.347246
4.011092 38.822105 4.333433 -5.406875 -27.927726 -7.976942 4.849345 -31.023097 6.007321 2.033488 7.466139 1.080124 -17.592367 11.608595 14.171364 -17.226644 65.740008 34.551702 -1.890063 -33.941267 -0.853716 5.337405 -31.825123 -23.439172 13.666410 14.889602 -4.299395 -6.131515 44.540192 -2.050514 8.914380 -16.904716 3.018300 -18.829373 -16.823738 1.766394 0.842725 -2.083489 4.200712 1.511977 -13.362987 -5.644203 1.448399 13.926245 8.222766 329.500829 50.497379 -327.950336 26.420749 -67.631858 5.649584 -7.877831 26.223710 -13.317656 -0.299439 10.557348 -3.413670 -3.941027 16.881383 7.671738 32.250695 42.621976 -19.856528 -12.379124 -37.383300 2.117838 -10.246609 17.672857 1.134177 -5.257806 -2.179728 -1.480603 -5.661802 -9.523211 15.310906 4.909006 -10.410051 10.184140 -4.332323 -28.654071 13.034563 -2.855940 -21.828100 12.693867 12.679831 31.656340 -18.056481
4.089907 39.062172 4.599239 -5.665254 -27.763125 -8.667146 5.549828 -31.972665 6.684361 2.251840 7.320559 1.323304 -17.676550 11.085848 14.239030 -17.555848 65.663433 35.085538 -1.776647 -33.286394 -0.781246 5.335444 -32.160136 -23.767712 13.199430 16.524309 -5.052501 -6.233381 41.864036 -1.871599 8.049283 -16.364563 3.462617 -18.133180 -16.252698 1.581319 1.108703 -2.199983 4.069711 1.484159 -13.372513 -5.387646 1.477539 13.975722 8.093097 329.970339 50.515042 -328.208237 26.211330 -68.107029 4.488849 -9.050895 25.877705 -12.350143 -0.543432 11.437480 -2.888243 -3.726333 16.761798 7.838821 31.953207 41.135708 -20.890739 -12.786265 -33.469362 1.325513 -10.152655 14.925266 2.188990 -5.295148 -2.162601 -1.090404 -5.047200 -10.001245 14.907153 4.329357 -10.521559 9.942671 -2.838909 -25.753147 14.900308 -2.108488 -20.266820 13.335460 12.308701 31.525531 -17.277669
4.121189 39.277870 4.806493 -5.978607 -27.638637 -9.391713 6.117043 -33.160496 7.344519 2.477142 7.349439 1.574885 -17.834845 10.460846 14.296635 -17.450276 65.390867 35.652945 -1.765698 -32.629636 -0.669867 5.156386 -32.464157 -24.280160 12.848419 17.726292 -5.527284 -6.107905 39.282230 -1.996576 6.787091 -15.494708 3.904481 -17.239842 -15.569271 1.040966 1.377113 -2.295261 3.843586 1.461287 -13.528943 -5.069512 1.543162 14.138234 8.134871 330.285222 50.508804 -328.230083 25.965519 -68.470739 3.229417 -9.983927 25.016201 -11.627787 -0.804604 12.545588 -2.454588 -3.402823 16.934291 7.876303 31.101538 39.947413 -21.575258 -13.021567 -29.902243 0.211612 -9.915636 11.951325 3.196784 -5.224290 -2.363753 -0.956559 -4.488650 -10.922800 14.431689 3.402361 -11.089032 9.371169 -1.688155 -23.475537 17.116275 -1.564764 -19.071422 14.284405 12.064959 31.655454 -16.474379
4.094573 39.542702 4.978365 -6.171529 -27.358247 -10.108967 6.904650 -34.400667 7.414717 2.655974 7.109241 1.919927 -18.161568 10.249788 14.455890 -16.941061 64.948582 35.912414 -1.862894 -31.906410 -0.707807 4.810498 -32.615352 -24.720036 12.578672 18.610427 -5.712915 -5.877587 37.151757 -2.270492 5.416702 -14.712589 4.161934 -16.056659 -14.717555 0.647840 1.558241 -2.372129 3.559290 1.462971 -13.709764 -4.765055 1.736604 14.209477 8.310806 330.715370 50.796224 -328.738905 26.486266 -69.257516 3.060408 -11.015976 24.386534 -10.931952 -1.233453 13.690425 -1.888460 -3.033389 17.456831 7.984533 30.027995 38.654658 -22.008334 -13.222411 -26.358330 -1.033453 -9.409445 8.922535 4.334516 -5.156661 -2.512417 -0.582452 -3.518905 -12.313731 13.777510 2.200961 -11.737134 8.893910 -0.854473 -20.900635 18.388512 -0.805060 -18.381105 14.493242 12.120520 32.464370 -15.883903
4.101224 39.812241 5.208557 -6.137451 -26.812419 -10.636118 7.733742 -35.424063 7.942757 2.690500 6.661959 2.243106 -18.555781 10.264644 14.525107 -17.150983 64.238582 36.334962 -1.424947 -31.608637 -0.693865 4.775127 -32.503488 -24.685175 12.285456 19.205390 -5.924316 -5.796124 35.300174 -2.051812 4.122773 -14.204146 4.104061 -14.865595 -13.782988 0.479810 1.734748 -2.422887 3.350668 1.349839 -13.867583 -4.429907 1.722977 14.390106 8.407639 331.237332 50.928781 -329.285584 27.892926 -70.135459 3.318684 -12.129557 23.896455 -10.041231 -1.585651 14.621115 -1.307180 -2.651570 18.356932 7.975588 29.222577 37.550794 -22.595835 -13.348970 -23.965534 -2.096361 -9.058823 6.307888 5.475151 -4.874132 -2.506038 -0.219399 -2.406465 -13.793848 12.649294 0.771442 -13.231006 8.233244 0.501207 -20.084495 19.136218 0.358744 -18.218567 14.295212 12.482520 33.915551 -15.602145
4.049418 40.070992 5.373657 -6.109822 -26.277747 -11.207550 8.793353 -35.718440 8.749716 2.744070 6.219643 2.658049 -18.988954 10.077022 14.567969 -16.983988 63.792738 36.416017 -1.015054 -31.276142 -0.509813 4.713772 -32.652630 -24.630358 12.028314 19.761458 -6.141235 -5.662809 33.842598 -2.021241 3.003903 -13.722998 4.068692 -13.835170 -13.399790 0.300955 1.815393 -2.402962 3.082903 1.447857 -14.033165 -4.101630 1.841243 14.199920 8.562558 331.227065 51.073213 -328.990257 27.463092 -70.627672 2.170072 -12.831568 23.128367 -9.581311 -1.833558 15.561385 -0.675667 -2.408114 19.520510 8.110888 28.455700 36.328019 -22.916058 -13.498007 -22.450968 -3.082895 -8.535508 4.389997 6.386265 -4.649981 -2.391482 -0.102939 -0.891366 -15.501669 11.213340 -0.560661 -14.677464 7.772242 2.010846 -19.981115 18.005236 2.097482 -17.738682 13.303889 12.604913 35.230418 -15.212768
3.970155 40.382839 5.472324 -5.953403 -25.624892 -11.678403 9.792329 -35.718193 9.679930 2.826832 5.636217 3.064817 -19.341274 9.862085 14.510158 -17.070053 63.575019 36.647970 -0.723947 -30.863282 -0.364498 4.541047 -33.050355 -24.559411 11.771796 20.143537 -6.159707 -5.718209 32.866176 -1.965692 1.986616 -13.636851 4.090181 -12.513229 -12.864827 -0.100523 1.807872 -2.266610 2.975792 1.306304 -13.978987 -3.681497 1.823690 14.101997 8.697563 332.215413 50.424352 -330.155521 27.927141 -70.456507 1.918865 -13.286930 22.965624 -9.174292 -2.139992 16.224355 -0.186836 -1.979647 20.751246 8.199687 27.793104 34.974272 -23.187432 -13.476007 -21.558255 -3.804102 -8.197609 3.004920 7.171234 -4.437289 -2.483040 -0.158825 0.348757 -17.314013 9.990209 -2.143187 -15.555676 7.746736 2.775385 -19.648359 16.589421 3.288792 -17.152888 12.020547 13.178199 36.142616 -15.119606
3.894849 40.702446 5.565083 -5.561055 -24.754702 -12.087183 11.390639 -36.587555 11.523212 2.757215 4.955615 3.559203 -19.622070 9.679123 14.454728 -16.556536 63.065802 36.666756 -0.702938 -29.944827 -0.365406 4.331454 -33.765553 -24.685749 11.702232 20.179579 -6.094755 -5.946858 32.661807 -1.976666 1.011033 -13.809491 3.988159 -11.123469 -12.820225 -0.565970 1.709839 -2.119051 3.035604 1.222838 -13.712749 -3.214584 1.849083 13.702155 8.748075 333.546456 49.425663 -331.676216 28.035146 -70.471566 1.217694 -13.863333 22.693901 -8.624032 -2.444619 17.304045 0.059105 -1.534233 21.888696 8.409726 27.532703 33.292048 -23.682577 -13.388236 -21.526306 -4.083143 -8.129447 2.320490 7.627718 -4.516308 -2.481668 0.027726 0.955757 -19.039797 9.034628 -3.580087 -16.835346 8.141921 3.008483 -17.994968 13.996326 4.164706 -16.342546 10.682238 13.821682 37.019394 -15.373253
3.745262 41.083618 5.629503 -5.065715 -23.464417 -12.302511 13.414733 -37.312016 13.807262 2.536962 4.202311 4.012949 -19.702959 9.043442 14.129202 -15.936454 62.013373 36.560858 -0.446769 -28.494556 -0.488484 4.224515 -34.338000 -24.654411 12.042577 19.810509 -6.147868 -6.474824 32.979790 -2.031433 0.670302 -14.410047 3.904316 -10.564544 -12.701186 -0.822383 1.510305 -2.075852 3.188955 1.167396 -13.482945 -2.437160 1.848351 13.299372 8.449836 335.506256 47.637707 -333.530848 26.102131 -69.547141 -1.274906 -13.961862 22.565431 -8.168947 -2.558313 17.924179 0.403077 -0.825800 22.822341 8.379935 27.408497 31.749074 -24.139847 -13.031606 -22.115472 -4.131541 -8.172514 1.975569 7.788324 -4.393834 -2.419878 -0.095199 1.151537 -20.370813 8.341457 -5.340384 -17.588709 8.650731 2.996147 -17.109040 12.246392 4.319088 -14.065216 9.075588 15.284588 37.909689 -16.029920
3.570688 41.523777 5.629946 -4.368350 -22.130349 -12.403847 15.962943 -38.725739 16.291326 2.090600 3.550698 4.368380 -19.824592 8.448978 13.729762 -14.962504 60.594714 35.419981 -0.056762 -26.779093 -0.077166 4.267434 -35.051305 -24.411216 12.841874 18.833069 -6.194601 -7.438938 34.188256 -1.886655 0.660780 -15.267886 3.518879 -10.132242 -13.077197 -0.713724 1.216486 -1.873065 3.439360 1.119593 -13.269025 -1.417044 2.263194 13.022396 7.982492 337.740754 44.758780 -335.964768 23.724601 -68.085432 -4.504886 -14.192115 22.681981 -7.617153 -2.886519 18.435380 1.047869 -0.129559 24.051362 8.675232 27.291531 29.189085 -24.606504 -12.540731 -22.697211 -4.210549 -8.196054 1.719452 8.027845 -4.377637 -2.633466 -0.145441 1.270061 -21.665780 8.183747 -7.659087 -18.056650 9.214022 2.940290 -16.687536 10.423832 3.902872 -10.673835 7.555121 18.092521 40.169524 -17.387962
3.420537 41.972286 5.581562 -3.529938 -20.573199 -12.511754 19.066109 -40.073169 19.035754 1.458904 3.114040 4.796746 -19.842339 7.790715 13.479674 -13.062613 58.229264 33.512582 0.423016 -24.251582 -0.092749 4.231302 -35.792240 -24.103236 14.035587 16.773587 -6.453096 -9.140248 36.423912 -1.531314 1.096529 -16.662521 3.167532 -10.096866 -13.285462 -0.495376 0.807344 -1.681364 3.788042 0.854451 -12.403830 -0.015272 3.093313 12.304927 7.163911 339.969416 39.916851 -338.643400 19.629332 -65.173375 -9.376729 -13.818476 22.888941 -7.458879 -2.941198 18.728421 1.667798 1.190300 24.447727 8.546941 26.822081 26.846575 -24.454062 -11.748956 -24.520213 -3.666992 -8.233468 2.048286 7.677430 -4.210784 -2.737711 -0.399908 0.659645 -22.539710 8.664010 -10.227254 -17.444916 8.960177 2.389500 -15.259100 8.243450 2.473363 -5.919905 6.490139 21.404595 42.449693 -18.639476
3.302505 42.705597 5.620764 -2.154976 -18.511584 -12.288743 20.655471 -40.058932 21.173317 0.249257 2.892238 4.937165 -19.647154 6.707579 13.497506 -9.791419 54.403710 29.629288 1.295656 -20.715898 0.378901 4.258534 -36.209497 -23.584314 15.464622 13.053717 -6.561364 -11.406720 39.551871 -0.465304 1.430229 -17.895367 2.668511 -10.092421 -13.674757 -0.527437 0.347868 -1.774613 4.423426 0.587107 -11.491625 2.083008 4.119447 13.288794 6.527482 342.819055 31.415817 -342.617001 15.680868 -59.613316 -14.290134 -13.159480 22.749245 -7.814026 -2.744749 18.682891 2.316115 2.746010 24.842838 8.250808 26.042161 23.919596 -24.152567 -10.584965 -27.302314 -2.307224 -8.371771 3.543675 6.368611 -4.226191 -2.921012 -0.626031 -0.852526 -23.601265 10.475635 -13.674829 -15.998844 7.891363 2.316657 -13.751195 5.709162 1.857740 -3.071406 4.114094 26.746915 46.183476 -21.051608
2.848545 43.916176 5.387375 -0.980830 -16.167400 -11.903245 17.548593 -37.810715 21.219121 -0.719557 3.507397 5.335959 -18.741360 4.553322 13.246671 -4.901135 47.854901 23.239740 1.939177 -13.094653 0.971806 4.607149 -37.579199 -22.771180 16.704622 5.519392 -6.805216 -14.483513 45.690974 1.402473 2.509727 -19.847450 1.917537 -10.631815 -14.456531 0.262365 -0.570930 -1.357113 4.942278 -0.730393 -10.432372 3.196264 6.563778 14.475641 7.995989 343.948435 20.957555 -347.003437 10.995242 -52.479644 -19.572711 -11.393635 22.005449 -9.072139 -2.054094 19.173814 2.993915 4.899881 24.453831 7.920212 25.605128 19.535010 -22.816609 -9.826181 -30.932341 -0.496863 -8.524450 5.842325 5.227713 -4.275790 -3.530225 -0.990554 -2.496288 -27.414093 11.714328 -14.959429 -9.780773 9.331550 6.028258 -5.097920 2.213105 4.125434 -7.284626 -3.085788 27.397274 49.502223 -19.903920
2.021077 48.129890 5.324538 0.315040 -9.213893 -7.282497 6.935700 -30.109787 15.013680 -1.016013 3.217112 4.426535 -15.386623 4.068027 7.533192 -3.829592 34.962925 17.657847 2.744880 -4.383511 0.311068 5.555997 -35.234503 -20.202144 16.554525 -3.296611 -6.303762 -12.523487 47.360682 2.104630 3.639063 -19.456510 -0.722561 -13.308212 -13.265243 0.075135 -3.002679 0.497448 5.086034 -7.164332 -3.864625 5.359527 6.210399 6.811016 3.297724 348.314161 5.433441 -351.076694 15.704522 -37.583962 -18.223237 -8.727857 19.444680 -9.272212 -1.062088 16.295835 3.500452 10.931494 18.410637 3.337717 23.874286 17.485033 -15.568138 -10.154655 -38.344655 -0.938754 -7.025615 8.512397 1.684145 -4.498613 -4.285674 -1.848881 -8.053777 -13.727281 9.042927 -1.067267 -4.944078 -2.186733 12.499803 6.285774 7.953739 7.755284 -3.365872 6.944728 28.980573 48.677144 -23.195853
1.531950 51.120850 5.483858 0.451827 -2.614518 -2.954480 -0.080560 -24.506416 9.294349 -0.976738 1.507006 2.742987 -13.801076 3.928030 3.689181 -2.472832 22.684198 13.245008 3.015879 4.269383 0.495184 6.369632 -33.540758 -18.053310 16.102090 -9.853569 -6.684346 -12.417341 48.129976 3.356594 4.771202 -19.367680 -2.030364 -14.007164 -12.695964 0.465121 -4.894137 0.758007 5.912894 -9.391169 1.023949 6.307340 3.194924 1.257534 1.192097 348.703739 -5.966775 -355.393528 21.315928 -25.272867 -19.639319 -6.185339 18.074490 -9.694939 -0.498323 13.567234 4.317861 12.492026 13.198297 0.322261 23.046387 16.661957 -11.209125 -13.044740 -44.756374 -2.392075 -4.271036 12.306691 -1.483131 -4.416862 -4.592335 -2.502692 -9.009125 -6.804826 4.748934 5.327279 -11.776623 -3.721794 9.090368 3.475463 6.330894 3.342795 1.100563 11.009997 24.853460 44.374007 -20.033835
1.103509 52.894672 5.392100 0.009428 1.650490 0.296192 -2.593008 -20.366299 6.287972 -0.627145 0.109541 1.409485 -13.096568 3.961187 1.483523 -1.560967 14.888014 10.032596 2.467181 10.444422 1.358543 7.121045 -33.485776 -16.775275 15.953672 -13.867475 -7.353675 -13.661987 48.646142 5.150846 6.208032 -19.844611 -2.725523 -14.146767 -12.777217 1.246087 -5.596287 0.838734 6.217204 -9.138586 4.166786 7.388270 0.085144 -4.024016 -0.289834 346.638026 -11.375243 -359.820264 25.450387 -17.459185 -21.465889 -3.860229 18.394415 -10.574864 -0.829612 11.502379 4.981376 11.149534 9.723045 -2.121975 23.148004 16.365716 -9.561741 -16.193212 -50.249691 -3.266210 -1.611426 15.802906 -3.867127 -4.526370 -5.195979 -3.150194 -10.209107 -2.032900 1.064407 9.201269 -16.472148 -3.070688 7.975769 0.854959 2.919838 -0.151071 2.857989 12.271995 21.732715 43.031307 -16.757580
0.744088 53.978928 5.223674 -0.342991 4.420682 2.792871 -2.312670 -15.405311 4.534017 -0.294453 -0.635022 0.609510 -12.757063 3.985106 0.014558 -1.410325 10.274689 7.844763 2.039506 13.632168 2.019747 7.681855 -33.141205 -16.101031 16.492384 -16.481697 -8.080982 -15.974958 48.729336 7.271935 7.732438 -20.589718 -3.256430 -14.509822 -13.066316 1.806399 -5.541531 0.712017 6.389003 -8.323825 7.695156 8.490712 -2.665018 -9.382658 -1.750281 346.970143 -10.808649 -363.407010 23.020084 -19.686363 -20.844246 -1.874298 22.941800 -11.153447 -0.483807 10.706863 4.796864 8.175492 6.281942 -4.234889 24.155072 16.135553 -9.544156 -19.317039 -55.184247 -4.392391 0.913177 18.592409 -5.448239 -4.686904 -5.429215 -3.400395 -10.870946 -0.858422 -1.757425 10.532120 -16.375423 -2.715699 6.915198 -2.582140 1.088139 -1.331929 1.513192 11.446084 19.163521 40.444767 -13.648895
0.471878 54.484985 5.032815 -0.756397 5.565668 4.332165 -1.292572 -10.372112 2.241781 0.096648 -0.580718 0.545885 -12.623376 3.946415 -0.978338 -1.501211 8.137825 6.458881 1.706085 14.826093 2.355144 8.068685 -32.760896 -15.801120 17.693537 -18.365833 -8.698589 -19.071645 49.298302 9.447793 9.001307 -21.784797 -3.767410 -15.099987 -13.274091 2.181761 -5.054391 1.006653 6.473705 -7.623188 11.517333 9.020022 -4.309153 -13.487085 -3.057151 347.369984 -10.076661 -365.991889 17.135923 -27.326765 -20.521541 0.780969 31.125489 -12.261010 -0.392181 10.529541 4.740910 5.403304 3.181812 -5.791611 24.603023 15.966831 -9.426098 -22.476657 -59.627480 -6.184210 3.101465 20.802572 -7.042450 -4.727915 -5.812130 -3.473961 -11.360900 -0.786150 -3.578027 10.246897 -15.031837 -2.424598 6.009453 -7.565705 -0.410361 -1.350623 -2.661955 9.454611 17.689645 36.387567 -11.116506
0.355052 54.501595 4.688331 -0.808650 5.380104 5.434686 -1.194829 -6.575380 -1.823999 0.193355 0.464502 0.919270 -12.442721 4.199614 -1.533939 -1.688460 7.392766 5.331969 1.551668 15.070770 2.318739 8.341954 -33.051841 -15.718183 19.524660 -20.273411 -8.948215 -22.980652 50.422231 11.984913 10.583285 -23.511830 -4.208441 -15.928009 -13.413007 2.420703 -4.376928 1.664626 6.249724 -6.807525 15.096360 9.337233 -5.283514 -16.507593 -3.695148 346.270347 -10.462691 -368.136504 12.349459 -33.854645 -21.246885 3.381052 37.525906 -14.092810 -0.277471 10.491653 4.606003 2.497352 0.425322 -6.981646 24.938607 15.891385 -9.392832 -27.806726 -64.505844 -9.950235 5.902160 23.432474 -9.048682 -4.902647 -5.786038 -3.927343 -11.292087 -0.374037 -4.573566 8.139519 -14.645783 -2.846137 6.027081 -11.146433 -2.095279 -1.957472 -8.065238 8.438986 17.495124 32.138795 -9.570377
0.262231 54.087307 4.268216 -0.559777 4.789989 7.093953 -0.988073 -3.053863 -6.486202 -0.059494 1.640002 1.122821 -12.307084 4.510223 -2.014625 -1.799338 7.224204 4.638459 1.826610 14.393468 1.662065 8.474243 -32.752581 -15.882584 22.233054 -22.828011 -9.211971 -28.296096 52.685144 14.988730 11.839443 -25.439859 -4.785961 -16.697759 -13.887066 2.790273 -3.945527 2.210108 5.637415 -5.064558 18.094097 9.188150 -6.785628 -18.978021 -3.056041 345.086761 -9.621143 -370.351832 8.688386 -39.119184 -21.897180 5.135242 40.980318 -16.464091 -0.254785 11.024384 4.456188 -0.738760 -1.339616 -7.450052 25.483603 13.405685 -8.803749 -34.782328 -67.031585 -15.301489 8.735688 26.898025 -11.063364 -4.929640 -5.708587 -4.258138 -10.522621 0.729704 -4.646339 5.194296 -14.440440 -3.955125 6.416369 -13.324028 -3.091149 -2.750723 -11.822168 8.181673 17.111576 27.829078 -8.024190
-0.038777 53.344559 3.692280 -0.361464 4.536315 9.515672 -1.175647 -0.508402 -9.953717 -0.611149 2.483543 0.860804 -12.445823 3.522452 -3.359115 -1.657353 8.909682 5.381731 2.479154 13.189820 0.498400 8.461419 -32.520905 -16.123240 25.820883 -26.247117 -9.301482 -34.606652 55.567407 18.840471 13.389123 -27.665694 -5.408911 -18.267662 -14.412512 3.330643 -3.707189 2.404678 4.744163 -2.404913 19.799860 8.286728 -8.292429 -21.157658 -0.190852 344.251669 -6.781606 -373.278086 5.821449 -43.073482 -22.221654 6.100796 42.120110 -19.085189 -0.068367 12.115711 4.462248 -4.330223 -1.808115 -7.003882 26.659616 9.172670 -8.768181 -39.663010 -67.935382 -19.067511 11.097073 30.757825 -12.596388 -5.145591 -6.200017 -3.875300 -9.542755 1.832372 -4.987778 3.704841 -13.907177 -4.666230 6.004165 -11.557435 -2.691195 -3.650679 -12.370907 8.718090 15.495513 24.171120 -6.803025
-0.520427 52.678654 2.964917 -0.631574 4.765330 12.333971 -1.151724 2.581653 -10.878155 -1.077958 3.690904 0.752528 -13.372286 -0.773811 -7.267210 -0.370835 13.965310 8.084574 2.744917 11.003345 -0.474033 7.984808 -32.192208 -16.677154 29.487427 -30.917850 -9.405552 -40.122358 57.425896 22.782761 15.041698 -28.045588 -6.612107 -20.700017 -15.880912 3.868330 -3.711771 2.090286 3.801972 -0.633560 21.135753 7.885723 -9.761478 -23.496194 2.725244 344.647933 -3.094163 -377.011652 3.026870 -45.494151 -22.735419 7.728056 42.340479 -21.549223 0.547070 13.751857 4.242447 -7.427269 -3.052062 -6.468163 28.823864 3.784926 -10.052143 -43.168702 -68.606593 -22.290612 13.232956 36.474302 -13.190105 -5.207731 -7.255560 -3.485794 -8.261232 2.544454 -6.181618 5.028345 -14.334080 -4.808032 4.233793 -9.163234 -0.552257 -4.509628 -12.832606 9.516127 12.781676 21.368350 -4.988211
-1.280455 52.111423 1.851927 -1.263933 4.787125 16.360746 -0.467204 6.039193 -8.153845 -1.172215 5.771690 0.289552 -16.793601 -9.134099 -15.632160 1.580810 24.223110 13.377968 2.378186 8.146807 -1.193293 7.115416 -32.169484 -17.486171 32.432031 -38.298363 -10.710969 -46.132988 58.730680 27.491885 16.430159 -27.135312 -7.667453 -23.018963 -17.120350 4.690254 -4.413020 1.710803 3.466590 -0.742391 21.917299 9.099329 -10.579598 -26.581444 3.930881 345.713331 1.118417 -380.754140 0.409488 -46.974978 -24.544429 7.738611 40.312394 -22.056864 1.124061 16.882350 3.619365 -8.782129 -5.681510 -7.202161 30.901750 -2.856376 -14.223148 -44.052238 -70.379996 -24.174405 15.572353 45.471637 -12.880981 -5.641604 -9.283565 -3.009443 -6.259593 4.376976 -6.956459 9.244871 -12.407500 -4.115115 1.106538 -4.763714 6.038504 -8.408114 -14.485197 10.609740 9.767257 15.663099 -2.113741
-1.960147 51.676292 0.213157 -1.640793 4.388514 20.945641 0.975344 9.566487 -4.037656 -1.186813 7.221103 -0.108426 -23.792875 -17.921158 -28.607159 1.280010 38.977342 21.282340 1.099050 5.441821 -0.660191 6.037241 -33.118957 -18.658105 32.887412 -46.317430 -16.683912 -52.930019 57.161020 33.599354 17.647000 -24.484860 -7.900266 -24.968425 -17.823257 4.685295 -5.793646 1.782562 3.933360 -1.569007 22.455451 11.600101 -11.214979 -30.693230 3.428178 347.056439 7.036220 -383.991092 -4.006794 -50.389627 -26.161861 6.189353 36.080469 -21.974539 2.493905 24.968092 2.052912 -10.079281 -9.037536 -10.119674 31.307266 -11.235992 -22.646586 -34.102328 -72.603554 -17.001587 16.667886 58.616389 -10.985917 -6.045648 -13.792416 -1.752179 -6.167176 8.616678 -1.710774 13.009328 -5.673571 -3.043491 1.421512 4.489898 19.871469 -19.492419 -16.702414 5.816842 10.874991 6.243035 0.983994
-2.633381 51.690968 -0.753009 -1.743255 4.769536 24.659342 2.126823 11.544707 1.279804 -1.962894 7.134896 -0.299266 -31.291016 -22.239707 -42.437701 -2.837982 50.046068 30.316391 -0.353109 4.524201 0.712829 5.468948 -34.186135 -19.025018 31.805286 -50.203125 -26.050580 -55.360218 53.021619 35.444905 18.552997 -21.347827 -7.059385 -27.015601 -19.887191 4.788602 -8.848079 1.760324 4.697337 -1.465486 21.869250 14.954893 -10.183061 -33.755993 3.419254 351.924682 15.406441 -388.175603 -20.647201 -57.912948 -36.595581 9.066730 39.147795 -22.691711 5.738188 27.895485 0.270402 -12.169580 -10.775638 -12.931278 29.224392 -18.748739 -34.505814 -14.045255 -74.066807 -2.897355 12.057728 72.269083 -3.985609 -6.970331 -19.893215 0.389414 -10.718989 15.195853 10.999417 15.782068 -2.567935 3.904669 -13.990210 35.676808 68.880514 -31.877222 -22.152092 -1.905042 17.719095 -6.886554 0.578528
-3.039396 52.130863 -0.373343 -2.240074 6.351116 26.561464 1.555300 11.064227 5.095122 -2.592908 5.619246 -0.693193 -34.958994 -23.035263 -49.451607 -5.948416 55.094700 35.368880 -1.682032 4.145135 2.199143 4.802798 -34.944830 -19.563106 31.410529 -48.658133 -32.433420 -51.693851 47.146932 29.943512 19.193862 -17.008882 -5.428828 -27.527830 -23.569893 5.070190 -10.723495 2.164810 5.650661 0.387889 21.343392 16.503667 -12.221750 -35.145682 3.362479 356.284655 17.679976 -391.797591 -30.891493 -58.834641 -40.912346 12.384663 39.806693 -23.980432 7.003743 29.564532 -1.692458 -13.977505 -11.660532 -12.694448 24.808640 -22.894263 -42.998201 -4.349384 -73.839546 2.196473 -0.782411 79.570779 10.102372 -7.276368 -24.642753 1.723329 -12.365241 14.765898 17.417913 16.969744 -8.255374 8.299624 -24.686678 48.073085 75.849053 -38.990585 -34.361888 -2.549007 22.062010 -15.847640 -1.671058
-3.437440 52.743019 1.323944 -2.467020 7.716739 26.413832 0.145348 8.684844 5.050090 -2.983924 4.524701 -1.721455 -34.668425 -23.952885 -51.002320 -8.614407 56.678313 37.753646 -2.837866 3.855958 3.324598 4.426559 -35.853907 -19.667016 32.506129 -41.831264 -36.731053 -42.111891 38.371497 19.354456 17.425238 -11.863440 -2.850436 -27.463595 -25.771580 6.811478 -11.401056 2.151352 5.857134 1.254745 21.543576 16.542719 -14.033391 -34.955402 2.590151 359.220474 16.700582 -390.688703 -33.755679 -57.522520 -38.508062 15.203360 37.506276 -24.488593 8.033021 30.958287 -3.388987 -15.448315 -12.476537 -11.280361 25.011291 -20.333863 -42.332820 -5.111718 -77.660638 -1.503338 -4.079628 82.283382 13.827734 -7.603694 -30.847775 3.420068 -11.681833 16.370705 20.900379 16.516653 -14.831658 5.056141 -12.569043 53.625984 66.753228 -36.634187 -33.575270 4.652101 19.624655 -16.472962 -5.635349
-3.800684 53.031265 3.008308 -2.391501 8.558527 25.228475 0.209003 5.318295 2.012182 -3.295186 3.936140 -1.770686 -32.404376 -24.311872 -49.872095 -10.012696 56.508862 37.778627 -3.383377 2.796723 3.997836 3.777019 -36.107174 -19.750698 32.089681 -34.775649 -40.529206 -31.877360 32.442655 9.940594 12.996039 -8.238386 0.389294 -26.617277 -27.639197 8.785585 -10.935760 1.776477 5.510346 0.860738 21.934511 16.663959 -13.886497 -34.352038 2.294073 359.810411 16.419906 -387.958956 -32.332813 -54.736594 -34.268255 15.106088 31.962827 -22.586186 9.038669 33.103202 -5.282637 -16.265903 -12.758397 -9.893562 25.465223 -17.616148 -40.607434 -8.517571 -81.409858 -6.562113 -2.575186 83.802992 12.212742 -8.254158 -33.216170 3.851481 -12.254152 18.355507 21.605649 17.199544 -17.560225 3.409628 -2.991933 56.415974 63.904629 -35.762941 -27.904596 6.608820 18.118748 -14.295097 -6.563811
-4.125961 53.237507 4.521846 -2.139598 9.218353 23.974123 0.542309 1.949223 -0.616292 -3.642020 3.072522 -1.626700 -28.930654 -23.557672 -47.063736 -10.882274 55.588317 36.731208 -3.770666 1.137887 4.192621 3.546393 -36.258673 -19.815572 30.075066 -28.881395 -42.646873 -23.858521 29.323494 5.397256 9.553105 -6.568280 1.729353 -25.609141 -28.694937 9.685148 -9.815889 1.834515 4.876362 -0.238223 22.324281 17.230963 -13.152328 -33.595380 1.045869 358.536063 16.331476 -383.957959 -30.626977 -51.626688 -31.156188 15.443404 26.984507 -21.431926 9.689992 35.259402 -6.343614 -16.939617 -12.705306 -10.120119 26.168723 -14.853800 -37.936056 -12.874548 -83.382134 -10.426365 13.796312 82.958656 -3.996678 -7.883400 -36.717752 5.486370 -13.488875 20.985029 20.805924 18.664167 -18.954641 1.766974 2.261845 57.102633 64.185964 -38.904739 -21.364089 6.586527 16.694385 -10.325932 -6.290542
-4.297471 53.485401 6.055018 -1.754000 9.859335 22.243515 1.266062 -1.353470 -2.591678 -3.940564 2.040495 -1.152963 -24.446525 -21.833773 -42.771498 -10.774953 53.510343 33.961232 -3.811210 -0.502478 3.981461 3.078824 -36.126154 -19.561538 26.347290 -23.754876 -42.483986 -16.751638 28.355102 2.240031 7.470506 -5.305536 2.309676 -24.300647 -29.388816 9.999350 -8.306568 1.891137 3.966157 -1.145485 21.968469 17.082384 -12.241413 -32.150449 1.303776 357.093108 16.465006 -380.793274 -28.372744 -48.866739 -28.171205 15.570593 23.147704 -19.743736 10.418831 37.446911 -7.001572 -17.099731 -12.160942 -10.668100 26.899519 -10.103364 -34.132831 -5.303469 -84.816765 -0.525482 25.505692 78.453610 -17.054729 -7.570956 -38.731209 5.544000 -14.395805 23.422125 18.427378 19.888863 -19.765716 0.913228 11.909165 57.552336 60.846821 -39.977920 -16.841299 9.757677 14.667809 -6.754206 -5.793175
-4.316183 53.746502 7.780166 -1.135823 10.311244 20.436710 2.054790 -4.083047 -3.028835 -4.520490 1.455061 -0.431676 -19.685222 -19.008619 -38.394296 -10.104404 50.068198 30.441769 -3.623892 -1.536279 4.413416 2.873379 -36.017984 -19.406250 20.890145 -18.826624 -41.643713 -10.140206 28.300360 0.430121 6.464712 -3.831293 3.048853 -22.956822 -30.248469 9.066532 -6.609461 1.828372 3.046229 -0.960519 20.747999 15.687956 -11.271527 -29.730453 2.435431 354.962885 16.756162 -378.426341 -25.729352 -47.538401 -25.579324 15.385876 20.658675 -17.748363 10.413524 38.652773 -6.698478 -15.352019 -11.252657 -10.269177 27.808325 -2.372729 -31.167345 23.927982 -86.382060 29.971863 16.742008 72.427118 -9.963258 -7.868331 -39.914224 4.180264 -13.809340 25.024449 15.190566 20.591129 -21.042284 -2.700075 35.001124 57.952951 43.985931 -40.128434 -13.964069 10.669076 12.106034 -3.384831 -5.236041
-4.102846 53.980061 9.881822 -0.590146 10.378063 17.929746 2.801061 -7.803633 -2.730748 -5.191634 1.216222 0.470797 -14.955122 -14.998049 -33.478139 -9.416410 45.478630 26.751552 -3.099798 -2.515036 4.760351 3.588859 -35.543857 -18.828768 14.114142 -13.234423 -39.041310 -6.838166 30.362690 1.829674 7.547149 -7.269027 3.305837 -17.620831 -26.868111 7.279756 -5.078116 1.116682 2.773700 0.624798 18.092119 12.887439 -10.227207 -25.230265 4.273052 352.687476 18.255853 -376.198243 -23.394317 -48.502338 -23.839263 14.611694 18.955087 -16.494661 9.815092 38.691155 -6.229317 -12.105533 -8.543834 -7.765303 29.345504 6.958855 -30.619271 34.973875 -84.096104 43.034111 8.511984 62.883093 -3.013513 -8.881757 -37.642268 1.889937 -11.031606 26.233411 11.176138 19.535087 -23.309878 -12.224822 54.069810 4.641085 -31.010016 -39.153258 -12.172467 0.354195 8.200492 -0.510938 -2.508011
-3.664813 53.998463 12.184969 -0.073915 10.137056 14.702303 3.452564 -11.649044 -1.819622 -5.743623 1.008271 1.291536 -10.822874 -10.559545 -28.145864 -8.637175 40.565733 23.409222 -3.239834 -2.522578 5.247334 4.667624 -36.425909 -17.616662 10.048919 -8.212388 -33.545816 -4.566392 31.206569 2.452615 9.265880 -8.760154 2.514298 -14.119937 -25.042310 5.423856 -3.654889 -0.459380 2.875483 2.318386 14.421910 9.371910 -8.978967 -19.701613 5.981058 350.306110 21.247043 -372.581640 -19.727139 -49.598917 -21.426936 12.581660 17.041843 -15.479965 8.629388 36.650408 -5.076501 -7.250855 -3.728764 -4.859103 30.348343 14.647566 -32.062081 16.868036 -76.487375 26.624186 1.346786 50.428993 3.814982 -8.388388 -33.264625 0.557540 -7.865737 28.533293 7.801016 17.702996 -24.249433 -20.453685 29.038581 5.904888 -43.053197 -35.150349 -14.577411 -14.027012 4.100732 -2.822557 1.068382
-3.068051 53.728233 14.121541 0.248799 9.220440 11.470942 3.555969 -14.512095 -1.163564 -5.845534 0.496178 1.875714 -8.239980 -6.586423 -23.478108 -7.372845 36.370126 20.977843 -3.155841 -2.183175 5.472959 4.619692 -34.843370 -17.952143 8.618206 -3.782487 -26.592380 -3.174799 31.804484 2.377426 9.412031 -10.589021 1.342471 -12.089929 -24.143326 3.529820 -2.161947 -3.097310 3.587016 3.489885 11.145891 4.965578 -7.250353 -13.296975 7.507894 346.498457 22.651141 -366.515673 -14.441476 -47.547494 -17.939337 10.157244 14.303401 -15.598384 7.517448 32.859424 -3.281919 -3.089392 2.939571 -2.967502 32.163671 19.404203 -33.089640 -0.363784 -64.393240 11.284303 -4.412202 34.712035 9.714219 -5.908886 -28.096626 0.230218 -6.301200 32.304788 7.042370 16.487096 -24.800933 -23.589007 17.879747 5.534916 -38.876611 -31.373250 -20.033656 -26.625851 0.695210 -6.874598 3.507742
-2.426094 53.157410 15.460344 0.469893 7.797444 8.352034 3.197639 -15.582649 -0.422225 -5.457403 -0.161002 2.289781 -7.057501 -2.956094 -19.668708 -6.530093 33.817090 19.712097 -3.557827 -1.984529 5.464583 4.096293 -34.812805 -17.847892 7.898279 -0.351765 -19.735811 -2.748671 33.404359 1.894529 8.839607 -13.210706 0.515261 -10.537471 -23.272052 1.674288 -0.656911 -7.145572 4.375330 3.398671 8.411277 0.039957 -5.713108 -6.374483 9.118305 342.565035 21.690381 -358.367576 -7.397982 -41.128899 -13.207070 7.179444 8.858675 -16.487028 6.887703 28.628394 -2.088643 -1.168403 10.801200 -1.534787 35.660929 22.312246 -32.881254 -13.031358 -51.259944 0.738144 -6.198218 19.036912 12.694123 -3.362799 -23.259813 0.503495 -6.118112 35.829807 8.225211 13.678276 -23.641845 -23.898997 13.722567 5.163995 -36.066674 -28.190050 -23.199667 -31.933504 -1.816330 -8.380965 4.958020
-1.853599 52.431545 16.290841 0.791080 6.469004 5.922191 2.232929 -14.612569 -0.128094 -4.862227 -0.674765 2.210146 -7.575903 0.186103 -16.706179 -5.222520 31.916345 19.093366 -3.689595 -1.963689 5.389815 3.740398 -34.580709 -17.203355 6.852023 1.738112 -14.049967 -2.305181 35.835264 1.295246 8.578696 -16.090919 -0.060582 -9.709399 -22.939822 0.641630 0.469054 -11.316410 5.369747 2.139639 6.645934 -3.147997 -5.278878 -1.164128 8.923705 340.451130 20.007499 -350.534792 -1.174578 -34.433797 -9.598104 4.545759 3.443364 -18.010047 6.312578 23.884609 -1.611902 -1.122027 16.758683 -0.433846 39.241220 24.187775 -33.270819 -19.145808 -42.630909 -4.175891 -6.243119 8.948544 13.661269 -2.247861 -19.212687 0.692831 -6.108580 35.407301 8.128065 11.648664 -19.587084 -21.269142 14.039453 4.462310 -34.812669 -28.430105 -24.011375 -34.195516 -3.755088 -8.933451 5.422655
-1.414245 51.800388 16.590437 1.211637 5.393977 3.941113 0.687874 -13.050913 -0.243933 -4.241961 -0.516382 1.986216 -9.024192 1.507285 -14.216709 -4.016333 31.543127 18.816067 -3.622184 -2.898585 5.132332 3.532334 -33.822562 -16.633999 5.225186 2.367844 -10.244323 -1.514745 38.035251 0.684097 8.291776 -18.548774 0.007688 -9.260869 -22.616581 -0.093746 1.151589 -13.598322 6.077750 0.696381 6.289280 -3.934007 -5.824301 0.858907 7.153520 339.726964 17.006206 -344.398985 4.168851 -30.135417 -7.639525 2.569359 -0.205098 -20.058933 6.872897 18.831061 -3.125710 -1.448015 18.708346 -0.245382 41.584523 25.390647 -32.316842 -22.565337 -37.689599 -7.374510 -6.949641 3.471172 13.453098 -1.861168 -16.301000 0.950033 -6.519715 31.703908 7.743484 10.152679 -15.999645 -18.020943 14.618217 3.906943 -32.169736 -28.973013 -22.386994 -32.206814 -4.747487 -9.332485 5.372630
-1.212886 51.248642 16.493731 1.527549 4.399443 2.410375 -2.093443 -12.343141 -1.195254 -3.617234 0.176704 1.621775 -10.551276 1.358299 -11.788471 -3.143993 32.634250 18.728995 -3.487075 -4.626405 4.486642 3.402215 -32.652782 -16.242144 3.638071 1.739978 -8.226664 -0.780653 40.758550 0.563539 7.902357 -20.714979 0.239439 -9.005859 -22.549703 -0.334129 1.366757 -12.644502 6.030199 -0.487295 4.792882 -3.435597 -6.009960 1.441896 5.490699 338.967759 13.654501 -340.851568 8.360720 -28.021346 -6.842375 2.099585 -1.052400 -20.702144 6.144024 16.543800 -3.191819 -1.111179 18.784096 -0.330803 42.312097 25.903407 -29.576167 -25.082503 -34.523298 -10.795586 -8.690320 1.291841 12.731950 -1.585203 -13.779970 1.189135 -6.961525 26.277716 7.221667 8.422781 -13.776358 -13.926188 14.037829 1.900246 -27.441234 -28.643817 -17.644682 -24.947259 -5.373993 -9.743596 5.059634
-1.092636 50.863338 16.252627 1.772099 3.330084 0.747095 -5.637123 -12.376556 -2.143303 -3.094127 1.030993 1.469530 -11.597379 1.164912 -9.285817 -2.373334 33.521415 18.289657 -3.405681 -6.825934 3.777609 3.429693 -30.924717 -15.648245 2.424416 0.857107 -6.582673 -0.378884 42.617559 0.855690 7.560795 -21.780929 0.192506 -9.062905 -22.128121 -0.412834 1.329541 -10.899382 5.549330 -1.480724 3.407542 -2.812598 -5.478592 1.435055 4.914868 338.093896 10.734557 -339.369427 11.772118 -26.906410 -6.314552 2.300314 -0.282011 -20.694998 5.375362 14.678044 -3.012667 -0.208358 17.738098 0.375694 42.257273 25.669262 -26.432609 -27.025605 -31.334656 -14.412218 -10.754844 0.377404 12.060114 -1.343625 -11.240583 1.514606 -7.039184 20.607012 6.896647 6.828644 -11.843090 -9.822684 13.845404 -0.103747 -22.155862 -27.711572 -12.740683 -17.534479 -5.698104 -10.537546 4.884164
-1.020863 50.684620 16.033569 1.726662 2.604375 -0.698560 -11.643454 -13.720108 -4.369008 -2.555676 1.477154 1.583578 -12.208406 1.797795 -7.214610 -1.616979 33.011810 17.419724 -3.259336 -8.554311 3.129087 3.761024 -29.074366 -14.976754 1.714544 0.048604 -5.477174 -0.383528 43.863526 1.312830 7.162986 -22.436822 0.062331 -8.941299 -22.249809 -0.489602 1.129518 -8.999463 4.816597 -2.241227 2.605985 -2.582803 -4.577479 0.776919 5.091021 337.403628 8.338432 -339.276162 14.387676 -25.751571 -5.740902 2.654371 0.636915 -20.459688 4.574662 13.319617 -2.969322 0.824698 15.899515 1.360738 41.227572 25.587409 -23.220553 -27.732429 -28.627117 -16.744230 -12.083389 0.437055 11.148517 0.150803 -8.427556 1.510542 -6.507687 16.016685 6.655787 5.780017 -10.660965 -6.254470 14.314935 -0.950310 -17.068859 -25.282794 -7.963582 -11.399718 -5.879633 -12.094718 4.758109
-0.981682 50.679165 15.736489 1.692844 2.223697 -1.846851 -17.504123 -15.194172 -6.798055 -2.078054 1.544956 1.814099 -12.737512 3.224253 -5.490585 -0.821457 31.434664 16.439829 -3.091020 -9.591232 2.200171 3.844707 -27.225715 -14.281134 0.933955 -0.718685 -4.700262 -0.048185 44.505618 1.552916 6.743026 -22.345203 -0.150762 -8.863681 -22.195987 -0.554457 0.796942 -6.823269 3.980880 -2.916557 1.795986 -2.427376 -3.452764 -0.361370 5.537121 336.687226 6.687464 -339.732915 16.214025 -25.040939 -5.345151 3.255973 1.783759 -20.457756 4.007287 12.336336 -3.028144 1.931512 13.926383 2.389376 39.730932 25.001480 -20.202666 -27.592226 -25.993367 -17.753155 -13.252463 1.087011 9.674887 0.412545 -6.222692 1.792214 -5.890703 12.785098 6.566772 5.521710 -9.976172 -3.457477 14.942401 -1.704941 -10.515787 -22.477012 -3.701325 -6.338143 -5.585660 -13.459200 4.552224
-0.950919 50.780674 15.251647 1.570513 2.017982 -2.665767 -20.706912 -16.791618 -7.933500 -1.807620 1.574759 2.040614 -13.013002 4.590069 -3.993228 0.335196 29.112246 15.503939 -2.993920 -10.295912 0.842353 3.901841 -25.146053 -13.586751 0.598190 -1.494522 -4.231780 0.363929 44.432092 1.507652 6.255182 -22.174061 -0.302081 -8.638492 -21.798184 -0.730706 0.707128 -4.893033 3.520837 -3.243412 1.178186 -2.296095 -2.849994 -1.146338 5.688927 336.282808 5.127320 -340.499463 17.420110 -24.673674 -5.202342 3.471236 2.647930 -20.369851 3.792869 11.793797 -3.094980 2.537840 12.476312 3.063642 38.556640 24.206451 -18.416293 -27.255411 -24.926433 -17.800692 -13.923756 2.178636 8.706074 0.807683 -4.124844 2.001119 -5.441220 10.951091 6.218203 6.277653 -9.455462 -1.795905 15.370462 -1.546263 -5.826350 -20.576391 -0.704196 -5.181734 -5.378612 -14.203364 4.686189
-0.925045 50.937065 14.676072 1.408318 1.693749 -3.119430 -23.414135 -18.826994 -8.262479 -1.603530 1.682138 2.153554 -13.319702 5.798033 -3.021055 1.175360 27.011309 15.110495 -3.010752 -10.946909 -0.642901 4.098403 -23.273055 -12.879371 0.405970 -1.823656 -4.045765 0.542374 43.885754 1.488701 6.077456 -21.895057 -0.330104 -8.541572 -21.064211 -0.924034 0.632374 -2.874036 3.175293 -3.253482 0.890100 -1.992288 -2.458782 -1.709381 5.587879 335.817395 3.087769 -341.462144 18.114667 -24.367173 -5.077847 3.769039 3.120030 -20.420242 3.611453 11.625571 -3.350207 2.807486 10.973989 3.396278 37.119914 23.129721 -17.579762 -26.382622 -25.018928 -16.509354 -14.404769 4.071330 8.081725 -0.518643 -1.217344 1.576765 -5.166842 10.037585 5.730755 7.061749 -9.270873 -1.002243 15.751699 -1.284786 -3.086075 -19.375455 1.626215 -5.512978 -5.087122 -14.146174 5.396917
-0.858068 51.111954 13.979691 1.202626 1.159570 -3.253720 -25.419946 -21.469586 -7.901440 -1.314878 1.884716 2.082293 -13.755227 6.686453 -2.377896 2.143159 24.938855 14.460126 -3.099101 -11.270148 -1.778074 4.436855 -21.243142 -12.086457 0.284616 -1.809629 -3.975047 0.729740 42.800845 1.285393 5.899358 -21.252344 -0.298877 -8.573772 -20.532326 -1.078788 0.360509 -0.929060 3.139073 -2.981727 1.376746 -1.684428 -2.097514 -2.464383 5.224445 335.025910 0.462728 -343.032517 18.591350 -23.961459 -4.948753 4.045746 4.096274 -20.660816 3.630718 11.663592 -3.352102 3.197923 9.072296 3.233435 35.324207 22.316635 -17.128002 -24.948072 -26.322996 -14.539345 -14.631482 5.624993 7.159419 -0.011245 -0.082821 1.053164 -5.132572 9.611045 5.179813 7.804850 -9.740916 -0.921323 16.424292 -1.188354 -1.326519 -18.693778 3.138757 -5.889710 -5.091571 -14.000600 6.275349
-0.717023 51.299122 13.202767 0.970887 0.603052 -3.316132 -26.280572 -24.289826 -7.417848 -1.064453 2.017837 2.029530 -14.197823 7.364939 -2.126396 2.906986 22.952545 13.784099 -3.016919 -11.280194 -2.483481 4.656759 -19.317397 -11.230107 0.266613 -1.544835 -4.016601 0.987073 41.239730 1.136783 5.777710 -20.314193 -0.258558 -8.485083 -20.001177 -1.084497 0.211183 1.109019 3.368619 -2.811030 2.491202 -1.424004 -1.915077 -3.118978 4.663982 334.028691 -3.138643 -345.261062 19.139540 -23.140896 -4.656917 4.584953 5.056871 -20.858668 3.667304 11.845177 -3.428748 3.655190 6.766328 2.912371 33.273367 21.891988 -16.471510 -23.905607 -29.200713 -12.492496 -14.528532 8.832536 6.522008 -1.596067 2.390870 0.256902 -5.429026 10.295133 4.743791 8.519035 -11.441487 -0.891855 16.186395 -0.919406 0.006118 -18.387662 3.340395 -6.616152 -5.371043 -13.830554 6.602859
-0.563459 51.503162 12.380157 0.861800 0.097805 -3.272045 -26.179220 -26.255156 -6.651653 -1.147822 2.084060 2.100551 -14.558581 7.333769 -2.322262 3.785170 21.029058 12.947808 -2.798559 -10.443925 -2.694033 4.994271 -17.717061 -10.266261 0.531415 -1.740205 -4.288458 0.701948 40.191318 1.302518 5.933345 -19.601122 -0.320866 -8.350802 -19.203303 -0.974093 0.143050 3.240510 3.790282 -2.682181 4.540975 -1.038069 -1.738804 -4.618876 3.626955 332.708513 -7.181529 -347.934148 19.724872 -21.900273 -4.484363 5.474965 6.185612 -21.285970 3.757675 11.894836 -3.517793 4.270765 3.506279 2.337620 30.714431 21.372984 -15.561601 -22.487626 -33.316660 -9.427669 -13.207618 12.283725 5.208935 -2.229870 3.855350 -0.920308 -6.149137 12.113885 4.379870 9.495632 -14.082275 -1.343991 14.775374 0.730730 1.258316 -18.060311 1.853512 -7.997227 -5.787576 -13.303485 6.425276
-0.409814 51.650761 11.312599 0.846654 -0.479593 -3.141790 -25.508522 -28.268260 -5.942774 -1.160137 2.140429 2.116699 -14.888003 7.026787 -2.949665 4.088021 19.287910 12.402179 -2.290215 -9.354384 -2.649646 5.079276 -16.236083 -9.473554 0.714994 -2.101090 -4.597633 0.433796 39.304288 1.348712 5.710374 -18.483077 -0.540854 -8.371116 -18.508354 -0.978974 0.119362 5.456160 4.539055 -2.571874 7.207865 -0.472440 -1.606544 -6.944318 2.583787 331.084057 -11.042430 -350.989655 20.082326 -20.246328 -4.586742 6.684819 7.190932 -21.730948 3.843847 12.026798 -3.578426 4.739029 -0.788544 1.522284 28.130847 20.940740 -14.788653 -21.299995 -38.024394 -6.211316 -9.727072 16.164385 3.788231 -3.269212 3.934238 -2.169799 -6.959001 15.005239 4.534837 10.331365 -16.832559 -2.338456 12.573579 2.882065 2.456267 -18.257654 -1.000074 -9.296992 -6.725123 -10.790776 5.538013
-0.225877 51.820011 10.177166 0.926518 -1.180009 -2.996019 -24.337395 -31.020662 -5.131162 -1.168764 2.409807 2.145692 -15.317203 5.966060 -4.004623 4.291159 18.193213 11.712933 -1.742597 -7.877772 -2.152052 5.267925 -15.047511 -8.655843 0.970121 -3.036435 -4.732546 -0.186973 39.087525 1.620611 5.693740 -17.757000 -0.754649 -8.217095 -17.792408 -1.262340 -0.031015 7.391775 5.272806 -2.446878 9.268552 0.013493 -1.618023 -9.082750 1.882947 329.360996 -14.188661 -353.399106 20.313097 -18.721842 -5.333337 7.477676 8.107482 -21.947708 3.821834 12.309724 -3.679003 4.488216 -4.235414 1.193923 26.084026 20.217765 -13.860283 -20.533886 -42.563051 -3.842953 -5.391551 19.053129 2.423044 -4.266039 2.669820 -2.694299 -7.504713 17.731115 4.971794 10.408562 -17.375305 -3.511215 10.444885 3.661821 2.746120 -18.689671 -4.087932 -9.342053 -7.048338 -7.073435 3.924485
-0.034676 51.985794 9.024640 0.978799 -1.976758 -2.865103 -21.634870 -32.697303 -3.635237 -1.323448 2.864908 2.369637 -15.363534 4.797806 -5.410269 4.186891 16.284270 10.554731 -1.083576 -5.372705 -1.056496 5.610031 -14.025357 -7.774079 1.439049 -4.014553 -4.960100 -0.734216 38.309891 1.693723 5.838976 -16.476461 -0.965464 -7.978186 -17.238896 -1.535320 -0.011187 9.021228 5.645006 -2.370219 11.522906 0.898591 -1.944607 -11.698793 0.876966 327.749933 -17.323340 -355.337295 20.529720 -16.836362 -6.531340 8.410791 8.902332 -22.218036 3.726075 12.517542 -3.723933 3.209576 -6.996451 0.856543 25.167759 17.547383 -12.957125 -20.208811 -43.662927 -2.943528 -2.286294 18.938746 1.721486 -5.043455 -0.308276 -2.536810 -7.503502 21.351371 5.607918 9.632894 -15.987040 -4.658089 8.797630 3.930517 1.305394 -18.198196 -6.687922 -6.492380 -5.591700 -3.634633 2.453625
0.071894 52.140297 8.043073 0.966037 -2.651023 -2.832185 -18.617414 -32.732843 -2.194135 -1.343059 2.948855 2.643885 -15.131752 4.095822 -6.804715 3.781449 14.403302 9.742144 -0.501654 -2.787356 -0.139123 5.854820 -13.253154 -6.950365 1.865232 -4.315931 -5.184753 -1.517269 37.651063 2.138218 5.907595 -15.696869 -1.426834 -7.890830 -16.631362 -1.750095 0.077969 10.335917 5.642818 -2.406263 13.818020 1.948536 -2.076904 -14.179566 -0.109553 325.885075 -20.433101 -356.436640 21.031269 -14.616011 -8.153737 9.036197 9.186557 -22.468457 3.755132 12.748961 -3.955014 1.930523 -8.784496 0.426077 24.649435 14.377180 -12.000338 -19.820772 -43.338444 -2.118895 -0.278143 18.252504 0.579091 -5.626115 -3.240687 -2.014868 -6.798863 25.446842 6.220443 7.498206 -11.986192 -5.661579 8.941201 3.293515 -0.934005 -17.571422 -8.638657 0.821448 -1.894229 -0.154473 2.272571
0.190258 52.300808 7.214942 1.014012 -3.334869 -2.939965 -15.169146 -31.083794 -1.043215 -1.330948 2.985940 2.975547 -14.703151 3.617792 -7.806514 3.222366 12.631806 8.873778 -0.195136 0.136485 0.563302 6.064113 -13.129084 -6.162894 2.316633 -4.324592 -5.338474 -2.472535 37.191116 2.805955 6.123997 -15.329539 -1.901519 -7.941150 -16.046881 -1.878624 0.447511 11.557319 5.105000 -3.039704 15.999453 3.176122 -1.463945 -16.241625 -0.960418 323.949132 -22.893598 -356.609170 21.447538 -13.191198 -9.623644 9.556799 9.116111 -22.925831 3.609166 13.016759 -3.952363 1.493303 -10.142145 -0.041890 24.039120 11.322187 -11.065423 -19.835416 -42.418757 -1.180205 1.087998 17.470838 -0.552291 -5.986576 -4.371909 -1.930775 -5.873090 27.774601 6.482089 4.898287 -5.845442 -6.693968 10.322733 4.231594 -3.020755 -17.208675 -12.741680 5.645960 2.058412 3.465611 3.388824
0.248093 52.427933 6.535821 1.172629 -3.903223 -3.115083 -12.238003 -29.646315 -0.239675 -1.211871 2.901825 3.403585 -14.017784 3.420783 -8.375099 2.594408 11.217105 7.870432 -0.456329 2.219171 1.012509 6.226119 -12.852761 -5.492137 2.581618 -4.031778 -5.479356 -3.182706 36.617654 3.368680 6.139641 -15.059844 -2.411515 -7.804946 -15.692661 -1.882790 0.714088 12.625707 4.542389 -3.976069 17.623525 4.137660 -0.671688 -17.291332 -1.678302 323.207729 -24.382210 -356.581458 21.523260 -12.011026 -10.242879 9.532291 8.275517 -22.634507 3.634802 13.405475 -4.068980 1.738548 -11.113516 -0.793100 23.974615 9.128092 -10.324528 -20.324303 -41.492534 -0.217901 1.617308 16.266354 -1.378829 -6.035477 -4.814262 -1.978994 -4.708092 27.729349 7.194477 3.103042 -0.684811 -7.803492 12.603120 6.730350 -3.668355 -17.348306 -14.686689 7.947252 4.011777 6.109824 3.976880
0.248605 52.580914 5.944817 1.370909 -4.170247 -3.238641 -9.028195 -26.635006 0.287860 -1.180687 2.561992 3.884304 -13.387951 3.377430 -8.931923 1.913883 10.406711 7.308251 -0.569269 3.637185 1.393545 6.178970 -12.703957 -5.261428 2.825000 -3.672195 -5.651926 -3.795787 36.347586 3.585278 6.169807 -15.128049 -2.573515 -7.800919 -15.248804 -2.002005 0.933979 13.513045 3.950926 -4.825509 18.908382 4.924542 -0.009868 -18.073252 -2.034671 322.860087 -25.050984 -356.476188 21.348613 -11.337245 -10.782389 9.462368 7.095742 -22.213768 3.355473 13.952367 -4.255762 2.003574 -11.977524 -1.782991 24.280754 7.731362 -9.704487 -20.743312 -40.859900 0.853347 2.039815 14.978308 -2.263575 -5.914189 -4.932067 -2.578553 -3.442118 26.520825 8.171417 1.762534 2.399127 -8.768385 13.931383 8.349488 -3.702909 -17.169822 -14.576533 9.159842 5.148038 6.777114 3.068430
0.242221 52.711735 5.473678 1.494734 -4.245037 -3.357659 -6.567635 -23.229185 0.522603 -1.069516 2.073869 4.416866 -12.895104 3.349257 -9.350873 1.333055 9.868327 6.779454 -0.805823 5.004451 1.624934 6.375308 -12.841712 -5.076861 2.967261 -3.272106 -5.917599 -4.123167 36.158185 3.853161 6.184418 -14.904433 -2.897231 -7.725781 -15.228697 -2.054823 0.992572 14.168286 3.409866 -5.454811 19.882552 5.792808 0.261103 -18.456372 -2.463538 322.965623 -25.045453 -356.380097 21.338136 -10.987863 -11.092821 9.151894 5.812903 -21.762096 3.246241 14.448448 -4.325872 2.093810 -12.786987 -2.979286 24.632418 7.118812 -9.064838 -21.060633 -40.696870 1.522878 2.036955 14.690434 -2.938968 -5.784831 -5.256034 -3.608319 -2.411664 24.776348 8.776732 0.846989 4.142899 -9.877454 14.253174 9.475549 -3.307214 -16.909869 -13.612366 9.502868 5.905352 6.820582 1.945920
0.220474 52.838303 5.057878 1.698629 -4.313985 -3.326610 -4.837385 -20.673621 0.519687 -1.048030 1.560433 4.850477 -12.616447 3.470008 -9.766492 0.932729 9.687788 6.338298 -1.012161 5.816397 1.785869 6.457228 -12.868216 -4.834703 3.129896 -2.826772 -6.108212 -4.483457 36.103373 4.028079 6.245067 -15.097478 -2.790320 -7.899402 -15.092114 -2.542210 1.131437 14.647775 3.021588 -5.981646 20.590885 6.415128 0.396765 -18.646614 -2.594018 322.678845 -24.343472 -356.317256 21.536941 -11.118443 -11.340028 9.023792 5.040116 -21.071914 2.913379 14.636696 -3.787097 2.233644 -13.463159 -3.907256 25.214257 7.075057 -9.173330 -21.067024 -41.269705 2.493484 1.857744 14.423333 -3.433983 -5.796472 -5.800803 -4.412878 -1.517012 23.587776 9.444215 0.240538 5.006312 -11.346822 14.937139 10.008276 -2.213291 -16.978211 -13.035447 9.976282 6.217858 6.995655 0.916604
0.138017 52.908699 4.584708 1.664713 -4.357417 -3.402263 -4.309937 -19.726147 0.574565 -0.979130 1.277266 5.299430 -12.406166 3.664286 -9.907575 0.657117 9.683144 5.920069 -1.045358 6.266503 2.033807 6.691386 -13.208222 -4.870127 3.215385 -2.431173 -6.284349 -4.644916 35.959270 4.332062 6.213325 -15.189457 -2.876206 -8.017595 -14.980046 -2.913127 1.138307 14.775431 2.797780 -6.174048 20.994446 6.988027 0.274469 -18.775682 -2.647045 322.487927 -23.478135 -356.144043 21.817611 -11.679916 -11.764361 8.986466 4.374981 -20.655841 2.987325 14.718989 -4.099754 2.210928 -14.006561 -4.620377 25.750129 7.070162 -9.104902 -21.162014 -41.245227 3.056568 1.708168 14.416869 -3.863634 -6.051260 -6.155424 -4.846998 -0.910719 23.051618 9.702780 0.196206 4.965198 -12.218680 15.181621 9.727830 -1.330041 -16.818837 -13.500063 10.384048 6.265434 7.654015 0.097528
