HIERARCHY
ROOT hip_01
{
  OFFSET 0.000000 0.000000 0.000000
  CHANNELS 6 Xposition Yposition Zposition Zrotation Xrotation Yrotation
  JOINT waist_02
  {
    OFFSET 0.000000 1.323814 -0.051574
    CHANNELS 3 Zrotation Xrotation Yrotation
    JOINT chest_03
    {
      OFFSET 0.000000 1.583133 -0.016451
      CHANNELS 3 Zrotation Xrotation Yrotation
      JOINT neck_00
      {
        OFFSET 0.000000 2.549065 -0.326695
        CHANNELS 3 Zrotation Xrotation Yrotation
        JOINT head_04
        {
          OFFSET -0.000000 0.711693 0.260405
          CHANNELS 3 Zrotation Xrotation Yrotation
          JOINT hair_FL1_05
          {
            OFFSET 0.754175 0.220855 0.478486
            CHANNELS 3 Zrotation Xrotation Yrotation
            End Site
            {
              OFFSET 0.188544 0.055214 0.119622
            }
          }
          JOINT hair_BL1_07
          {
            OFFSET 0.709581 0.353993 -0.355333
            CHANNELS 3 Zrotation Xrotation Yrotation
            JOINT hair_BL2_08
            {
              OFFSET 0.365952 -1.206865 -0.770933
              CHANNELS 3 Zrotation Xrotation Yrotation
              End Site
              {
                OFFSET 0.091488 -0.301716 -0.192733
              }
            }
          }
          JOINT hair_BC1_010
          {
            OFFSET 0.000000 0.266927 -0.762152
            CHANNELS 3 Zrotation Xrotation Yrotation
            JOINT hair_BC2_011
            {
              OFFSET 0.000000 -1.132907 -0.636894
              CHANNELS 3 Zrotation Xrotation Yrotation
              JOINT hair_BC3_012
              {
                OFFSET 0.000000 -1.572028 -0.107572
                CHANNELS 3 Zrotation Xrotation Yrotation
                End Site
                {
                  OFFSET 0.000000 -0.393007 -0.026893
                }
              }
            }
          }
          JOINT hair_BR1_013
          {
            OFFSET -0.709580 0.353954 -0.355333
            CHANNELS 3 Zrotation Xrotation Yrotation
            JOINT hair_BR2_014
            {
              OFFSET -0.365950 -1.206801 -0.770934
              CHANNELS 3 Zrotation Xrotation Yrotation
              End Site
              {
                OFFSET -0.091488 -0.301700 -0.192733
              }
            }
          }
          JOINT hair_FR1_016
          {
            OFFSET -0.754175 0.220855 0.478487
            CHANNELS 3 Zrotation Xrotation Yrotation
            End Site
            {
              OFFSET -0.188544 0.055214 0.119622
            }
          }
        }
      }
      JOINT shoulder_L_018
      {
        OFFSET 0.479961 2.241518 -0.260726
        CHANNELS 3 Zrotation Xrotation Yrotation
        JOINT arm_L_019
        {
          OFFSET 0.985312 -0.464799 -0.145051
          CHANNELS 3 Zrotation Xrotation Yrotation
          JOINT elbow_L_020
          {
            OFFSET 2.101676 -1.601456 -0.201364
            CHANNELS 3 Zrotation Xrotation Yrotation
            JOINT hand_L_021
            {
              OFFSET 2.105756 -1.579966 0.078621
              CHANNELS 3 Zrotation Xrotation Yrotation
              JOINT finger_L1_022
              {
                OFFSET 0.748221 -0.504073 -0.028731
                CHANNELS 3 Zrotation Xrotation Yrotation
                JOINT finger_L2_023
                {
                  OFFSET 0.236044 -0.408038 -0.000000
                  CHANNELS 3 Zrotation Xrotation Yrotation
                  End Site
                  {
                    OFFSET 0.059011 -0.102010 -0.000000
                  }
                }
              }
              JOINT finger_L3_024
              {
                OFFSET 0.750060 -0.500314 0.292288
                CHANNELS 3 Zrotation Xrotation Yrotation
                JOINT finger_L4_025
                {
                  OFFSET 0.368050 -0.356161 0.010464
                  CHANNELS 3 Zrotation Xrotation Yrotation
                  End Site
                  {
                    OFFSET 0.092012 -0.089040 0.002616
                  }
                }
              }
              JOINT finger_L5_026
              {
                OFFSET 0.227057 -0.379716 0.359311
                CHANNELS 3 Zrotation Xrotation Yrotation
                JOINT finger_L6_027
                {
                  OFFSET 0.331256 -0.321851 0.165388
                  CHANNELS 3 Zrotation Xrotation Yrotation
                  End Site
                  {
                    OFFSET 0.082814 -0.080463 0.041347
                  }
                }
              }
            }
          }
        }
      }
      JOINT shoulder_R_028
      {
        OFFSET -0.479961 2.241505 -0.260726
        CHANNELS 3 Zrotation Xrotation Yrotation
        JOINT arm_R_029
        {
          OFFSET -0.985310 -0.464802 -0.145051
          CHANNELS 3 Zrotation Xrotation Yrotation
          JOINT elbow_R_030
          {
            OFFSET -2.101681 -1.601403 -0.201363
            CHANNELS 3 Zrotation Xrotation Yrotation
            JOINT hand_R_031
            {
              OFFSET -2.105751 -1.580003 0.078620
              CHANNELS 3 Zrotation Xrotation Yrotation
              JOINT finger_R1_032
              {
                OFFSET -0.748221 -0.504101 -0.028731
                CHANNELS 3 Zrotation Xrotation Yrotation
                JOINT finger_R2_033
                {
                  OFFSET -0.236050 -0.408001 -0.000000
                  CHANNELS 3 Zrotation Xrotation Yrotation
                  End Site
                  {
                    OFFSET -0.059013 -0.102000 -0.000000
                  }
                }
              }
              JOINT finger_R3_034
              {
                OFFSET -0.750061 -0.500301 0.292289
                CHANNELS 3 Zrotation Xrotation Yrotation
                JOINT finger_R4_035
                {
                  OFFSET -0.368050 -0.356201 0.010464
                  CHANNELS 3 Zrotation Xrotation Yrotation
                  End Site
                  {
                    OFFSET -0.092013 -0.089050 0.002616
                  }
                }
              }
              JOINT finger_R5_036
              {
                OFFSET -0.227059 -0.379701 0.359312
                CHANNELS 3 Zrotation Xrotation Yrotation
                JOINT finger_R6_037
                {
                  OFFSET -0.331261 -0.321900 0.165388
                  CHANNELS 3 Zrotation Xrotation Yrotation
                  End Site
                  {
                    OFFSET -0.082815 -0.080475 0.041347
                  }
                }
              }
            }
          }
        }
      }
      JOINT wing_L1_038
      {
        OFFSET 0.773961 1.422068 -1.360070
        CHANNELS 3 Zrotation Xrotation Yrotation
        JOINT wing_L2_039
        {
          OFFSET 2.633456 2.369829 -3.078000
          CHANNELS 3 Zrotation Xrotation Yrotation
          JOINT wing_L3_040
          {
            OFFSET 2.572391 2.545830 -2.552337
            CHANNELS 3 Zrotation Xrotation Yrotation
            JOINT wing_L4_041
            {
              OFFSET 1.774467 -0.818512 -2.051605
              CHANNELS 3 Zrotation Xrotation Yrotation
              End Site
              {
                OFFSET 0.443617 -0.204628 -0.512901
              }
            }
          }
        }
      }
      JOINT wing_R1_042
      {
        OFFSET -0.773961 1.422104 -1.360068
        CHANNELS 3 Zrotation Xrotation Yrotation
        JOINT wing_R2_043
        {
          OFFSET -2.633459 2.369804 -3.078004
          CHANNELS 3 Zrotation Xrotation Yrotation
          JOINT wing_R3_044
          {
            OFFSET -2.572389 2.545805 -2.552334
            CHANNELS 3 Zrotation Xrotation Yrotation
            JOINT wing_R4_045
            {
              OFFSET -1.774470 -0.818500 -2.051606
              CHANNELS 3 Zrotation Xrotation Yrotation
              End Site
              {
                OFFSET -0.443617 -0.204625 -0.512901
              }
            }
          }
        }
      }
    }
  }
  JOINT leg_L_046
  {
    OFFSET 0.913351 -0.095129 -0.132446
    CHANNELS 3 Zrotation Xrotation Yrotation
    JOINT knee_L_047
    {
      OFFSET 0.219942 -4.234161 -0.183189
      CHANNELS 3 Zrotation Xrotation Yrotation
      JOINT foot_L_048
      {
        OFFSET 0.200657 -3.883800 -0.210255
        CHANNELS 3 Zrotation Xrotation Yrotation
        End Site
        {
          OFFSET 0.050164 -0.970950 -0.052564
        }
      }
    }
  }
  JOINT leg_R_049
  {
    OFFSET -0.913351 -0.095133 -0.132446
    CHANNELS 3 Zrotation Xrotation Yrotation
    JOINT knee_R_050
    {
      OFFSET -0.219939 -4.234152 -0.183189
      CHANNELS 3 Zrotation Xrotation Yrotation
      JOINT foot_R_051
      {
        OFFSET -0.200660 -3.883803 -0.210255
        CHANNELS 3 Zrotation Xrotation Yrotation
        End Site
        {
          OFFSET -0.050165 -0.970951 -0.052564
        }
      }
    }
  }
}
MOTION
Frames: 60
Frame Time: 0.03333333
0.105147 5.609879 0.073749 -0.019101 37.796511 0.638662 0.241980 0.971263 2.012357 0.014904 -16.884193 -0.807592 1.117155 -6.737861 -1.460946 -2.418711 -8.211919 4.155465 3.170945 12.065231 2.554848 6.737043 0.511616 8.428551 10.821473 20.526824 0.077051 -0.146986 13.477542 3.668248 3.864278 49.052825 0.536453 5.131295 8.237865 -1.843652 -9.279271 -9.710994 -26.037677 -9.590946 27.054099 4.522942 -1.234474 2.270542 -0.796586 2.220220 10.650322 -0.684653 -35.523014 2.829206 34.692015 -11.397349 -7.888181 -63.992241 -0.037257 -7.433791 2.187328 -12.538295 -10.348160 4.139561 8.414789 0.802293 -0.583657 -0.456031 -2.289878 1.775227 -18.898763 -0.465553 7.495621 -7.516977 2.384027 3.079119 -10.445604 1.963985 6.906445 3.150736 10.138468 8.015018 50.664064 18.688064 -8.566948 1.104937 6.585576 10.119627 -10.260882 -29.054754 17.901223 3.707626 1.208276 -16.984421 1.953010 -2.960775 7.522971 18.116759 2.589005 -17.228576 11.782551 9.852669 -4.939395 12.258996 35.492626 -7.253236 -7.562327 5.720492 11.875129 1.300480 30.080913 -0.101211 -4.061621 25.902995 -5.376658 -8.418962 18.402615 5.410911 -13.732560 4.054105 11.095748 7.297893 32.748503 1.264077 7.768321 17.077470 -6.440982 8.595410 4.705980 -14.100285 2.397603 9.412482 -0.030371 9.841484 -4.658986 11.355589 -4.989627 42.033063 11.516229 -7.746867 19.334752 8.203351 -12.380683 -20.511454 6.109325 26.172067 59.891873 -18.747286 20.683745 34.455144 -37.962905
0.094448 5.604709 0.080891 -0.310418 37.728598 1.004619 0.328542 0.980789 1.947692 0.180539 -16.857513 -0.807601 1.159549 -6.628015 -1.502846 -2.364660 -8.192794 4.252094 3.530202 11.625683 2.398425 6.744804 0.276949 8.219385 11.074953 19.972776 -0.163145 -0.139800 13.218190 4.035533 3.502588 48.187242 0.695293 5.134430 8.864934 -2.409054 -9.022320 -10.186741 -25.515311 -9.646880 27.162295 4.159084 -1.124526 1.759078 -0.611950 2.327060 10.512868 -0.471190 -35.576271 3.141760 34.565354 -11.926803 -7.827423 -63.926593 -0.073672 -8.022755 2.363042 -12.528833 -10.236055 4.425587 8.244347 0.901777 -0.887288 -0.613049 -2.331672 1.747318 -18.464179 -0.694822 7.710434 -7.248197 2.441752 3.147883 -10.630645 2.151210 6.868798 3.245269 10.106646 8.203597 50.259141 18.753308 -8.536231 1.252583 6.549707 9.614661 -10.316377 -28.925399 17.975172 3.695637 1.714128 -16.183224 1.799281 -2.873177 7.568775 18.271278 3.081791 -16.879899 12.022383 9.686873 -4.497442 11.966252 35.545842 -7.444227 -7.208757 5.538483 12.043273 1.597654 30.351737 -0.214859 -4.156630 25.800835 -5.576905 -8.721026 18.251263 6.081550 -13.707721 4.295028 12.494860 7.546014 33.000029 1.103017 7.671284 16.794485 -6.713424 8.658027 4.644427 -13.570404 2.303048 8.653154 0.037347 9.643547 -5.018746 11.241674 -4.698491 42.743511 11.733000 -7.726952 18.942888 8.149215 -12.136031 -20.697444 6.084443 26.388752 60.109021 -19.024776 20.544353 34.493286 -38.414807
0.081992 5.630928 0.092363 -0.460010 37.439514 1.240976 0.356090 0.921327 2.021846 0.243746 -16.804047 -0.988371 1.230717 -6.438508 -1.519421 -2.314054 -8.201588 4.238647 3.553495 11.255784 2.061833 6.432589 0.207842 7.835631 11.202672 19.352465 -0.398028 -0.161804 12.873122 4.266352 3.479546 47.966489 0.915153 5.229181 8.536315 -2.790087 -8.746579 -10.428783 -25.153466 -9.852740 27.061441 3.702869 -1.020400 1.998430 -0.602065 2.200381 10.582861 -0.375120 -35.587940 2.929668 34.694894 -11.873418 -7.347917 -64.053987 0.514385 -8.640537 2.424419 -12.823367 -10.425694 4.977970 7.972071 0.948331 -0.810911 -0.629779 -2.336081 1.901296 -18.155413 -0.510673 7.684192 -7.218468 2.398760 3.425878 -10.658087 2.041074 6.829181 3.217182 10.100514 8.310165 50.022970 18.721165 -7.831667 1.208103 6.789217 9.618140 -10.470898 -28.445896 17.266839 3.654822 2.341663 -15.960620 1.502108 -2.597144 7.519697 18.334896 3.802714 -17.158789 11.914027 9.363391 -4.056419 11.987025 35.864001 -7.529676 -7.074734 5.421258 12.099160 1.732169 29.784523 -0.712710 -4.179548 25.690736 -5.610061 -9.119933 18.336752 7.167305 -13.358588 4.817837 12.482507 7.526542 32.661243 1.224638 7.908856 17.171247 -6.836020 8.831020 4.503916 -13.287746 2.272539 9.397610 0.075744 9.610692 -4.978507 11.112092 -4.467697 43.270350 11.776852 -7.104874 18.684679 7.525813 -11.739518 -20.612867 6.246278 26.399674 60.307114 -18.797182 21.401502 34.848811 -39.589796
0.071227 5.660465 0.084402 -0.403849 37.366154 1.232230 0.322765 1.089290 2.069992 0.214901 -16.826898 -1.190345 1.303885 -6.349983 -1.484842 -2.270286 -8.306493 4.312140 3.491086 11.291978 1.929256 6.108544 0.252099 7.562996 11.492011 19.094453 -0.604738 -0.172988 12.862416 4.456606 3.308882 47.855325 1.243619 5.285208 7.444412 -2.973174 -8.436625 -10.860182 -24.853228 -9.934743 27.277900 3.017443 -0.867062 2.521387 -0.625071 2.056972 10.679461 -0.275525 -35.535205 2.549851 35.010477 -11.836788 -7.087810 -64.283812 1.054164 -8.430370 2.206521 -13.125802 -10.425590 5.392904 7.895639 0.878401 -0.636130 -0.582502 -2.688474 2.280469 -17.869682 -0.677346 7.710192 -7.220350 2.288261 3.729813 -10.736999 1.880795 6.866156 3.162780 9.840114 8.633830 49.577204 18.309845 -7.098583 1.036033 6.936547 9.953446 -10.262649 -27.757981 16.279374 3.535396 2.820147 -15.694232 1.220065 -2.246717 7.513196 18.032053 4.404082 -17.495805 12.287605 8.933135 -3.850530 11.459606 35.899625 -7.224422 -7.086247 5.386148 12.068468 2.007623 29.499976 -0.745229 -4.051365 25.531875 -5.579361 -9.164129 18.609144 7.755916 -12.177965 5.392385 11.337834 7.109533 32.137777 1.492345 8.084446 17.292942 -7.220386 9.038964 5.062157 -12.996531 2.470631 9.771875 -0.072275 9.624365 -4.822662 11.111919 -4.141749 43.891573 11.319091 -7.555487 19.322693 7.145923 -11.505606 -20.450753 6.431810 26.011268 60.038920 -17.941613 23.064459 36.136823 -41.322093
0.076710 5.701861 0.086752 -0.389276 37.258274 1.284684 0.197704 1.063261 2.203352 0.325614 -16.809032 -1.197688 1.219817 -6.145538 -1.520925 -2.159920 -8.451212 4.329781 3.625967 11.068995 1.744258 5.929045 0.323552 7.159368 11.652039 18.778545 -0.567848 0.022644 12.723752 4.433908 2.942817 47.169058 1.499309 5.159322 6.157245 -2.945902 -8.274511 -10.744121 -24.873832 -10.087439 27.448423 2.296648 -0.739073 2.927259 -0.708164 1.956307 10.569008 -0.284744 -35.236857 2.347705 35.025806 -11.438718 -6.782287 -63.889686 0.895524 -8.663989 2.174724 -13.576128 -10.356978 5.611621 7.668190 0.778449 -0.542633 -0.572851 -2.680918 2.335993 -17.743727 -0.796363 7.687689 -7.271033 2.018418 3.840442 -10.563904 1.799428 7.012330 2.949888 9.520853 8.872241 48.994861 17.651146 -6.566645 1.031480 6.927251 10.021408 -10.016780 -27.574998 15.538904 3.424139 3.281777 -16.085905 2.590615 -2.138526 8.482108 18.019917 5.018537 -18.014932 12.119213 8.608797 -3.894863 10.877352 36.180579 -6.458996 -6.769570 5.469068 11.806515 2.089965 29.607903 -0.956498 -3.827031 25.588713 -5.514125 -9.061160 18.046727 8.297990 -12.054503 5.470143 11.700356 7.283023 32.135360 1.626871 8.378147 17.328995 -7.898339 8.954030 4.932964 -13.189551 2.728664 10.378185 0.182341 9.589371 -4.892392 11.039840 -4.603365 44.020071 11.881640 -6.803445 18.179378 5.517439 -11.428220 -20.234629 6.667204 25.734792 59.822023 -17.326818 24.800503 37.011724 -42.648492
0.072106 5.743342 0.076258 -0.320003 36.967762 1.263523 0.057773 1.082719 2.277440 0.384261 -16.711459 -1.250803 1.231374 -5.878557 -1.440805 -2.173401 -8.636268 4.193621 3.472500 11.107074 1.694256 5.489046 0.454546 6.828312 11.608276 17.920179 -0.599702 0.118910 12.640875 4.512691 2.762497 46.519595 1.644678 5.024956 5.391004 -2.650556 -8.126321 -10.616124 -24.621014 -10.129981 27.451937 1.532773 -0.701224 3.457095 -0.602618 1.945564 10.627878 -0.388088 -35.130338 2.176709 35.002857 -10.963652 -6.481971 -63.759783 0.777353 -8.654981 2.288538 -13.677093 -10.211199 5.968114 7.413294 0.633001 -0.825986 -0.426740 -2.605726 2.497228 -17.459875 -1.042785 7.451925 -7.117989 1.903403 4.045149 -10.413086 1.787783 7.049398 2.834916 9.196049 8.985077 48.308107 16.387659 -5.696285 1.062165 7.186699 10.165857 -10.407991 -27.254066 14.117228 3.707267 3.141343 -16.065272 2.488504 -2.169688 8.720060 18.964154 5.111291 -17.629520 11.511546 8.669429 -4.994524 9.979629 36.384124 -4.829808 -6.401051 5.789130 11.433679 2.334954 29.803725 -0.840928 -3.595545 25.295095 -5.341546 -8.749675 17.610836 7.967703 -12.109757 5.990474 11.555614 6.819958 31.613575 1.844830 8.534177 17.776467 -8.048960 9.219793 4.854354 -12.519471 2.695756 10.390716 -0.132292 9.618750 -4.674716 10.987888 -4.887111 44.058857 12.068277 -7.125566 18.244925 5.752038 -11.213524 -20.008042 6.827524 25.303267 59.156328 -16.673916 26.090128 37.822768 -43.978129
0.067112 5.787403 0.076506 -0.246071 36.549748 1.228711 -0.014321 1.044119 2.340246 0.318998 -16.437827 -1.343794 1.292611 -5.639340 -1.401600 -2.192391 -8.771149 4.048190 3.351147 11.205014 1.833257 5.322429 0.583936 6.767762 11.458985 17.248764 -0.278357 0.220104 12.717888 4.586033 2.274158 45.421384 2.309308 4.681946 4.667589 -2.400380 -8.060174 -10.196811 -24.422106 -10.147469 27.362275 0.883885 -0.698083 4.096954 -0.373913 1.965549 10.758761 -0.591242 -34.860417 1.501378 35.295894 -10.862492 -6.148266 -63.390824 0.586179 -8.460667 2.074095 -13.560478 -10.154181 6.271638 7.408893 0.611956 -0.813965 -0.254853 -2.679308 2.587063 -17.496430 -1.177828 7.344429 -6.752517 1.590460 4.419793 -10.245369 1.915524 7.216739 2.634788 8.921594 9.157502 47.511979 14.704999 -4.999836 0.855112 7.304031 10.687120 -10.825273 -27.047159 13.127363 4.503966 0.987171 -15.349507 1.871214 -0.647855 8.132009 20.382339 5.561525 -18.083384 11.367701 8.684968 -5.651845 9.714214 36.426354 -3.077928 -6.266087 6.036967 11.391344 2.573557 29.787600 -1.002688 -3.634195 25.181494 -5.315632 -8.111438 17.238960 7.851490 -12.425621 5.612214 12.047992 6.909242 31.429807 2.039324 8.849638 18.105825 -8.728147 9.024114 4.929952 -13.100429 2.384308 9.572288 -1.000052 9.572776 -4.187216 10.791047 -5.244230 43.906675 12.518378 -6.990395 18.236279 5.608191 -10.930322 -19.567635 6.953512 24.609963 58.882982 -15.763877 27.339431 38.885762 -45.033393
0.065240 5.828203 0.076596 -0.170968 36.270748 1.125818 -0.051689 0.778008 2.460781 0.188651 -16.071837 -1.461601 1.458189 -5.399652 -1.450046 -2.226987 -8.980088 4.001376 3.233910 11.349602 2.045413 5.320687 0.497869 6.723700 11.322250 16.396665 0.150901 0.283429 12.884120 4.567194 2.014058 44.394641 2.647623 4.463124 3.621921 -1.924998 -7.969996 -9.998685 -24.007002 -10.160295 27.350457 0.275456 -0.720187 4.762669 -0.032564 1.885327 10.641771 -0.909943 -34.296181 1.127541 35.548463 -9.995509 -5.707828 -63.196228 0.197019 -8.465646 2.250414 -13.747574 -10.036281 6.388367 7.269577 0.147470 -0.703492 -0.073573 -2.860883 2.761881 -17.565604 -1.413595 7.205639 -6.762866 1.285148 4.650984 -10.201809 2.151950 7.326869 2.355723 8.434178 9.247794 46.972579 12.764841 -4.615685 0.253886 7.517608 12.330273 -13.209233 -26.694444 11.522570 5.532432 0.215830 -16.141149 2.357468 -0.436282 8.572217 22.735536 6.444440 -18.880743 12.702200 9.679750 -5.451369 9.170450 36.824690 -0.385704 -5.856053 6.144192 11.515224 2.531822 29.146858 -1.006633 -3.949483 25.257878 -5.252424 -7.764411 16.591875 7.685412 -11.896675 4.340962 12.791820 6.443177 30.630315 2.156697 9.109379 18.387610 -8.802635 8.883223 5.356555 -12.827090 1.640217 9.983752 -1.372948 9.594017 -3.600366 10.618682 -5.428199 43.769544 12.311028 -6.975732 18.558850 5.513929 -10.824201 -19.261656 7.020171 24.268957 58.577020 -15.297727 28.834755 39.917812 -46.289200
0.048945 5.867864 0.081912 -0.041081 36.123049 1.023822 -0.135033 0.464468 2.625488 0.064846 -15.909679 -1.655986 1.487753 -5.153839 -1.632620 -2.182673 -9.037319 4.022082 3.122182 11.605208 2.264424 5.172093 0.329737 6.755282 11.316742 15.384821 0.417998 0.297033 13.055143 4.445882 1.908479 43.290854 2.874048 4.297798 2.801507 -1.588303 -8.095691 -9.736481 -23.816699 -10.126721 27.097128 0.036042 -0.952645 5.667176 0.400128 1.841898 10.574834 -1.257302 -33.723544 1.042202 35.407276 -9.762585 -5.513550 -62.780647 -0.065988 -8.120848 2.501196 -13.629020 -10.012925 6.745755 6.960571 -0.157330 -0.761052 0.320469 -2.827287 2.928874 -17.694609 -1.386418 6.852005 -6.611110 1.202417 5.005504 -10.032449 2.112619 7.281713 2.203224 7.944896 9.447120 46.342596 10.742600 -4.269463 -0.189399 7.533263 13.929496 -15.453545 -25.928227 10.170618 6.105662 -0.588353 -17.116461 2.672651 -0.600714 8.958236 24.937238 6.461521 -19.425641 12.867120 10.094417 -5.552179 8.979651 36.947557 1.834816 -5.800428 6.683157 11.782614 2.620181 28.906261 -0.982772 -4.038318 25.874214 -5.226244 -7.130598 15.121186 7.458701 -11.127852 3.769608 14.221093 6.279891 30.501246 2.351343 8.943484 18.679472 -9.036410 8.762417 5.830915 -12.770422 0.911960 10.186878 -1.898871 9.712926 -3.320789 10.408364 -5.462651 43.435386 12.295148 -6.846385 18.930995 5.420602 -10.671907 -19.129100 7.114406 23.790278 58.142981 -14.607468 31.022491 40.933419 -48.211815
0.033207 5.916462 0.075760 0.139567 35.919439 0.773530 -0.279888 0.242819 2.821858 -0.023030 -15.721389 -1.919411 1.560444 -5.059835 -1.735800 -2.119962 -9.050890 4.145534 3.135304 12.042074 2.560636 5.290275 0.162511 6.830705 11.088140 14.661317 0.711836 0.370955 13.041923 4.342552 1.907357 42.039357 2.665466 4.206669 2.576657 -1.259946 -7.986546 -9.444048 -23.626730 -10.136795 26.975778 -0.011205 -1.005708 6.259185 0.741280 1.861680 10.281090 -1.545043 -33.269938 0.865669 35.752012 -9.043880 -5.312353 -62.703804 -0.585687 -8.000108 2.752675 -13.273121 -9.836393 6.932655 6.882386 -0.109748 -0.640238 0.555828 -2.694278 2.842253 -18.121497 -1.244938 6.749517 -6.566767 1.040785 5.215414 -10.044861 2.084797 7.137927 1.865125 7.366842 9.761486 45.715370 9.072365 -3.991175 -0.776221 6.843382 16.378108 -18.098923 -25.093646 8.891102 6.702697 -1.460730 -18.646369 2.937952 -0.528376 9.233410 27.149004 6.629660 -19.177330 12.824435 10.454775 -5.827928 7.693837 37.483055 4.529505 -6.436537 7.437984 12.435966 2.437616 28.613610 -0.880854 -3.855967 25.981723 -5.240981 -6.720315 14.379581 7.262214 -10.077762 3.213439 15.405608 6.046518 29.867836 2.849914 9.488106 18.842687 -8.989976 8.863930 5.806612 -13.313617 0.827580 10.394962 -2.092903 9.748693 -2.974157 10.140741 -5.101762 42.851251 11.887157 -6.840110 20.200170 4.997011 -10.553511 -18.862984 7.181076 22.733082 57.316038 -13.600003 32.760324 42.299773 -49.940356
0.017930 5.946567 0.078257 0.300946 35.825617 0.537483 -0.417194 0.083037 2.959474 -0.021282 -15.645399 -1.944328 1.578115 -4.947996 -1.764533 -2.125006 -9.293123 4.011734 3.232921 12.492659 2.885673 5.570815 0.010741 6.739755 10.843060 13.407564 1.012790 0.521996 13.265234 4.022151 2.389719 40.689075 2.515076 4.322520 1.528077 -0.742955 -7.946665 -9.041833 -23.696417 -10.152210 26.604667 0.091296 -1.151063 7.040461 0.980795 1.963302 10.145370 -1.889346 -32.959415 0.701399 35.970741 -8.688984 -5.219671 -62.663523 -1.056660 -7.752855 3.159422 -12.993689 -9.847240 7.200119 6.631301 0.007860 -0.635620 0.853778 -2.528249 2.776574 -18.334674 -0.995609 6.710942 -6.506766 1.147967 5.309164 -9.950874 2.075744 7.100175 1.735537 6.869408 9.841668 44.698339 7.222121 -3.580705 -1.078547 5.438337 19.557514 -20.165503 -23.008333 7.448386 6.827859 -2.326167 -19.637838 3.069425 -0.383265 9.282238 28.713824 6.544484 -18.285396 12.976302 10.904823 -6.009774 6.957651 37.980131 6.008059 -7.213198 8.548099 13.516101 2.030520 28.536301 -0.702650 -3.897023 26.116240 -5.557618 -6.356651 13.053677 6.892102 -9.714496 3.070588 15.563557 5.716656 30.074841 3.227299 9.526175 18.714466 -9.438973 9.059691 5.526914 -13.001190 0.935029 10.725687 -1.938164 9.810918 -2.561265 9.828673 -4.794068 41.421066 10.607680 -6.478113 21.807251 5.482490 -10.535113 -18.684791 7.276303 21.848066 56.388584 -12.704103 34.177911 42.737077 -51.683116
0.000337 5.978058 0.073799 0.547683 35.759111 0.248352 -0.560065 -0.075679 3.021907 -0.083614 -15.680189 -1.945380 1.508134 -4.742390 -1.685590 -2.114534 -9.434518 3.676587 3.212754 13.093082 3.207194 5.804368 -0.013676 6.767853 10.520469 12.362405 1.448877 0.699847 13.418256 3.726912 2.711722 39.180644 2.022893 4.904346 1.213962 -0.322557 -7.845319 -8.688402 -23.683301 -9.815029 26.438873 0.267472 -1.427932 7.679485 1.162270 1.978854 9.886074 -2.319751 -32.447125 0.705206 36.242201 -8.063538 -5.355828 -62.936292 -1.381184 -7.265381 3.613033 -12.814067 -9.965376 7.439797 6.625418 0.229833 -0.753993 0.931380 -2.789810 2.934199 -18.915923 -0.309669 6.483723 -6.731775 0.876020 5.408475 -9.777912 2.017343 7.174344 1.528036 6.431037 9.712506 43.863607 5.533198 -2.743076 -0.879529 3.958386 22.477435 -21.027449 -21.054547 6.805084 6.398144 -3.229528 -20.328327 2.985680 -0.219883 9.425045 29.147807 6.409386 -16.940791 12.893059 11.190279 -6.333607 6.286945 38.802550 6.973466 -8.046940 9.566702 14.201017 1.865215 28.377975 -0.571476 -3.570704 26.134507 -5.370118 -6.168542 13.218617 6.190296 -10.215409 3.677318 15.366031 5.152295 29.606734 3.722114 9.889019 18.805079 -9.467545 9.128353 5.768775 -13.307062 0.963919 10.359954 -1.810921 9.874598 -2.099556 9.549663 -4.215536 40.470026 9.495199 -6.403580 23.288061 5.540953 -10.533485 -18.555936 7.332316 20.800991 55.030502 -11.711090 36.102295 44.002270 -53.857995
-0.009289 6.017533 0.070400 0.849151 35.614306 -0.054625 -0.741190 -0.295786 3.128557 -0.183449 -15.590039 -1.947066 1.473540 -4.777574 -1.845280 -2.110679 -9.537122 3.443298 3.200386 13.642202 3.481680 6.094969 -0.026932 6.618351 10.179981 11.748925 1.944509 0.881680 13.608304 3.373458 3.603835 37.531561 1.182740 5.899663 0.517576 0.454764 -7.860681 -8.538144 -23.829957 -9.841120 26.539253 0.666665 -1.639393 8.253880 1.263414 2.047288 9.578535 -2.703565 -31.971729 0.813631 36.613431 -7.766668 -5.108287 -62.845958 -1.523628 -7.155527 3.836804 -12.805576 -9.907984 7.565340 6.468378 0.051185 -0.814508 0.753074 -2.680058 2.949389 -19.143896 -0.356232 6.316955 -6.928789 0.695961 5.260243 -9.731756 1.885313 7.423509 1.393841 6.146971 9.518090 42.985538 4.405034 -2.006112 -0.441950 1.894761 25.424194 -21.163765 -18.662446 5.949732 5.731545 -4.224437 -20.621505 2.856703 -0.255570 9.706994 29.417299 6.257704 -15.658221 13.174796 11.614479 -6.471005 5.548588 39.272721 7.385197 -8.618564 10.603090 14.787592 1.755370 28.092994 -0.528769 -3.862049 26.238985 -4.971147 -6.032451 13.258710 5.433964 -11.238723 3.227370 15.588727 5.051885 29.459882 3.921966 10.002105 19.114861 -9.829745 8.831690 5.731232 -13.275755 0.796262 10.728571 -1.014550 9.952834 -2.076790 9.511998 -3.925352 39.697129 9.343714 -6.167106 24.262702 5.443995 -10.591259 -18.370371 7.358199 19.981870 54.149493 -11.054230 36.839674 44.697790 -55.020900
-0.021646 6.063708 0.068933 1.094155 35.478251 -0.367391 -0.890639 -0.467161 3.261418 -0.307341 -15.465354 -2.054494 1.420977 -4.764345 -1.766911 -2.140543 -9.560914 3.019973 3.181500 14.147704 3.894907 6.348850 0.067602 6.550238 9.972990 10.908931 2.462061 1.147917 13.671821 3.124681 4.699174 36.407131 0.278276 6.965230 0.270996 1.126795 -7.784215 -8.262491 -23.979701 -9.672547 26.338121 1.018971 -1.614460 8.643917 1.439689 2.227876 9.309428 -2.989696 -31.711477 0.956993 36.908635 -7.334138 -5.268615 -63.239390 -1.672957 -6.752759 4.273691 -12.833106 -9.767161 7.448514 6.494801 -0.296656 -0.652177 0.650689 -2.557860 2.945482 -19.814618 -0.271469 6.120466 -7.159590 0.318070 5.166870 -9.711993 1.969922 7.382157 1.269952 5.729608 9.419455 41.885184 3.079648 -0.860134 0.916378 -0.259579 28.527342 -21.084385 -15.545069 4.938440 5.070591 -4.719886 -21.010258 2.502413 -0.346494 10.070907 29.155965 6.108652 -14.927137 13.166807 11.262128 -6.743473 4.734220 39.846843 7.596690 -8.435694 11.195605 14.926284 1.896166 27.901401 -0.444239 -4.179899 26.492343 -4.518188 -6.280313 13.654983 5.025136 -11.835475 2.761390 14.530922 4.640356 28.826215 4.330071 10.286221 19.589904 -9.438278 8.998855 5.829207 -13.154026 0.588726 11.143711 -0.105717 10.010159 -2.173459 9.233053 -3.603474 38.118508 8.891950 -5.902488 25.310402 5.210288 -10.391132 -18.322612 7.128929 17.180325 51.886210 -8.849682 39.818587 46.438086 -58.390210
-0.034615 6.105294 0.057822 1.390490 35.568268 -0.820960 -1.089804 -0.618047 3.358163 -0.348330 -15.369841 -2.054314 1.400103 -4.964354 -1.676427 -2.168149 -9.673825 2.616624 2.939421 14.815276 4.459236 6.629341 0.153352 6.735031 9.585439 10.554150 2.710865 1.252802 13.854832 2.960416 5.555009 35.932794 -0.487148 7.921932 0.540268 1.770182 -7.647120 -7.975179 -23.915881 -9.619448 26.184009 1.117931 -1.583422 9.180483 1.768678 2.361455 8.901555 -3.187366 -31.486996 1.352278 37.232520 -7.056647 -5.671248 -63.353731 -1.876434 -6.589753 4.416183 -12.794909 -9.634404 7.218960 6.447774 -0.526426 -0.423004 0.558112 -2.788747 2.891518 -20.275468 -0.219488 6.205752 -7.411564 0.022282 5.121000 -9.639835 1.884849 7.241095 1.267950 5.185475 9.386972 41.040435 1.868107 0.577370 2.417099 -1.952812 30.410527 -21.328246 -14.002009 4.818327 3.937017 -4.955493 -21.031099 2.261396 -0.541033 10.379112 28.816431 6.004795 -13.989834 13.432814 10.876658 -6.900688 3.399085 40.796785 8.139730 -8.331876 12.132299 15.100143 1.565996 27.859820 -0.278100 -3.991577 26.485853 -4.360159 -6.783100 13.485619 4.412037 -12.259291 1.782362 12.793693 4.573384 29.049780 4.476015 10.532384 19.649951 -9.502739 8.655990 5.037953 -13.124496 0.421960 10.709472 0.616723 9.990472 -2.453809 9.153644 -3.068454 36.549754 8.611963 -5.710297 26.288496 5.532985 -10.463095 -17.985942 7.004892 16.036573 50.197972 -7.972498 40.292405 46.851036 -59.158979
-0.051627 6.136312 0.050194 1.664505 35.756625 -1.131818 -1.306846 -0.748717 3.538761 -0.417324 -15.498932 -2.114529 1.380422 -5.143235 -1.717334 -2.246555 -9.659797 2.412965 2.749309 15.163684 4.751734 6.833890 0.302936 6.833999 9.370261 10.690679 2.826956 1.370934 14.041739 2.754443 6.173662 36.102304 -0.999596 8.374676 1.349182 2.061375 -7.546464 -7.595528 -24.288297 -9.398657 26.117707 1.699882 -1.558926 9.470352 1.694593 2.595829 8.655736 -3.334886 -31.271902 1.629693 37.474746 -6.977462 -5.845591 -63.608802 -2.161445 -6.328640 4.504224 -12.914378 -9.544598 6.974515 6.622912 -0.657144 -0.287949 0.214847 -2.896214 2.850979 -20.863380 -0.062918 6.053599 -7.793878 -0.110088 4.902108 -9.593193 1.787528 7.131054 1.248931 4.807581 9.342613 40.255530 0.686325 1.895627 4.186717 -3.510537 32.386175 -21.651333 -12.764840 4.661962 2.627304 -5.523265 -20.668507 2.210815 -0.734273 10.567861 27.986205 5.600302 -13.237770 13.406628 10.148676 -7.135422 2.684575 41.877917 8.015784 -7.959398 12.975466 15.338542 1.484390 27.782499 -0.195292 -4.269741 26.383186 -4.669546 -7.615918 13.621280 3.880467 -12.442226 2.697237 12.359265 4.503020 28.941178 4.376182 10.446864 19.338406 -9.101265 8.852790 5.000022 -12.775395 0.754817 10.977873 0.826191 10.015062 -3.018817 9.229145 -2.545290 35.372368 8.338054 -5.375059 27.042643 6.261988 -10.543131 -17.846861 6.865466 15.226022 48.888050 -7.284343 39.542609 46.216358 -58.601762
-0.074582 6.159057 0.037873 1.998381 35.907580 -1.616024 -1.531146 -0.883534 3.700332 -0.467853 -15.608903 -2.119662 1.195855 -5.248038 -1.760433 -2.133045 -9.718439 2.302715 2.272601 15.588384 5.126055 6.712186 0.507547 6.799123 9.343499 10.919888 3.048292 1.448325 14.116029 2.574018 6.331257 36.166009 -1.372452 8.579870 2.304459 2.380162 -7.456736 -7.208320 -24.502273 -9.402812 25.835318 2.057114 -1.662659 9.836588 1.538695 2.816342 8.407317 -3.612078 -30.952884 1.716903 37.922228 -6.902983 -5.675986 -63.917956 -2.359291 -6.298600 4.338269 -12.785031 -9.682987 7.092432 6.598401 -0.785382 -0.398312 0.237691 -2.957005 3.228333 -21.152217 -0.156670 5.827319 -8.123462 -0.262355 5.038678 -9.604062 1.780338 6.818539 1.149784 4.554333 9.323556 39.635783 -0.531496 3.748464 5.772788 -4.633886 33.343572 -21.986013 -12.237758 4.311318 1.425738 -6.305874 -20.007624 2.393274 -1.010539 10.702615 28.132755 5.635455 -13.260920 13.410389 9.908166 -7.369805 1.980883 42.601573 7.526991 -7.943274 13.846852 15.968616 1.081802 27.565599 -0.236260 -4.652335 26.576020 -5.044015 -8.343141 13.207718 3.352210 -11.801991 2.366380 12.732996 4.402723 29.053052 4.569293 10.372032 19.661548 -8.792948 9.359650 5.442388 -12.406633 1.541436 10.416534 1.298760 10.054618 -3.656793 9.164658 -2.285108 34.265552 8.329331 -4.605614 27.702172 6.647586 -10.519516 -17.644218 6.846208 13.891762 47.379210 -6.140918 38.258262 46.086322 -57.249982
-0.089331 6.187332 0.011677 2.291360 36.057149 -2.008670 -1.726543 -0.990793 3.777017 -0.508506 -15.761888 -1.944876 1.104258 -5.289264 -1.956987 -2.020575 -9.830594 2.474880 2.091412 15.465583 5.140991 6.714124 0.580667 6.572402 9.350171 11.672106 3.551126 1.476374 14.178789 2.438606 6.145287 36.104083 -1.708443 8.421795 3.005911 2.446322 -7.372966 -6.928104 -24.758920 -9.181949 25.496208 2.223425 -1.546930 9.783170 1.207460 3.022953 8.247955 -3.927737 -31.079212 2.177274 38.207237 -7.050562 -6.002680 -64.105046 -2.364755 -5.830238 4.054100 -12.815634 -9.967269 7.158719 6.540704 -0.605526 -0.649300 -0.010413 -3.328577 3.485318 -21.534079 0.078669 5.707286 -8.698614 -0.157938 5.053014 -9.663881 1.629051 6.681880 1.182341 4.446751 9.281663 39.089400 -1.587755 5.240105 7.138305 -5.773636 34.407301 -22.179277 -11.499282 3.982492 0.545396 -7.071826 -19.226398 2.713592 -1.175904 10.647998 28.651231 5.292285 -13.081877 13.360324 9.407891 -7.496619 0.984053 43.098862 7.754692 -7.964221 14.761049 16.631395 1.004849 27.805284 -0.337152 -5.021802 25.990693 -5.346870 -8.712935 12.137656 2.432771 -12.226342 2.823593 13.859264 4.380433 29.085428 4.507344 10.170730 19.446524 -8.601487 9.573550 5.182384 -11.936929 1.900343 11.203852 1.327364 10.197656 -4.575364 9.110977 -1.929115 33.418594 8.420374 -4.396284 28.291153 7.944365 -10.835549 -17.026222 6.621776 12.837952 45.251851 -5.074772 36.242872 45.742107 -54.966962
-0.100178 6.218608 0.006134 2.422665 36.258860 -2.186640 -1.904451 -1.092473 3.773941 -0.521493 -15.898133 -1.835595 1.000947 -5.206677 -2.014833 -1.917416 -10.036042 2.343240 2.027937 15.135506 5.376275 6.625485 0.894354 6.555886 9.562760 12.332973 3.988655 1.270671 14.244533 2.635141 5.773152 36.575413 -1.839378 8.388148 2.938946 2.458849 -7.203075 -6.796334 -24.942728 -9.030494 25.284076 2.609015 -1.524092 9.470798 1.036564 3.157771 8.188007 -4.274571 -30.809536 2.392087 38.596441 -7.266633 -6.386660 -64.518629 -2.542798 -5.478753 3.972413 -12.709346 -10.555214 7.124351 6.730668 -0.355757 -0.808221 -0.182266 -3.358990 3.531336 -22.504193 0.014547 5.486900 -8.863565 -0.232882 4.925058 -9.855143 1.759189 6.691377 1.216939 4.322157 9.118495 38.592795 -2.360542 7.213352 8.409673 -6.634654 35.136476 -22.487808 -10.502578 3.148892 0.063500 -7.267426 -18.543717 3.192639 -1.565300 10.444674 30.173497 5.420450 -13.124631 13.143995 9.125416 -7.478348 -0.024196 42.555733 7.377387 -7.670353 15.945285 17.102889 0.785912 27.979488 -0.685318 -5.734495 25.717355 -6.173897 -8.870457 11.545623 1.733265 -13.840648 2.716851 14.329480 4.489865 29.380546 4.477348 10.062236 20.082968 -8.764986 9.820568 5.446452 -11.961428 2.001427 11.433116 0.865232 10.461503 -5.749584 9.181769 -1.387447 32.745901 8.599039 -4.489748 28.233742 9.962953 -11.089810 -16.435388 6.525940 12.112596 43.477627 -4.554342 34.034668 45.276107 -52.382781
-0.111054 6.246170 0.003040 2.590875 36.439413 -2.441557 -2.114738 -1.212218 3.776069 -0.487798 -16.077974 -1.819385 0.965612 -5.265482 -1.979283 -1.813344 -10.107426 2.295928 2.069805 14.809064 5.464878 6.800879 0.920315 6.515913 9.674747 13.878828 4.561425 1.017528 14.243665 2.969601 5.129210 36.646040 -1.786130 8.210775 2.399473 2.221579 -7.114601 -6.725865 -25.157837 -8.841079 24.780305 3.104040 -1.441788 9.135186 0.942801 3.295299 8.029909 -4.431294 -30.652560 2.676738 39.029150 -7.201207 -6.222988 -64.514458 -2.449575 -5.630062 3.504218 -12.709038 -10.864151 7.182275 6.904606 -0.315290 -0.873650 -0.240482 -3.332561 3.701655 -22.546428 -0.250588 5.300138 -9.172621 -0.280997 4.935093 -9.702309 2.099182 6.801050 1.145089 4.184758 9.142103 38.096090 -3.005408 9.200195 9.344160 -7.180041 35.193180 -22.734782 -9.712236 2.385390 -0.102482 -7.441026 -18.148049 3.384005 -1.678435 10.631238 31.896293 5.473747 -13.636862 12.952769 8.603797 -7.354530 -1.171463 42.231012 7.495499 -7.836800 16.957345 17.281296 0.823558 28.051932 -0.804409 -6.397235 25.275375 -6.262145 -9.406350 10.628121 0.923375 -15.445381 2.275101 13.296522 4.438474 29.290710 4.406274 10.001902 20.186819 -8.305329 10.102045 5.566167 -12.088119 2.096406 11.069722 0.983806 10.648959 -6.835412 9.146960 -1.008200 32.709209 8.536041 -4.666059 28.719015 10.601798 -11.298637 -15.715067 6.362902 11.421404 41.626815 -3.874096 31.879974 44.754442 -49.939260
-0.120294 6.265378 0.005462 2.615766 36.509959 -2.560917 -2.146336 -1.377514 3.788535 -0.494050 -16.117388 -1.705665 0.913384 -5.275924 -2.011887 -1.775955 -10.057156 2.218638 2.092646 14.591616 5.392017 6.801245 1.066538 6.553820 10.050410 15.891453 4.836896 0.517625 14.124894 3.298993 3.439621 37.371646 -1.672919 8.259372 1.801292 2.283152 -7.252547 -6.402017 -25.573438 -8.588895 24.439052 3.286916 -1.406739 8.779175 0.634579 3.381111 7.970838 -4.658543 -30.568078 2.963442 39.351220 -7.413193 -6.367850 -64.779962 -2.391761 -5.596724 3.438546 -12.585010 -10.773432 7.132408 7.071909 -0.773337 -0.932529 -0.273561 -3.327317 3.726290 -23.128174 -0.086154 5.393463 -9.292102 -0.066524 4.990718 -9.759775 2.283064 6.701865 1.054752 4.176757 9.183231 37.884267 -3.408120 10.712446 10.635242 -7.884132 35.859206 -23.200608 -9.041562 1.886767 -0.127197 -7.741668 -17.467125 3.832179 -1.908382 10.590289 33.455152 5.883897 -14.141353 12.627219 8.153851 -7.417476 -2.197466 41.520407 7.239912 -7.734860 18.439403 17.639994 0.690704 28.406264 -1.179666 -6.162652 24.711213 -7.092324 -9.766742 9.851464 0.793790 -15.905617 1.989218 11.534529 4.571688 29.504766 4.132201 9.575339 20.436340 -8.314500 10.348213 5.329911 -12.072163 2.274959 10.411936 0.722647 10.944977 -8.023762 9.155293 -0.411661 32.479815 8.432038 -4.297219 27.304266 11.363182 -11.521576 -14.706603 6.144443 10.738769 39.731257 -3.116083 29.924650 44.162435 -47.507901
-0.134727 6.282423 0.008590 2.607932 36.734982 -2.620177 -2.175415 -1.584009 3.773349 -0.540111 -16.113738 -1.647402 0.931435 -5.324207 -2.011539 -1.660826 -10.153671 2.268276 2.133443 14.231209 5.244766 6.805742 1.338222 6.556949 10.642925 18.365363 5.258105 -0.149442 14.203266 3.558472 0.989870 38.869122 -0.967276 7.813869 1.475584 2.147679 -7.442601 -6.162340 -25.850828 -8.457450 24.442671 3.233507 -1.490877 8.360036 0.263588 3.526934 7.860570 -4.903104 -30.546392 3.460940 39.629914 -7.678619 -6.877035 -64.945589 -2.472657 -5.459062 3.081826 -12.457461 -10.956682 7.172333 7.111913 -1.003398 -0.897538 -0.416379 -3.379281 3.892889 -23.869039 -0.023399 5.077547 -9.532693 0.053738 4.867531 -9.632297 2.261070 6.751115 0.986731 4.120278 9.253350 37.853907 -3.984936 12.389748 11.485105 -8.282825 36.116255 -23.227977 -8.178943 1.479133 -0.277264 -8.211684 -16.918540 4.120290 -2.229444 10.762439 35.653473 6.750988 -15.388744 11.952533 7.573293 -7.359822 -2.764449 41.259342 7.155774 -8.073337 19.235492 17.950745 0.497166 28.562543 -1.247201 -6.609223 24.186066 -7.311841 -9.706791 9.914313 1.169962 -15.478106 2.340057 11.180305 4.593729 29.584709 3.812302 9.680147 20.216626 -7.938786 10.650940 5.785411 -12.367332 2.516485 10.302029 0.433371 11.180874 -9.139427 9.184035 -0.188569 32.683403 8.629349 -4.010425 27.424609 11.996357 -11.803391 -13.360777 6.030488 9.955684 37.015999 -2.489204 29.810246 44.651931 -47.054906
-0.163739 6.299949 -0.002809 2.485051 36.867778 -2.425836 -2.154444 -1.830351 3.679044 -0.603048 -16.029991 -1.582645 0.992956 -5.421847 -2.079518 -1.577220 -10.144535 2.256182 2.183720 14.023136 4.986309 6.787718 1.686941 6.568437 11.717781 21.618052 5.654024 -0.981345 13.966033 3.915747 -3.756268 41.681738 0.483883 7.436648 2.566978 2.859093 -7.805339 -6.076618 -26.144945 -8.299164 24.431903 3.126591 -1.648543 8.020271 -0.243029 3.728803 7.757499 -5.175003 -30.469831 3.411952 40.033481 -7.690496 -6.820457 -65.168190 -2.645598 -5.567431 2.800966 -12.344947 -11.074329 7.259966 7.306405 -1.061066 -0.887195 -0.413659 -3.497231 3.857622 -24.384663 -0.073814 5.326561 -9.646146 0.104043 4.882706 -9.569798 2.099044 6.729902 0.930861 4.120561 9.256119 37.479466 -4.563287 14.425496 12.244733 -8.145913 35.953752 -23.332515 -8.025547 0.607474 -0.213394 -9.038386 -16.796189 4.720930 -2.365509 10.806046 37.170947 7.709137 -16.328916 11.358987 7.337244 -7.130996 -2.894645 41.509799 6.643059 -8.327300 20.152202 17.820085 0.450858 28.677252 -1.582305 -6.313099 24.154795 -7.206780 -9.533051 9.444286 1.203060 -14.441323 1.093411 9.650101 4.693263 29.444276 3.466037 9.397587 20.600482 -7.850410 10.979925 5.886476 -12.070677 2.705159 9.939708 0.193999 11.613908 -10.771034 9.094374 -0.122011 33.919303 8.781153 -3.739394 27.269931 12.243425 -12.034108 -12.180483 5.848789 9.459094 35.044236 -2.163106 28.446789 43.816336 -45.429951
-0.179154 6.321023 0.001744 2.418564 37.065077 -2.314293 -2.070036 -2.087982 3.494634 -0.672493 -15.923703 -1.387683 0.940191 -5.533066 -2.296655 -1.435842 -10.147540 2.443140 2.338681 13.849755 4.582477 6.983219 1.983404 6.439799 12.750791 25.232178 6.385286 -1.820658 14.096699 4.288162 -9.502702 44.783831 2.340122 5.283642 5.688679 3.430131 -8.438914 -5.721375 -26.829549 -8.052189 24.444188 3.080088 -1.733478 7.941803 -0.714576 3.831855 7.707983 -5.395006 -30.401647 3.703878 40.256204 -7.828737 -7.206427 -65.421021 -2.616653 -5.545011 2.564847 -12.069536 -11.512091 7.329600 7.365940 -1.047831 -0.912478 -0.277920 -3.618340 4.006158 -24.494544 -0.140306 5.276116 -9.728094 -0.172784 4.895190 -9.558345 2.214763 6.543500 0.944995 4.001022 9.252700 37.714731 -5.068335 15.961441 13.269186 -8.291578 35.936276 -23.494698 -7.061033 0.260308 -0.135045 -9.698261 -16.540794 5.313604 -2.725148 10.984632 39.664404 9.139841 -17.778815 10.449759 6.865230 -6.895207 -3.394979 41.366605 6.808966 -8.675224 20.721994 18.192961 0.387090 29.022107 -1.815248 -6.338680 23.552378 -7.586902 -8.916486 8.941063 1.746352 -13.720827 1.301423 9.446533 4.744251 29.584002 3.225288 9.311179 20.288862 -8.040356 10.749109 5.754824 -12.196616 2.735175 9.773273 0.063465 11.932850 -12.058758 9.123463 -0.211045 34.777255 8.852598 -3.436542 26.939417 12.228339 -12.339967 -11.013454 5.542971 8.978349 32.679756 -1.666916 27.641301 43.676797 -44.431864
-0.193764 6.343789 0.016164 2.327598 37.165434 -2.096019 -1.991859 -2.530636 3.279267 -0.689280 -15.691188 -1.106422 0.975956 -5.671597 -2.609241 -1.411832 -10.027506 2.590759 2.510117 13.909210 4.222290 7.121035 2.142613 6.392164 13.715436 27.836438 6.912023 -2.761233 14.280980 4.731930 -14.758003 46.656044 4.342232 1.175267 8.799486 2.721186 -8.732279 -5.351582 -27.125303 -7.952360 24.383783 2.996139 -1.671714 7.994971 -0.912502 3.894567 7.677559 -5.681264 -30.242262 3.816825 40.362492 -8.094557 -7.137199 -65.457478 -2.867100 -5.342724 2.012089 -11.827992 -11.857707 7.572740 7.372200 -1.162524 -1.025783 -0.219825 -3.892533 4.194882 -24.867173 -0.287015 5.377725 -9.602883 -0.527093 5.055122 -9.370165 2.483618 6.684132 1.021094 3.945962 9.219284 37.487564 -5.219964 17.391718 13.940553 -8.361477 36.037273 -23.161624 -6.598541 -0.667764 0.164078 -10.424799 -16.359839 5.846505 -3.118006 11.137053 40.912300 10.365842 -18.981386 10.239053 6.967526 -6.962823 -4.315559 41.735088 7.404930 -8.932045 21.428931 18.011635 0.569467 29.183158 -2.160351 -6.059639 23.194835 -7.290632 -8.799735 8.248972 2.005915 -13.233087 1.658275 9.121333 5.143707 29.423278 2.837720 9.291941 20.669459 -8.031878 10.508626 5.629084 -11.943858 2.265674 9.438774 0.082324 12.099510 -13.683040 8.906874 0.027887 36.018753 9.022473 -3.157037 26.217742 12.297425 -12.702006 -9.745730 5.131657 8.655425 30.334487 -1.343598 26.481457 43.320692 -43.053526
-0.203056 6.360105 0.017821 2.133203 37.360865 -1.768617 -1.934529 -2.800467 3.117041 -0.657041 -15.717639 -1.022863 0.909869 -5.776603 -2.719155 -1.321047 -9.874549 2.697672 2.638799 13.923918 3.730446 7.358817 2.109287 6.219156 14.174703 29.620800 6.985859 -3.597236 14.360386 4.935661 -20.791231 47.779870 6.147352 -3.319767 11.580315 1.557238 -9.173507 -4.949523 -27.585632 -7.881592 24.349756 3.030536 -1.783212 8.036141 -1.267817 3.892425 7.712345 -5.832338 -30.061128 3.868658 40.559291 -8.267310 -7.065419 -65.440125 -2.902789 -5.442599 1.639636 -11.728528 -11.955978 7.652562 7.608384 -1.260619 -1.046114 -0.205376 -3.977032 4.244101 -25.070742 -0.346288 5.405301 -9.585115 -0.670812 5.089713 -9.383547 2.276227 6.474250 1.107024 4.051507 9.459953 37.457585 -5.516337 18.857123 14.259017 -8.221313 35.593534 -22.850372 -6.244749 -1.258188 0.268216 -11.125961 -16.134004 6.301652 -3.281754 11.529883 41.816630 11.237080 -20.016078 10.084829 7.184065 -7.166761 -5.440491 41.542535 7.926257 -9.508727 22.041912 18.237713 0.635752 29.261929 -2.272745 -6.174336 22.900345 -7.390907 -8.473842 7.700447 2.293826 -12.861417 1.321487 8.802020 5.161087 29.204301 2.607227 9.237634 20.197670 -7.860949 10.203817 6.015918 -12.319883 1.596278 9.002789 -0.449408 12.391250 -15.274382 8.887036 0.073175 37.581570 8.941136 -3.292284 25.060012 12.465875 -13.115755 -8.494504 4.844386 8.537799 28.374980 -1.121036 25.666821 43.228746 -41.897623
-0.214312 6.376715 0.017600 2.042008 37.474714 -1.583272 -1.886025 -3.112172 3.067953 -0.625863 -15.570335 -1.013276 0.899223 -5.992356 -2.624312 -1.237393 -9.705346 2.465634 2.783385 13.798591 3.186763 7.772206 1.729969 6.142269 14.586968 30.980205 7.163868 -4.232365 14.502176 4.925027 -24.310928 48.162759 7.308015 -5.888055 12.813950 0.643665 -9.560678 -4.799454 -27.730077 -7.834802 24.563028 2.898225 -1.785801 8.074925 -1.563544 3.965017 7.756469 -5.946552 -29.881082 3.893417 40.456432 -8.052953 -6.692671 -65.155918 -2.903624 -5.977391 1.242330 -11.552699 -11.885422 7.527542 7.660587 -1.460243 -0.753902 -0.132919 -3.954305 4.265755 -25.099173 -0.582750 5.629189 -9.608897 -0.784147 4.981812 -9.380293 2.273894 6.557125 1.239021 4.066213 9.613006 37.801299 -5.908098 20.295600 14.607862 -7.840943 35.183512 -22.817279 -5.999807 -1.914532 0.296826 -11.805300 -16.188059 6.601296 -3.421270 11.843252 42.472638 11.871874 -20.748075 10.017944 6.974413 -7.167808 -6.452187 42.054415 8.519745 -9.746586 22.775535 17.893129 0.835631 29.258047 -2.195262 -6.218391 23.351228 -7.213927 -8.987482 7.517233 2.486681 -12.835769 1.137007 9.231554 5.446845 29.147172 2.374748 9.201730 20.117233 -8.122739 10.058315 6.415823 -12.325598 0.944464 9.341214 -0.703965 12.602287 -16.601215 8.971542 0.026760 39.058423 9.322988 -3.489764 24.367165 12.344586 -13.395830 -7.237700 4.601676 8.349258 25.928351 -0.922392 25.364080 43.747106 -41.447791
-0.225994 6.396161 0.030382 1.929181 37.554545 -1.380917 -1.917632 -3.372992 3.057777 -0.577149 -15.409649 -0.913393 0.903634 -6.387562 -2.581389 -1.213655 -9.335638 2.232679 2.902608 13.884412 2.664204 8.269429 1.259574 6.204658 14.985761 31.824417 7.295407 -4.711119 14.609603 4.913016 -26.243962 48.017002 7.961914 -7.807759 13.826656 0.088673 -9.872353 -4.622062 -27.989378 -7.900001 24.844514 2.976641 -1.801327 8.412861 -1.757635 4.018727 7.853680 -6.121013 -29.750569 3.646881 40.423320 -8.047058 -6.458678 -65.112357 -3.277356 -6.072669 1.038772 -11.237834 -11.981240 7.583980 7.552796 -1.288536 -0.919165 -0.009147 -4.076379 4.161001 -25.172867 -0.664303 5.690208 -9.605260 -0.556437 4.848398 -9.151583 2.235552 6.612640 1.413151 4.135370 9.903901 37.807068 -6.175363 21.342888 14.838428 -7.908181 34.757489 -22.218921 -5.682736 -1.955498 0.401036 -12.401253 -16.081136 6.810717 -2.977178 12.254136 42.312699 11.623754 -21.022752 10.213055 6.941044 -6.997490 -7.020827 42.283258 8.764088 -10.053791 23.510149 17.634373 0.893080 28.884767 -2.067833 -6.337682 23.081470 -7.116139 -8.682733 7.373049 2.102963 -12.070390 1.884416 8.462059 5.473257 29.018969 2.131536 9.481614 19.942573 -8.130620 9.942630 6.172439 -12.258729 0.336711 9.146852 -1.353809 12.864539 -18.416910 8.993100 -0.475225 41.624822 10.082106 -4.329666 22.739832 12.768615 -13.748188 -6.114104 4.482432 8.336608 24.197433 -0.836359 24.519711 43.498966 -40.580020
-0.234844 6.406869 0.042853 1.874218 37.631703 -1.230613 -1.898428 -3.669888 3.047873 -0.520081 -15.228885 -0.852324 0.834954 -6.742037 -2.511685 -1.154858 -9.108015 1.972429 3.079175 13.689618 2.110193 8.802229 0.616828 6.299053 15.099761 31.255224 6.752623 -5.166250 14.553686 4.818632 -26.716522 47.333843 8.264706 -8.505785 13.839578 0.813325 -10.051958 -4.781228 -28.000978 -7.953323 25.181840 3.053753 -1.769864 8.400718 -1.880956 4.130048 7.905750 -6.284003 -29.747708 3.455178 40.282708 -7.706917 -6.195305 -64.941832 -3.186142 -6.311384 0.682822 -10.982511 -11.969046 7.636944 7.446826 -1.147352 -0.759529 -0.080405 -3.998111 4.278526 -25.300785 -0.870387 5.580776 -9.475405 -0.682969 4.793730 -9.121135 2.286151 6.627068 1.636413 4.064738 10.235406 38.030958 -6.550351 22.411190 14.841150 -7.348496 33.940352 -22.279381 -5.739239 -2.380531 0.522154 -12.762147 -15.836949 6.953544 -3.092069 12.583286 42.412595 11.206105 -21.704163 10.262629 6.987139 -6.615079 -7.354885 42.915782 8.798233 -10.375547 24.060005 17.073124 1.337786 28.360449 -1.983473 -6.576134 23.293561 -6.674998 -9.025636 7.768649 1.876446 -11.595821 2.248841 8.268842 5.564285 28.328429 1.995954 9.436504 19.746831 -8.229653 9.582337 6.959707 -12.651169 -0.152766 8.699352 -2.124576 13.092943 -20.173365 9.069302 -1.024779 44.434547 10.802713 -5.199288 21.100820 12.445180 -14.117912 -5.267906 4.255202 8.439369 23.028724 -0.671500 24.155761 43.434910 -40.102999
-0.239823 6.415032 0.054718 1.823448 37.697812 -1.039182 -1.919123 -3.893007 3.063077 -0.502157 -15.007717 -0.788058 0.800896 -7.103899 -2.571104 -1.189328 -8.966790 1.734441 3.107633 13.310802 1.453213 9.343041 -0.128549 6.255770 14.982263 30.438582 6.324015 -5.531853 14.481289 4.748726 -26.075825 46.030152 7.817845 -7.711331 12.380854 2.064605 -10.339978 -4.792894 -28.077373 -8.022590 25.595790 3.176947 -1.695615 8.436884 -1.844700 4.138092 7.974015 -6.320691 -29.726815 3.285874 39.926878 -7.553891 -6.139702 -64.476364 -3.293347 -6.071845 0.334045 -10.859105 -11.905947 7.610680 7.525840 -1.503036 -0.831884 -0.154566 -4.272603 4.314682 -25.659641 -0.877355 5.695611 -9.412740 -0.704523 4.815432 -8.926017 2.275156 6.597577 1.776869 3.999474 10.527191 38.355499 -6.992873 22.892749 15.323647 -7.107661 33.708076 -21.929565 -5.094005 -2.040265 0.722499 -12.584682 -15.898007 6.986068 -2.490202 12.587005 42.060379 10.751916 -21.713055 9.930192 6.811290 -6.189495 -7.394145 43.662693 8.621311 -10.634653 24.607765 16.565513 1.464371 27.799285 -1.878933 -6.948213 23.212398 -6.559267 -8.582624 8.147267 1.605801 -11.028832 2.715634 7.715381 5.626394 28.086058 1.799927 9.687515 19.743753 -8.213072 9.339151 7.042740 -12.426964 -0.241141 8.285955 -1.988036 13.243492 -21.561470 9.116582 -1.833031 46.914234 11.724637 -5.877334 20.202200 11.877631 -14.517052 -4.154433 3.990181 8.576417 21.599205 -0.495160 23.325854 43.002721 -39.182677
-0.244134 6.421282 0.055031 1.752599 37.985515 -0.807118 -1.979810 -4.096857 2.976934 -0.537129 -14.994288 -0.748283 0.826720 -7.360499 -2.579282 -1.186186 -8.903563 1.448436 3.133581 13.154734 0.899263 9.868139 -0.753477 6.309223 14.516988 28.642518 5.990603 -5.541828 13.909888 4.638143 -23.285733 44.099756 7.005589 -5.821905 10.802121 3.217213 -10.084779 -5.061686 -27.804751 -8.065797 25.810611 2.972500 -1.575244 8.610847 -1.732130 4.201957 8.033878 -6.292753 -29.571887 3.139170 39.327029 -7.307541 -6.072667 -64.043307 -3.246408 -6.012549 -0.141595 -10.673625 -12.220012 7.826576 7.495270 -1.346047 -0.723446 -0.298841 -4.673971 4.422904 -25.755573 -0.913508 5.892260 -9.321342 -1.047120 4.808763 -8.865315 2.307244 6.443264 1.892207 3.983473 10.885755 38.645174 -7.408396 23.232457 15.363469 -6.916147 33.509587 -21.663209 -4.852065 -2.245365 0.667119 -12.756432 -15.772287 6.830820 -2.318131 12.651996 41.711532 10.420938 -21.250626 9.861245 6.700553 -6.095071 -7.779172 44.297145 9.290366 -10.481644 24.717020 15.969552 1.798548 27.388753 -1.845948 -6.863980 23.079391 -6.114800 -8.493193 8.353496 1.131027 -10.176311 2.956304 7.533326 5.591331 27.756535 1.792252 9.515280 19.417057 -8.057095 9.199438 6.763333 -12.117848 -0.148796 7.741558 -1.050762 13.566139 -23.728729 9.218960 -2.910643 51.204382 12.640196 -7.829515 19.895269 11.266022 -14.830532 -3.493623 3.985626 8.831861 20.725924 -0.645068 23.004265 42.823722 -38.567636
-0.239972 6.436254 0.056668 1.698969 37.996699 -0.753979 -2.021157 -4.085290 2.998151 -0.475922 -14.984516 -0.796642 0.778394 -7.480620 -2.462351 -1.196379 -8.871114 1.237379 3.070792 12.672272 0.479439 10.260194 -1.498237 6.234662 13.686243 26.399560 5.712185 -5.578409 13.881026 4.370100 -18.320240 41.131523 5.185607 -2.336977 9.722822 4.382070 -9.918874 -5.463908 -27.390303 -8.110319 25.996024 3.041976 -1.570050 8.281931 -1.665852 4.143099 8.174573 -6.145477 -29.574516 2.826509 38.819970 -6.883317 -5.920261 -63.453036 -2.888447 -5.778333 -0.411185 -10.638252 -12.249797 7.813013 7.595601 -1.188192 -0.721157 -0.484800 -4.917662 4.470190 -26.121345 -0.780477 6.035357 -9.375643 -1.411208 4.856870 -8.779930 2.565813 6.531968 1.829306 4.159199 11.133472 39.133215 -7.740523 23.230110 15.011863 -6.535403 33.331044 -21.251590 -4.952106 -1.995153 0.738380 -12.398771 -15.885722 6.609569 -1.502370 12.367654 40.618091 10.103255 -20.062925 9.674680 6.289875 -6.068895 -7.475122 44.956764 9.230812 -10.869424 24.768468 15.764624 1.956641 27.401192 -1.802891 -6.947969 22.712520 -5.838761 -7.893058 8.675930 1.176617 -8.866672 3.013757 7.443763 5.499542 27.478249 1.770499 9.245654 19.425220 -7.810395 9.506271 6.379073 -11.242007 0.323603 7.514531 -0.443685 13.688072 -25.452614 9.321380 -4.281170 55.030862 14.236465 -8.902424 19.099841 10.530653 -15.095100 -2.823170 3.990130 8.971742 20.247019 -0.647093 22.644882 42.620263 -38.137080
-0.230448 6.444431 0.072378 1.629598 38.014392 -0.685497 -1.958326 -4.041374 3.043776 -0.507883 -15.058977 -0.821606 0.742269 -7.520978 -2.470474 -1.203381 -8.877443 1.161449 2.958625 12.476449 -0.240611 10.204343 -1.915532 6.064858 12.330283 22.913429 5.701283 -4.933299 13.129778 3.891750 -12.269501 38.207606 2.692990 1.535278 8.669859 5.009953 -9.588613 -5.827054 -27.096578 -8.412104 26.011084 3.295199 -1.562856 8.262800 -1.653679 4.210105 8.281646 -5.898328 -29.737181 2.510934 38.204104 -6.486608 -5.599701 -62.715437 -2.849373 -5.851978 -0.796243 -10.404710 -12.091569 7.879262 7.580633 -1.169477 -0.817852 -0.440391 -4.962953 4.515283 -26.188831 -0.979134 6.310006 -9.217621 -1.502846 4.800203 -8.734238 2.531670 6.571399 1.872275 4.327442 11.125833 39.644336 -7.851211 23.282736 14.673581 -6.387518 33.200288 -20.883956 -4.875085 -1.588367 0.774311 -12.443350 -16.111177 6.393958 -1.090175 12.369557 39.071910 9.630775 -19.119381 9.641758 6.270187 -5.940833 -7.644778 45.096573 9.624508 -11.045564 24.589331 15.429880 2.134515 27.194162 -1.520956 -6.749890 22.889764 -5.759614 -7.708898 8.841110 1.031141 -8.556517 3.608117 7.375047 5.278871 27.493971 1.968051 9.055044 19.164101 -7.716130 9.438207 6.650321 -10.891682 0.696947 9.592774 0.584346 13.799651 -27.319083 9.478135 -5.718176 58.699348 15.981177 -10.123295 18.386306 9.915573 -15.441678 -2.059519 3.963884 9.123200 19.874924 -0.357443 22.790197 42.027323 -38.195001
-0.226640 6.443746 0.077097 1.574283 37.951895 -0.694126 -1.973615 -3.910486 3.105807 -0.569793 -15.057670 -0.881344 0.916802 -7.580240 -2.331209 -1.276819 -8.998143 1.065330 2.859661 12.134431 -0.810197 10.016316 -2.068875 6.012279 10.960430 19.662696 5.796772 -4.134482 12.450688 3.186421 -5.053242 34.412764 -0.190966 4.622904 6.383559 4.568455 -9.523604 -6.000922 -26.926818 -8.304506 26.286128 3.662351 -1.530355 8.182378 -1.600359 4.307041 8.537848 -5.726597 -29.812485 2.099671 37.383933 -5.892039 -5.519152 -61.796920 -2.748470 -5.965328 -0.954479 -10.216538 -11.853842 7.961103 7.603615 -0.853634 -0.877724 -0.643802 -5.000047 4.596610 -26.105135 -0.788872 6.504174 -9.135531 -1.400288 4.835172 -8.438424 2.691973 6.576081 2.001607 4.544128 11.057976 39.686339 -7.842191 22.991329 13.978982 -5.984572 33.088068 -20.279701 -5.201520 -1.264445 1.317225 -12.043847 -16.277730 6.025709 -0.463094 12.142656 37.596517 9.074066 -17.643087 9.706147 6.419581 -6.126685 -7.813478 45.390739 10.127703 -11.544625 24.380433 14.936215 2.391371 27.081475 -1.275318 -6.615832 22.733531 -5.692749 -7.651454 9.175878 0.965493 -8.407938 3.958147 6.699453 5.185508 27.410890 2.009689 9.028412 19.206860 -7.496227 9.790408 6.732779 -10.345122 1.387228 11.174326 0.952410 13.923668 -29.190715 9.620325 -7.586633 62.636717 17.974832 -11.427498 17.264764 9.569839 -15.840777 -1.347870 4.091225 9.482105 19.992439 -0.299656 22.963993 41.341810 -38.446861
-0.207034 6.443817 0.090914 1.612901 37.826467 -0.832956 -1.944277 -3.790969 3.069080 -0.537712 -14.878630 -0.796892 1.052612 -7.568012 -2.211165 -1.369359 -9.112327 1.073134 2.718005 11.906158 -1.173930 9.808771 -2.280092 6.040191 9.663750 16.630426 5.875904 -3.189490 11.668356 2.412365 -0.566063 31.735665 -2.370705 7.988818 3.074787 4.303084 -9.145547 -6.784383 -26.466002 -8.440789 26.186802 4.091750 -1.589789 7.861229 -1.414593 4.252624 8.570380 -5.494167 -30.154389 1.916312 36.802281 -5.437888 -5.760669 -61.251155 -2.836881 -5.868957 -1.101980 -9.987847 -11.748287 7.955456 7.392765 -0.504128 -0.927575 -0.636078 -4.835004 4.647084 -25.994390 -0.645160 6.771285 -9.183986 -1.646259 4.916853 -8.630402 2.660467 6.530675 2.068334 4.666838 10.845987 39.316681 -7.659969 22.419127 13.403350 -5.629619 33.297894 -19.627366 -5.906660 -1.073555 1.769081 -11.807671 -16.208471 5.600688 -0.172201 11.886046 35.917121 8.428051 -16.373178 9.914366 6.653476 -6.379414 -8.104210 45.119687 10.893033 -12.063921 24.360759 15.230039 2.609473 26.835488 -1.039520 -6.489911 23.277894 -5.917125 -7.758950 9.393426 0.586664 -8.458687 3.654858 6.834167 4.957481 27.175491 2.053058 8.624692 19.187951 -7.656570 9.882095 6.715773 -9.954300 1.719403 11.671766 0.805013 13.799092 -30.772658 9.670010 -10.190861 66.194572 20.977030 -11.705586 15.885821 8.222061 -16.334937 -0.783512 4.265126 9.879946 21.034880 -0.074068 23.294372 40.534870 -38.745401
-0.191363 6.435070 0.098500 1.613973 37.574353 -0.970242 -1.885415 -3.635482 3.083640 -0.500124 -14.796147 -0.744554 1.049275 -7.444235 -2.085351 -1.400998 -9.467341 1.060470 2.697745 11.157224 -1.546193 9.369061 -2.125257 6.167163 8.727534 13.914233 5.935648 -2.562145 11.205310 1.947768 1.368717 30.136587 -3.318000 8.286808 1.621364 3.438372 -8.734506 -7.390968 -25.956627 -8.748338 25.980366 4.547709 -1.698642 7.528576 -1.166822 4.204673 8.664383 -5.250436 -30.657084 1.539849 36.415042 -5.209510 -5.858654 -60.571137 -2.877339 -5.555672 -1.171957 -10.051200 -11.594063 7.763037 7.552726 -0.396940 -0.823703 -0.775464 -4.863814 4.654859 -25.818336 -0.688486 7.154667 -9.022333 -1.665032 4.888014 -8.773352 2.404165 6.617439 2.047371 4.826969 10.686977 39.329309 -7.501913 21.770992 12.854670 -5.435367 32.957764 -18.977850 -6.143047 -0.561974 2.221132 -11.418219 -15.828938 5.328056 0.083436 11.567168 34.073263 7.778838 -14.778069 9.946428 6.645008 -6.446347 -8.883579 44.764590 12.235584 -12.319916 24.232555 15.035710 2.792290 26.629022 -0.724380 -6.716426 23.915653 -5.921357 -7.842665 9.609312 0.550872 -8.728203 4.005349 6.495053 4.829757 27.299706 2.133991 8.468216 19.356074 -7.469736 10.364688 6.881878 -9.975149 2.818769 10.676218 0.190728 13.799050 -31.870531 9.640590 -12.486637 68.922787 23.050167 -11.641606 15.509978 7.838609 -16.854145 -0.060637 4.349099 10.311694 21.773153 -0.025046 23.660670 40.764756 -39.113050
-0.174212 6.428575 0.118738 1.566538 37.466027 -1.131195 -1.731970 -3.533240 3.149888 -0.517569 -14.804167 -0.770837 1.089504 -7.258424 -1.991433 -1.501533 -9.626612 1.072900 2.619971 10.758197 -1.706584 9.158885 -2.101448 6.172452 8.010615 12.426348 5.794049 -1.980402 10.533388 1.364471 2.569396 29.226447 -3.786194 7.665344 0.646259 2.496771 -8.337683 -8.033147 -25.600591 -8.989030 25.913841 5.116619 -1.761481 7.430361 -1.071320 4.061745 8.826131 -5.051022 -30.804083 1.137578 35.985633 -4.828103 -6.042608 -60.024665 -2.893750 -5.054373 -1.203712 -10.036052 -11.580404 7.850131 7.731751 -0.285981 -0.981347 -0.841514 -4.869185 4.748594 -25.230928 -0.585847 7.296249 -9.138517 -1.910223 4.846605 -8.844891 2.348814 6.812111 1.908113 5.107929 10.662853 38.757848 -7.306425 20.630744 12.332816 -4.943587 33.305292 -18.474177 -6.807432 -0.465882 2.486204 -11.238571 -15.623792 5.132344 0.233371 11.166647 31.478043 7.000835 -12.725472 10.148509 7.322239 -6.583797 -9.087347 43.847585 13.002205 -12.565066 23.941154 14.779219 2.889426 26.623292 -0.613124 -6.649427 24.149946 -6.049628 -7.503793 10.049025 0.906877 -8.552030 3.927595 6.460833 4.688822 27.272349 2.208562 7.956055 19.077484 -7.573299 10.278387 6.851302 -9.843845 3.221512 10.624296 -0.691621 13.883393 -33.057659 9.676864 -15.479153 71.632481 25.979877 -10.979219 14.697529 6.788959 -17.149598 0.325510 4.354312 10.347683 23.322004 -0.130111 24.630003 40.846623 -40.102175
-0.153294 6.434664 0.143972 1.408518 37.233439 -1.270846 -1.534447 -3.339348 3.282297 -0.520887 -14.767642 -0.881875 1.148686 -7.057524 -1.846032 -1.587436 -9.724443 1.190106 2.504344 10.352922 -1.802853 8.811960 -1.900007 6.092756 7.237040 10.830434 5.825520 -1.589866 10.266217 0.932917 3.098388 28.851601 -3.960028 7.009827 -0.348822 1.795467 -8.091549 -8.286272 -25.241261 -9.056671 25.613519 5.437953 -1.891538 7.073198 -1.192452 3.867803 8.863423 -4.757139 -31.012624 0.882174 35.507440 -4.563064 -6.212188 -59.557028 -2.933305 -4.694665 -1.143112 -9.979951 -11.474816 7.724059 7.586448 -0.297400 -0.823067 -0.931510 -4.919096 4.726793 -25.242254 -0.639636 7.576808 -9.413169 -2.076225 4.891715 -8.843808 2.270187 6.939772 1.719138 5.506091 10.502443 37.988968 -7.012932 18.867549 11.998969 -4.943653 33.779987 -17.733794 -7.606668 -0.083040 2.908196 -10.905153 -15.566392 4.911954 0.357135 10.807468 29.534927 6.482153 -11.225989 10.243689 7.702594 -6.973807 -9.519214 43.519582 13.762415 -12.857357 23.661849 14.788995 2.979382 26.769457 -0.513353 -6.580654 24.628996 -6.158618 -7.116596 10.329614 1.045378 -8.192130 3.785662 6.757887 4.405362 27.575128 2.141656 7.601232 19.121256 -7.339202 10.473299 6.633404 -9.893409 2.679577 9.443602 -1.203711 13.851554 -33.690554 9.607513 -18.348234 73.480472 28.757075 -10.216817 13.311018 5.587858 -17.477480 0.965169 4.328315 10.961016 25.576908 -0.075850 24.830984 40.689959 -39.564223
-0.128065 6.433331 0.172508 1.183403 36.985473 -1.294756 -1.268729 -3.153866 3.299164 -0.487826 -14.666033 -0.902330 1.213276 -7.049089 -1.776948 -1.729199 -9.787841 1.371075 2.344741 9.977761 -1.695418 8.563509 -1.591911 5.980647 6.795235 10.163190 5.953985 -1.245920 10.250066 0.495530 3.185232 28.618410 -3.877942 6.349071 -0.526547 1.605813 -7.802536 -8.596583 -24.873783 -9.106957 25.544682 5.739808 -1.933577 7.086995 -1.200685 3.598617 8.815414 -4.458608 -31.034345 0.641753 35.301940 -4.504995 -6.153004 -59.194022 -2.733186 -4.615909 -1.145678 -10.178679 -11.298466 7.642258 7.847550 -0.304948 -0.770763 -0.849435 -4.855785 4.838849 -24.967342 -0.589701 7.752824 -9.495466 -2.402871 5.190762 -8.961568 2.273920 7.157805 1.533925 5.662915 10.197026 37.473475 -6.568327 17.402545 11.861063 -4.662097 34.218719 -17.470344 -7.893028 -0.223861 3.347844 -10.386846 -15.726597 4.667174 0.840194 10.341064 27.273116 5.523643 -10.234395 10.541471 8.424990 -7.340384 -10.016680 43.246373 14.567889 -13.655353 23.507104 14.725215 2.846929 27.265924 -0.497368 -6.599061 24.562854 -6.379079 -6.953587 10.465347 1.547790 -8.002514 4.798324 7.813582 4.234245 27.793234 2.256290 7.265258 18.786408 -7.158718 9.988013 6.527479 -9.685844 1.554998 8.804887 -1.687926 13.790187 -34.148390 9.445513 -21.296807 75.124553 31.624865 -9.427533 12.190666 4.453590 -17.798979 1.492252 4.599087 11.681749 27.760466 -0.087287 25.663765 40.149307 -40.058288
-0.109598 6.430297 0.190339 0.995080 36.715280 -1.343311 -1.014669 -3.046637 3.237857 -0.458515 -14.598031 -0.888342 1.269772 -6.998729 -1.769085 -1.862800 -9.722667 1.569524 1.915668 9.833827 -1.628211 8.194327 -1.506526 5.671794 6.307412 9.625166 6.225785 -0.982259 10.324982 -0.006206 3.103417 28.463200 -3.615577 5.647237 -0.420687 1.553328 -7.637095 -8.666414 -24.778509 -9.197855 25.441082 6.165932 -1.997539 6.969762 -1.140245 3.357353 8.854760 -4.211695 -31.139576 0.350113 35.095162 -4.369322 -6.280808 -58.735957 -2.655389 -4.456218 -1.063123 -10.209290 -11.027110 7.552370 7.698235 -0.234842 -0.833112 -0.919752 -4.687481 4.753983 -24.709184 -0.495685 7.752687 -9.598930 -2.299960 5.423735 -8.910634 2.167471 7.219748 1.400442 5.678702 9.778868 36.744686 -5.782260 15.294182 11.317133 -4.378748 34.861699 -16.955058 -8.385059 0.329081 3.645445 -9.541805 -16.533820 4.254085 1.377281 10.122478 25.416061 4.570095 -9.510711 10.583894 9.024012 -7.492927 -9.714301 43.086522 14.774183 -13.619178 22.802434 14.470978 2.768751 27.916024 -0.532728 -6.490251 24.669041 -6.418656 -6.653901 10.778766 1.890544 -8.338657 6.428583 8.297292 3.843326 28.261272 2.263822 6.907538 18.662284 -6.954133 9.763223 6.568569 -9.564008 0.917293 7.858408 -1.692391 13.753218 -34.421640 9.151074 -23.850633 76.276275 34.091038 -8.718754 11.535130 3.389802 -18.301059 2.260228 4.542999 12.484919 29.516129 -0.259710 26.001124 41.020514 -39.501636
-0.090882 6.426674 0.208605 0.711546 36.397028 -1.242603 -0.675371 -3.022554 3.229751 -0.462665 -14.333287 -0.872365 1.349783 -6.924170 -1.835323 -1.993610 -9.778408 1.849869 1.788958 9.635236 -1.473078 7.916550 -1.279719 5.449704 6.002241 9.111711 6.041122 -0.768449 10.505725 -0.456519 2.883226 28.419388 -3.237965 4.739274 -0.302679 1.503493 -7.391870 -8.733744 -24.880288 -9.134713 25.541544 6.883983 -2.025693 6.934668 -1.203672 3.237059 8.949940 -4.127480 -31.307624 0.086997 35.054475 -4.245896 -6.542116 -58.517705 -2.579758 -4.165384 -1.016494 -9.997859 -10.872209 7.463883 7.465877 -0.074180 -0.914294 -0.861116 -4.490639 4.597081 -24.436090 -0.499147 7.729725 -9.715088 -2.208090 5.252313 -9.067745 1.946812 7.484170 1.228010 5.835442 9.121626 36.373318 -5.165920 13.865106 10.981366 -4.066058 34.987838 -16.476151 -8.426088 0.490418 4.216178 -8.622233 -17.149932 3.983190 1.778658 9.515579 23.947461 3.990911 -9.429248 10.737373 9.568021 -7.586026 -10.401382 42.771811 15.487628 -14.189827 22.337307 14.338561 2.818970 28.569079 -0.586169 -6.345480 24.604673 -6.511428 -6.740529 11.173927 2.702448 -9.126611 8.406397 10.464026 3.625828 28.906158 2.276386 6.615215 18.505603 -6.771792 9.099991 6.088952 -9.468276 0.472666 6.453173 -1.595144 13.651090 -34.230361 8.945411 -25.160820 77.024648 35.106564 -8.321621 10.802875 2.805420 -18.782164 3.147044 4.538421 13.743749 31.392033 -0.667033 25.463882 40.840636 -38.816106
-0.070046 6.425125 0.231552 0.515738 36.262238 -1.284297 -0.449612 -3.166994 3.222316 -0.453582 -14.128738 -0.893614 1.439931 -6.750781 -1.828116 -2.137681 -9.737141 2.071969 1.575012 9.640828 -1.076145 7.642751 -1.072592 5.434921 5.896158 8.937092 5.584930 -0.512766 10.631985 -0.653112 2.684581 28.195806 -2.848139 3.967035 -0.565613 1.562836 -6.896299 -8.607938 -24.711148 -8.128304 25.713641 7.413326 -1.876892 6.886197 -1.249199 3.097675 9.053190 -3.840702 -31.438066 -0.067528 34.878582 -4.260715 -6.722207 -58.481590 -2.550174 -4.125903 -0.680351 -10.155474 -10.930254 7.374407 7.436155 -0.004079 -1.127177 -0.785849 -4.430392 4.485883 -24.167026 -0.481742 7.569565 -9.743227 -2.298109 5.242595 -9.310018 1.776485 7.671391 1.093617 5.924493 8.494204 36.187954 -4.304959 12.113332 10.400121 -3.769246 35.161802 -15.897172 -8.854052 0.791492 4.630975 -7.682003 -17.541901 3.568503 1.907383 9.125150 22.702191 3.259903 -9.270680 10.767062 9.741067 -7.241564 -10.600065 42.751711 16.395519 -14.662062 21.495351 14.173481 2.651787 28.998800 -0.459364 -6.134893 24.448984 -6.423163 -6.634713 10.751859 3.021102 -9.628628 8.881703 10.441840 3.288444 29.388283 2.318562 6.252051 17.946867 -6.442037 8.448799 5.966562 -9.496193 -0.205297 4.757780 -0.915311 13.465319 -33.743422 8.804421 -25.184634 77.232699 35.133648 -8.050456 10.227778 2.054397 -19.244085 3.464280 4.403699 15.291942 33.611500 -1.495760 25.152431 40.972892 -38.627934
-0.041605 6.420378 0.251779 0.295492 36.148618 -1.300703 -0.193860 -3.238085 3.102232 -0.285020 -13.919615 -0.763174 1.293706 -6.685883 -1.893233 -2.090558 -9.787230 2.378759 1.542086 9.780357 -0.714221 7.638472 -1.004441 5.396475 5.605684 8.884115 5.213538 -0.449079 10.888798 -0.739399 2.458058 28.324957 -2.501455 2.907019 -0.418155 1.671795 -6.632798 -8.416447 -24.568882 -7.479408 25.857477 7.687381 -1.735674 7.084286 -1.287144 2.832201 8.980845 -3.702691 -31.733240 -0.172753 35.086525 -4.192721 -6.933186 -58.592992 -2.506805 -3.794853 -0.659520 -10.324208 -10.877567 7.303619 7.611729 -0.230530 -1.036372 -0.800841 -4.528765 4.508136 -23.920003 -0.364154 7.629659 -9.730841 -2.415686 5.430453 -9.638874 1.846163 7.779270 0.829199 6.112506 7.916262 35.876961 -3.480992 10.661922 9.687535 -3.817859 35.304335 -14.719854 -8.946682 0.773277 5.259859 -7.148859 -17.729258 3.500552 1.969025 8.548994 21.636014 2.720012 -9.250611 10.743889 9.863823 -7.350531 -10.915818 42.938182 17.073871 -15.601036 20.784071 13.854446 2.460071 29.533845 -0.396380 -6.029003 24.341549 -6.055196 -6.093635 10.776294 2.839746 -9.400283 7.615818 10.645743 2.829093 30.142645 2.343933 5.623447 18.072797 -6.259506 7.988256 5.130359 -9.217239 -0.707833 -0.529603 2.468258 13.201451 -32.887164 8.458114 -24.295428 77.024477 33.909559 -7.797815 9.826703 1.626108 -20.193538 4.442969 4.191350 16.902025 34.737077 -1.980954 24.587497 41.736238 -38.218949
-0.016963 6.413180 0.260986 -0.005028 35.972586 -1.171784 0.042505 -3.254210 2.989512 -0.130711 -13.772743 -0.642031 1.288961 -6.707827 -1.867241 -2.126303 -9.671011 2.431590 1.676003 9.907655 -0.181323 7.597328 -0.768193 5.445021 5.847783 9.311822 5.044569 -0.329894 11.132522 -0.670788 2.202011 28.381453 -2.140161 1.934365 -0.555222 1.840499 -6.251983 -8.166225 -24.261397 -6.162975 26.150367 8.077872 -1.579414 7.363126 -1.246252 2.642451 8.996855 -3.611775 -31.827475 -0.431224 35.033579 -4.137819 -6.849853 -58.748169 -2.528394 -3.796582 -0.749034 -10.438775 -10.973004 7.385569 7.630856 -0.019520 -1.117560 -0.761612 -4.246956 4.634285 -23.706232 -0.466695 7.371445 -9.546286 -2.415972 5.408300 -9.969890 1.557125 8.167525 0.730587 6.323822 7.463009 35.607431 -2.754385 8.756121 8.755299 -3.505173 35.043805 -13.385275 -9.407202 1.343300 5.532437 -6.414911 -17.954223 3.266353 2.280437 8.355066 20.464877 2.191262 -9.513106 11.013486 9.835972 -7.404262 -11.065110 42.840317 17.303760 -16.570437 20.409077 13.700500 2.228566 29.611359 -0.309941 -5.923518 23.868113 -5.491860 -6.140273 10.677021 2.721342 -9.722934 6.377700 11.031664 2.597921 30.650808 2.311445 5.019555 17.810736 -6.128253 7.333775 5.212281 -9.876871 1.472310 4.531605 -1.013013 12.808020 -31.038302 8.178164 -21.242627 75.805117 30.502099 -7.486065 9.371613 1.286016 -21.097133 5.583457 3.943175 18.646096 35.437551 -2.469251 24.028008 42.660765 -38.226350
0.005748 6.397738 0.279075 -0.296632 35.994034 -1.134835 0.317616 -3.434370 2.974239 0.026459 -13.594161 -0.565557 1.303701 -6.813387 -1.680185 -2.184512 -9.461158 2.439805 1.865571 9.934698 0.192402 7.460868 -0.680226 5.509258 6.036553 9.508024 4.878631 -0.330998 11.473707 -0.744831 1.790301 28.504113 -1.645841 1.227263 -0.563052 2.276545 -6.168624 -8.149415 -24.226530 -5.663535 26.391423 8.059724 -1.426931 7.810336 -1.178628 2.481608 9.033960 -3.338950 -32.173849 -0.208893 35.062611 -4.232078 -7.204091 -59.029457 -2.559718 -3.762232 -0.734446 -10.651059 -10.765928 7.240462 7.731639 -0.102039 -0.899395 -0.683789 -4.047735 4.521035 -23.590893 -0.542657 7.439426 -9.658848 -2.177458 5.408749 -10.139590 1.473965 8.330952 0.681529 6.463788 7.183606 35.392399 -1.775000 6.873809 7.906822 -2.962985 34.331732 -12.227530 -10.142216 1.943228 6.026394 -5.695692 -18.232728 3.197634 2.300864 7.948658 19.537958 1.886312 -9.643184 11.408342 9.844888 -7.403369 -10.825951 43.714878 17.751430 -17.407096 19.686836 13.451885 2.477101 29.712815 -0.151434 -5.769316 23.905717 -4.882773 -6.479850 10.385157 2.833871 -10.360861 5.171714 11.219336 2.207551 31.247593 2.462208 3.963735 17.688314 -5.881167 6.851424 5.253543 -10.364129 1.011371 7.231707 -1.508472 12.262059 -28.464264 8.006059 -17.024531 73.241596 25.597955 -6.890929 8.769101 0.894454 -22.255791 6.580953 3.718575 21.072956 35.752357 -3.619031 23.750456 44.242029 -38.252049
0.035642 6.393631 0.303057 -0.554304 36.112549 -1.092129 0.603437 -3.477421 2.884062 0.086723 -13.502063 -0.414506 1.305716 -6.977285 -1.617167 -2.147033 -9.290521 2.624337 2.161429 10.099761 0.624545 7.468381 -0.639353 5.756521 6.298190 10.055481 4.489392 -0.296142 11.755017 -0.691894 1.558911 28.691834 -1.051630 0.762013 -0.483013 2.286395 -6.118141 -8.088306 -24.231554 -5.288202 26.751176 7.826585 -1.369068 8.057832 -1.315831 2.399215 9.036985 -3.169887 -32.473799 -0.450809 35.040619 -4.219956 -7.310162 -59.291590 -2.569216 -3.483949 -0.832089 -10.698967 -10.617025 6.970531 7.638500 -0.291485 -0.791598 -0.832147 -3.989788 4.502160 -23.699232 -0.488878 7.025190 -9.471867 -2.130055 5.340042 -10.324031 1.383365 8.539302 0.702673 6.594955 6.894614 35.327782 -0.642898 5.077429 6.406464 -2.172314 33.542207 -10.645368 -11.117175 2.503525 6.638646 -4.852260 -18.501792 2.843418 2.374954 7.700244 18.763782 1.614325 -10.126299 11.655862 9.437060 -7.146308 -10.578347 43.496768 17.529302 -17.865458 19.193194 13.315939 2.934662 29.651025 -0.158868 -5.899344 24.228551 -4.771678 -6.875744 10.405746 3.215587 -11.056525 3.897891 11.073670 2.140641 31.659689 2.447032 3.499506 18.237945 -5.705144 6.136793 6.076644 -10.793446 -1.075760 10.755943 -1.022454 11.602630 -25.271966 7.784190 -13.230731 69.327562 21.310431 -5.905631 8.796426 1.420163 -23.777388 7.853687 3.506403 23.752256 34.969508 -4.959279 25.052181 46.876282 -39.005985
0.067725 6.379616 0.315489 -0.742644 36.093770 -1.046174 0.844434 -3.474131 2.829090 0.079443 -13.344606 -0.358247 1.332471 -7.207625 -1.472949 -2.061292 -9.194888 2.888307 2.430736 10.175695 0.817437 7.385950 -0.654845 5.844256 6.883190 10.589643 3.838137 -0.382901 11.987103 -0.864465 1.291026 29.036242 -0.587328 0.445712 -0.036424 2.491177 -6.312940 -7.966298 -24.563994 -5.322556 27.079391 7.489332 -1.218306 8.317552 -1.604877 2.344748 9.098556 -2.913693 -32.663211 -0.551537 34.913464 -4.364501 -7.290150 -59.571527 -2.590650 -3.433859 -0.692985 -11.020309 -10.624248 6.700423 7.622384 -0.436484 -0.627905 -0.989180 -3.884353 4.334599 -23.697742 -0.270900 6.785660 -9.455215 -2.100730 5.258415 -10.523294 1.721736 8.658624 0.671758 6.759631 6.810948 35.704787 0.847029 3.004910 5.129728 -1.450730 32.093854 -9.406126 -12.251742 3.705400 7.108242 -3.891375 -18.503160 2.368340 1.963196 6.964979 17.897965 1.194696 -10.678750 12.091688 9.336605 -7.009383 -9.783846 43.190980 17.055957 -17.191319 18.126206 13.305188 3.201909 29.492682 -0.237647 -5.320798 25.077316 -4.430757 -7.448726 10.581914 3.355148 -11.128320 3.216876 11.001996 1.996937 31.953913 2.518654 2.531966 18.688973 -5.141375 5.347998 7.648463 -11.914586 -4.020228 13.201413 -1.680476 10.873133 -21.061977 7.760446 -10.192994 64.044497 17.896943 -4.775173 9.160810 2.401148 -25.220855 9.141230 3.288908 26.037185 34.069927 -6.578829 28.228207 50.370370 -40.461634
0.095855 6.368076 0.339402 -0.903010 36.188686 -1.016554 1.065208 -3.386025 2.761926 0.119154 -13.290444 -0.232051 1.239429 -7.420018 -1.464477 -1.996068 -9.049012 3.134264 2.782066 10.314731 0.999085 7.302597 -0.619826 6.009880 7.696834 11.288771 3.112026 -0.379059 12.017760 -1.051603 1.222012 29.420654 -0.202034 0.014994 0.603004 2.458584 -6.504350 -7.964669 -24.789069 -5.329587 27.299365 6.932013 -1.051466 8.431307 -1.737872 2.252979 9.050654 -2.647697 -32.729300 -0.777323 34.719420 -4.334495 -7.022852 -59.956860 -2.573691 -3.497856 -0.694305 -11.199115 -10.632894 6.461441 7.795258 -0.396595 -0.629627 -1.147696 -3.757335 4.197621 -23.868615 -0.237617 6.487583 -9.425840 -1.934239 5.205496 -10.718823 1.918389 8.742106 0.534987 6.922172 6.750894 36.299580 2.527245 1.243796 3.466527 -0.512880 30.188146 -7.866049 -14.016360 4.729327 7.577207 -2.941189 -18.276809 2.127346 1.327155 6.387413 17.462514 1.074876 -11.749605 12.358164 9.166677 -7.267779 -8.551108 43.077416 15.825144 -16.330874 16.898450 13.176642 3.195033 29.287234 -0.151618 -5.268913 25.143062 -3.843246 -7.627607 11.701064 3.760728 -11.154959 3.190013 10.290021 1.705374 32.071198 2.367188 2.100478 18.482389 -5.084552 4.611083 9.611032 -13.431311 -6.316381 14.278755 -3.163243 10.170729 -16.174003 8.010471 -7.733167 57.754592 14.874731 -3.738492 10.380771 3.204613 -26.699663 9.803620 3.171230 28.439299 33.235142 -7.902338 31.255337 52.787264 -42.501406
0.121411 6.346227 0.362085 -1.070465 36.214514 -0.877548 1.277304 -3.259569 2.749166 0.162859 -13.180073 -0.176845 1.083400 -7.655524 -1.502233 -1.872770 -8.909274 3.241095 3.210218 10.238115 1.500967 7.448756 -0.938740 6.323569 7.883050 11.883177 2.791726 -0.355415 11.895472 -1.106280 1.136494 29.632743 0.268179 -0.088395 1.189298 2.413304 -6.673854 -8.151732 -24.990015 -5.433316 27.600505 6.791199 -0.929890 8.241641 -1.718189 2.158487 9.181027 -2.406135 -32.672818 -0.853282 34.519010 -4.737763 -6.868302 -60.124840 -2.518975 -3.542849 -0.749216 -11.440140 -10.470194 6.381842 7.895788 -0.542957 -0.682393 -1.260164 -3.604497 4.040795 -23.885223 -0.231420 6.296379 -9.367333 -1.620408 5.218279 -10.814285 2.189602 8.674390 0.405107 7.107019 6.810835 37.233949 4.210420 -0.817939 2.253750 0.629478 28.227436 -7.297312 -16.258831 6.239711 7.646844 -1.982801 -18.065390 2.159436 1.085697 5.969105 17.227411 0.667000 -12.907788 12.878246 8.912236 -7.918641 -7.647972 42.963931 14.954577 -15.395156 15.655730 13.254668 3.230900 29.214834 0.014925 -4.624331 26.570741 -3.390871 -8.118285 11.418704 3.481885 -11.268896 2.806675 9.855542 1.872957 32.169651 2.679895 2.052498 18.596420 -4.825353 3.621807 11.407138 -15.616887 -8.106085 13.289818 -5.146389 9.590584 -10.714255 8.405078 -5.698961 50.779575 12.326241 -2.719606 12.018679 3.911546 -27.767467 9.809898 3.036156 30.315051 33.121968 -9.174219 34.675559 54.816101 -45.339259
0.138382 6.318480 0.387034 -1.289380 36.413547 -0.634792 1.405884 -3.125158 2.718886 0.309817 -13.202659 -0.161866 1.005925 -7.898404 -1.584620 -1.821568 -8.811330 3.406117 3.538714 10.151247 1.877774 7.381703 -0.960755 6.481811 8.117003 12.200468 2.512869 -0.363261 11.975242 -1.160288 1.401974 29.975499 0.374002 0.356505 2.195925 2.393822 -6.663095 -8.493471 -25.051938 -5.767750 27.846757 6.957117 -0.764379 7.869408 -1.784917 2.030485 9.255756 -2.292350 -32.915481 -0.970695 34.327084 -4.943223 -6.728205 -60.331172 -2.462542 -3.855095 -0.889199 -11.359727 -10.339502 6.354095 8.029090 -0.535037 -0.635548 -1.331017 -3.393310 4.015907 -23.893929 -0.082678 6.216337 -9.212959 -1.214924 5.242127 -10.931116 2.213393 8.745774 0.226578 7.280399 6.740768 38.175365 5.613018 -2.396302 1.580561 1.991105 26.100922 -6.915549 -18.345364 7.368817 7.418535 -0.911849 -17.772809 2.186971 0.674461 5.702856 17.059423 0.532308 -13.736700 13.219891 8.798420 -8.792130 -5.596889 42.371398 13.488951 -13.720525 14.067662 12.917749 3.123659 29.306264 0.091134 -3.963987 26.313422 -2.541948 -8.572500 10.997449 3.526534 -11.297556 2.333437 11.220082 1.767235 31.865952 2.357634 2.399780 18.180383 -5.058541 3.497713 11.976761 -15.475563 -8.118521 13.069865 -5.110561 9.157454 -5.379962 8.861956 -4.566154 43.746189 11.071376 -2.222724 13.879461 5.047515 -28.170545 9.138881 2.705316 31.615449 33.166850 -10.112651 38.915070 57.459833 -49.635877
0.151209 6.283605 0.402101 -1.485576 36.566526 -0.259446 1.581765 -2.835873 2.682984 0.341593 -13.487352 -0.149671 1.014220 -8.132715 -1.611423 -1.856505 -8.743223 3.364668 3.867525 10.175182 2.160119 7.329055 -0.968348 6.895327 8.385858 12.266144 2.197869 -0.288362 11.777180 -1.262076 1.323533 29.971923 0.408834 1.499910 3.531956 2.404190 -6.653123 -8.814868 -25.041799 -6.159736 28.132421 6.960102 -0.671558 7.338623 -1.806362 2.036576 9.439407 -2.268913 -32.882558 -1.211253 34.082832 -5.141367 -6.307342 -60.347557 -2.392454 -4.315682 -0.917010 -11.262037 -10.046530 6.155237 8.064930 -0.652772 -0.366016 -1.517529 -3.209765 3.898948 -23.639009 -0.196660 6.250844 -9.382166 -0.669391 5.064183 -11.161501 2.121313 8.887226 0.082282 7.433384 6.719599 39.192581 6.927032 -3.717391 1.234976 4.185878 23.320470 -6.799384 -20.991288 9.073452 7.170058 -0.243622 -17.359116 2.196388 0.384264 6.067800 17.057947 0.583071 -14.255001 13.541760 8.779511 -9.201658 -3.620329 41.475407 11.615111 -11.810957 12.704468 12.445098 3.352259 29.131351 0.050984 -3.879256 26.249602 -2.265090 -9.154702 10.168474 4.208873 -11.336833 1.699056 12.894848 2.566906 31.416955 2.407273 3.029913 17.984698 -5.496432 4.221425 11.148489 -14.613543 -6.714993 11.759357 -2.335026 8.791469 -0.484378 9.433989 -3.639858 37.298973 10.563944 -1.900730 16.148368 5.841326 -28.150812 7.691931 2.445388 32.971380 33.404895 -10.919545 49.329752 60.527485 -58.656548
0.157332 6.262018 0.408786 -1.656302 36.879966 0.197155 1.574193 -2.582366 2.496387 0.449914 -13.754043 -0.211909 0.982849 -8.266341 -1.565225 -1.744035 -8.735014 3.300075 4.098195 10.382039 2.578753 7.043765 -0.783101 7.313553 8.702327 11.960105 1.896778 -0.234867 11.740651 -1.192200 1.704321 30.452940 0.401570 3.258998 4.530508 2.073981 -6.692725 -8.825913 -24.968020 -6.437988 28.328014 6.832789 -0.678609 6.901030 -1.821457 2.034021 9.817482 -2.054872 -33.041573 -1.454651 33.759985 -5.257504 -6.247303 -60.745633 -2.142292 -4.602670 -0.798227 -11.332988 -9.918882 6.053949 8.114832 -0.764787 -0.267481 -1.518669 -3.146810 3.664854 -23.270276 -0.280672 6.423322 -9.510419 -0.392222 4.972804 -11.097190 2.249775 8.810391 -0.073616 7.833756 6.952210 40.498419 8.326351 -4.428951 1.141086 5.744694 19.842704 -6.514242 -23.117804 11.024007 6.534299 0.155320 -16.663989 2.144971 0.133598 6.031597 17.219228 0.331300 -14.596373 13.494674 8.927690 -9.145262 -1.736373 40.448051 9.808352 -10.562899 11.361487 12.023713 3.546745 29.433478 -0.021712 -3.530564 25.701531 -1.994846 -10.108971 9.166162 4.892896 -10.881589 0.550398 14.773947 3.017077 31.234145 2.070208 3.971171 17.848104 -5.602287 5.279274 9.025161 -14.002783 -5.104270 10.936012 -1.207890 8.679428 3.084238 9.898436 -2.862692 32.381316 10.344534 -2.114524 17.812049 6.413111 -27.795932 4.860455 2.208190 34.349819 34.154384 -11.652542 64.058190 62.472017 -72.615680
0.155477 6.221023 0.419328 -1.710334 37.215699 0.689460 1.553707 -2.192371 2.301910 0.445655 -13.936999 -0.277010 0.923607 -8.502639 -1.600313 -1.564597 -8.764597 3.412718 4.328487 10.560034 2.886934 6.742138 -0.488522 7.879497 8.708936 11.211858 1.776275 -0.233040 11.822127 -1.270655 2.314772 30.523628 0.143213 4.131747 4.875727 1.873711 -6.507330 -8.898246 -24.822114 -6.712195 28.442900 6.516393 -0.675939 6.695459 -1.857074 2.139458 10.156217 -2.045542 -33.348391 -1.698861 33.539403 -5.750741 -6.332736 -60.935554 -1.935159 -4.838714 -1.035979 -11.359875 -9.771110 5.975645 8.206087 -0.794285 -0.084433 -1.652212 -3.075699 3.754067 -23.331240 -0.244119 6.503378 -9.728324 -0.203705 4.897328 -11.284664 2.329582 8.695354 -0.140230 8.049309 7.268360 41.783938 9.203220 -5.040292 1.445666 7.475062 17.096093 -6.321910 -24.791872 12.958277 5.666070 0.009607 -16.211515 2.081256 -0.083091 6.475434 15.932806 0.669688 -15.991758 14.735739 8.927246 -7.848078 0.208097 39.157147 7.118696 -9.781001 10.316926 12.157171 3.642846 29.367830 -0.073264 -3.630960 24.735806 -1.872826 -10.800382 8.613634 5.561588 -10.865235 1.178216 15.870541 4.014112 30.804939 2.004691 4.803205 17.719326 -6.202889 6.316569 7.192668 -13.762457 -2.411568 9.958249 -0.688152 8.742525 5.672431 10.324228 -2.258333 28.934789 9.894319 -2.475164 18.700575 6.187066 -27.324071 0.175320 2.138780 36.166964 37.094334 -12.618599 74.458699 61.615114 -84.056993
0.146481 6.155854 0.408296 -1.837791 37.480645 1.159363 1.619297 -1.779728 2.035085 0.500149 -14.019867 -0.216932 0.759377 -8.884454 -1.626828 -1.350592 -8.699456 3.665385 4.586224 10.845055 2.954242 6.501760 -0.029753 8.435798 8.550136 10.416208 1.586126 -0.101544 12.118663 -1.379347 2.741509 30.819463 -0.115733 4.724030 5.383979 1.522878 -6.604164 -8.688362 -25.023748 -6.658533 28.292566 6.343444 -0.732951 6.482506 -1.973274 2.109589 10.500730 -2.048269 -33.399167 -2.234362 33.502306 -5.840855 -6.369094 -61.345184 -1.848464 -5.053736 -1.097097 -11.326523 -9.564051 5.819680 8.334444 -0.811995 0.063833 -1.590785 -2.881100 3.746087 -22.899697 -0.257866 6.592108 -9.978869 0.203411 4.925415 -11.355062 2.478026 8.615594 -0.208031 8.122607 7.654531 42.775462 9.855230 -5.441125 1.654770 8.810018 15.154366 -5.938833 -26.220307 14.047217 4.771590 0.175569 -16.159334 2.091515 -0.328416 6.601689 15.747986 1.323598 -16.417000 12.858298 8.414272 -8.546717 2.468039 38.216655 4.218170 -9.304195 9.167899 12.307855 3.456860 29.500294 0.065195 -4.103020 24.006758 -2.050372 -10.516954 7.708917 6.218299 -11.305218 2.165304 16.662268 4.853802 30.524513 1.818400 5.814957 17.215841 -6.296186 7.208354 5.493940 -13.228334 0.638531 9.031227 -0.442174 9.223653 6.638833 10.414804 -1.708442 27.532929 9.178836 -2.205065 18.799916 4.999498 -25.622267 -7.212092 2.428270 37.696123 43.256709 -15.501135 75.153772 58.974923 -87.557918
0.120129 6.059546 0.384527 -1.789806 37.847044 1.423692 1.404289 -1.307122 1.910969 0.598752 -14.198416 -0.168067 0.821362 -9.053548 -1.713737 -1.180396 -8.654782 4.027968 4.803468 11.105506 3.158695 6.424887 0.355333 9.195617 8.302774 9.781447 1.497104 0.064816 12.745089 -1.488975 3.169171 30.959126 -0.428615 5.235123 5.556724 1.249500 -6.644907 -8.755045 -25.063831 -6.968614 28.180224 6.129549 -0.973148 6.657498 -2.008715 2.295956 11.073937 -1.947596 -33.669290 -2.801584 33.067249 -6.132577 -6.377409 -61.674678 -1.605195 -5.221042 -1.017689 -11.512737 -9.349582 5.644034 8.548254 -1.086979 0.206296 -1.574006 -2.741499 3.582813 -22.607551 -0.713428 6.760688 -10.082691 0.352114 4.756971 -11.331250 2.531563 8.531281 0.002637 8.105961 8.244336 43.767594 10.731211 -6.118558 2.044823 9.993746 13.668566 -6.024694 -27.462777 15.089441 3.955263 -0.065126 -15.826656 2.034264 -0.550908 6.699461 15.554309 1.133435 -15.673894 12.900368 8.865225 -8.077628 4.778380 37.244021 1.242305 -8.706521 8.341373 12.221520 3.252466 29.820824 0.043470 -4.390204 23.502716 -2.489513 -10.016919 8.350618 6.809666 -12.200934 2.829705 16.167895 5.703275 30.419742 1.811074 6.608397 16.913257 -6.539982 7.666808 4.425895 -13.073920 2.420378 8.223881 -1.009726 9.767345 6.504608 10.422936 -1.431541 28.056612 8.017992 -2.000279 19.446674 4.632623 -22.050803 -16.189134 3.411790 38.756894 51.060441 -19.316450 66.504987 55.363610 -84.916141
0.100806 5.953971 0.383222 -1.710188 38.036670 1.567722 1.207169 -0.711813 1.776395 0.687998 -14.431883 -0.022744 0.886258 -9.147807 -1.690524 -1.154355 -8.676407 4.131104 5.040271 11.362148 3.542201 6.457000 0.941717 10.112295 8.142966 9.406693 1.453182 0.400844 13.383449 -1.388316 3.450962 31.243064 -0.881955 5.734835 6.415051 0.841248 -6.756314 -8.513539 -25.119881 -7.215192 27.676268 5.884057 -1.073977 7.056731 -1.868832 2.487931 11.589884 -1.928496 -33.838046 -3.249240 32.970546 -6.388685 -6.350553 -62.410473 -1.327151 -5.074642 -0.981654 -11.634450 -9.495288 5.455461 8.577833 -1.006613 0.379305 -1.596056 -2.760963 3.869672 -22.494422 -0.596348 6.613347 -10.303666 0.466717 4.827206 -11.291409 2.510971 8.301257 0.171946 8.092534 8.764171 44.891107 11.608563 -6.968065 2.080869 10.376508 12.915595 -5.604811 -28.162985 15.859843 3.603957 -0.135727 -15.858003 1.531656 -0.927248 6.819308 15.792373 1.635778 -14.795938 12.772760 9.524615 -8.572550 7.235649 36.330755 -1.726642 -8.499961 7.801308 12.030106 2.896519 30.184002 0.010463 -4.856552 23.236631 -2.998830 -9.750382 10.126100 6.725666 -13.199392 2.886806 15.606309 6.592336 30.425618 1.634960 6.906036 16.388214 -6.972480 7.719938 4.086277 -13.031375 2.830360 7.845587 -1.138434 10.045040 5.826211 10.412918 -1.019638 28.611028 7.283205 -1.631943 20.089812 3.749618 -19.373883 -21.815171 4.216963 39.282062 56.253309 -21.715094 53.344236 51.973672 -77.599220
0.080581 5.839550 0.399183 -1.563804 38.082804 1.554754 0.979903 -0.192373 1.819893 0.867812 -14.561284 0.223592 0.950269 -9.234060 -1.703730 -1.111322 -8.699480 4.267285 5.274635 11.760492 3.711383 6.623464 1.359412 11.071893 7.956614 9.453089 1.067085 0.630418 14.035935 -1.299743 3.940792 31.639221 -1.407163 6.498007 7.577944 0.305262 -7.025728 -8.348125 -25.200765 -8.038515 27.078435 5.384237 -1.107721 7.887168 -1.710716 2.690629 12.176907 -2.020972 -34.153391 -3.773074 32.793336 -6.689782 -6.395340 -62.820410 -1.121194 -4.807331 -1.180410 -11.811404 -9.711394 5.271113 8.648937 -1.108330 0.656732 -1.362671 -2.827071 4.028382 -22.018731 -0.861146 6.809872 -10.386770 0.399115 4.927072 -11.493634 2.626171 8.264632 0.468607 8.070640 9.313970 45.661404 12.374783 -7.807377 2.221273 10.576509 11.758797 -4.944365 -28.924754 17.114754 1.257706 0.511807 -16.079335 3.045907 -1.336383 7.649250 13.964176 2.816380 -16.232212 12.951935 10.064555 -6.673061 9.006112 35.760208 -4.334071 -7.653702 7.734236 11.821356 2.974866 30.601620 -0.324646 -5.093408 22.840408 -3.558065 -9.680904 11.049012 6.587022 -13.711310 3.128298 14.970065 7.309871 30.901066 1.275125 7.141804 16.083795 -6.975701 7.817921 3.512611 -12.694320 2.796924 7.638934 -0.850061 10.280348 4.981696 10.433408 -0.674504 29.308814 6.631447 -1.362779 21.063475 3.127108 -17.116990 -24.778520 5.169680 41.845713 61.649617 -26.054789 47.015155 47.486790 -70.558127
0.060078 5.744964 0.413975 -1.467961 38.132626 1.500780 0.861065 0.138390 1.856025 0.959984 -14.790766 0.304010 0.941825 -9.289619 -1.612458 -0.992724 -8.615829 4.374328 5.343567 12.053867 3.796444 6.670595 1.738483 11.664795 7.880292 9.470446 0.792801 0.684243 14.619362 -1.165086 4.556143 32.190634 -2.111843 7.011626 9.046825 -0.002100 -7.266168 -8.079933 -25.409531 -8.868638 26.797622 5.217125 -1.198651 8.539690 -1.690621 2.798408 12.668924 -1.902948 -34.305297 -4.010814 32.740423 -7.088180 -6.567458 -63.356842 -0.804338 -4.277838 -1.318689 -11.915635 -9.925260 5.320921 8.792306 -0.792091 0.923398 -1.191755 -2.949104 4.318688 -21.803670 -0.795484 7.037161 -10.599764 0.438282 5.053954 -11.379452 2.333552 8.021798 0.631720 7.945229 9.740488 46.435241 13.051423 -8.781908 2.174038 10.082761 11.566177 -4.767035 -28.934810 17.532184 0.797793 0.519790 -15.919569 0.729257 -1.792022 7.705468 13.532706 3.486209 -15.697291 12.514710 10.545477 -6.407104 9.910014 35.849774 -5.670819 -7.284086 7.376552 11.429137 2.782885 30.566210 -0.593891 -4.958042 22.804736 -3.698961 -9.959475 12.450742 6.527632 -14.332416 2.188705 15.345982 7.701921 30.944474 1.092687 7.196590 15.714589 -7.081685 7.942554 3.695089 -12.711602 2.099496 7.057808 -0.950387 10.437566 4.164868 10.403122 -0.266331 30.113525 5.908205 -1.278363 21.810132 2.485345 -15.862517 -26.198509 5.607634 44.122072 64.691217 -29.360701 44.684955 45.119635 -67.011862
0.044001 5.676586 0.422956 -1.229046 38.173277 1.281903 0.620886 0.229786 1.881784 1.083205 -14.765335 0.381069 1.023182 -9.287145 -1.419478 -0.954076 -8.517047 4.409245 5.451212 12.266581 3.888433 6.799964 1.890836 12.068757 8.115200 9.766836 0.490431 0.728283 15.192444 -1.143911 5.049170 32.763355 -2.714616 7.268688 11.135143 -0.112791 -7.573492 -7.753697 -25.611675 -9.222965 26.176601 4.933438 -1.212850 8.905674 -1.833394 3.036053 12.922038 -1.776776 -34.581580 -4.223449 32.792492 -7.204194 -6.458929 -63.752090 -0.706583 -4.274661 -1.413730 -12.101225 -9.992736 5.442675 8.670894 -0.803058 0.904772 -1.168429 -2.868749 4.322886 -21.619506 -0.943449 7.384388 -10.541907 0.572782 5.108614 -11.285888 2.159575 8.139387 0.892679 7.820798 10.119754 47.233814 13.901116 -9.394051 1.563736 9.965826 11.104687 -5.275075 -29.950670 16.104771 0.762464 0.769089 -14.690138 1.030254 -1.864132 8.143000 13.569379 4.193757 -14.222813 11.997800 10.616343 -6.304047 10.730108 35.869183 -5.086085 -6.504761 7.205112 11.348170 2.974183 30.375778 -0.755374 -5.024677 22.319787 -4.078457 -9.882888 13.994198 6.924008 -15.007291 2.125168 16.618157 8.186623 31.447224 0.897277 7.150370 15.168019 -7.187005 7.693515 3.605290 -12.370238 1.976893 7.021494 -0.862483 10.417193 3.514979 10.310756 0.071612 30.481363 5.270149 -1.422467 22.951018 2.197414 -15.393820 -26.286550 5.756670 44.870685 65.651878 -30.203360 45.251021 44.224943 -67.296002
0.028055 5.625191 0.434706 -1.060034 38.120605 1.166580 0.572327 0.301532 1.892364 0.958235 -14.804312 0.622538 1.030841 -9.503616 -1.557695 -0.997167 -8.259442 4.212225 5.365411 12.399809 3.924343 6.851990 1.803720 12.271572 8.198440 9.995204 0.301226 0.725317 15.449085 -0.924659 5.219738 33.570680 -2.886832 7.418492 13.055633 -0.139779 -7.897615 -7.524357 -25.603347 -9.536511 25.583680 4.367973 -1.356532 9.303508 -1.856012 3.346757 13.045298 -1.699422 -34.794379 -4.215139 32.887274 -7.295577 -6.493514 -64.162931 -0.754660 -4.098672 -1.206248 -12.141505 -9.975683 5.229546 8.580449 -0.545748 1.014713 -0.977369 -2.722689 4.256855 -21.406614 -0.990227 7.360638 -10.610420 0.808741 4.881225 -11.147903 1.894105 8.335117 1.236098 7.620869 10.076735 47.522403 14.082072 -9.761449 1.338206 9.869238 11.001392 -4.946997 -30.127342 16.138554 0.150785 1.033912 -14.508882 0.967342 -1.733576 8.255049 13.327062 4.499958 -13.911116 11.757514 10.456728 -6.233273 10.438018 36.353894 -4.964491 -6.504272 7.443220 11.364146 3.126386 30.077410 -0.806698 -5.098480 22.729485 -3.912674 -9.749729 13.073791 7.055024 -15.449824 1.666595 18.670724 8.512791 31.700786 0.488247 7.192925 15.057058 -6.809821 7.879613 3.420161 -12.299619 1.807478 7.554235 -0.534588 10.247785 2.736119 10.046432 0.505440 31.126639 4.717037 -1.059817 22.955175 0.800820 -15.062060 -26.027176 5.782050 43.615551 65.555045 -30.024408 47.918673 43.935440 -70.218777
