HIERARCHY
ROOT bn_root01_00
{
  OFFSET 0.000000 0.000000 0.000000
  CHANNELS 6 Xposition Yposition Zposition Zrotation Xrotation Yrotation
  JOINT bn_l_backleg_thigh01_02
  {
    OFFSET 0.118603 0.055203 -0.005030
    CHANNELS 3 Zrotation Xrotation Yrotation
    JOINT bn_l_backleg_shin01_03
    {
      OFFSET 0.338664 0.007541 -0.315208
      CHANNELS 3 Zrotation Xrotation Yrotation
      JOINT bn_l_backleg_toe01_04
      {
        OFFSET 0.392202 -0.626065 -0.395976
        CHANNELS 3 Zrotation Xrotation Yrotation
        End Site
        {
          OFFSET 0.098051 -0.156516 -0.098994
        }
      }
    }
  }
  JOINT bn_r_backleg_thigh01_05
  {
    OFFSET -0.118603 0.055202 -0.005030
    CHANNELS 3 Zrotation Xrotation Yrotation
    JOINT bn_r_backleg_shin01_06
    {
      OFFSET -0.340004 0.007464 -0.313764
      CHANNELS 3 Zrotation Xrotation Yrotation
      JOINT bn_r_backleg_toe01_07
      {
        OFFSET -0.390865 -0.625988 -0.397418
        CHANNELS 3 Zrotation Xrotation Yrotation
        End Site
        {
          OFFSET -0.097716 -0.156497 -0.099355
        }
      }
    }
  }
  JOINT bn_spline01_08
  {
    OFFSET 0.000000 -0.000000 0.097270
    CHANNELS 3 Zrotation Xrotation Yrotation
    JOINT bn_head_09
    {
      OFFSET 0.000000 0.071794 0.036914
      CHANNELS 3 Zrotation Xrotation Yrotation
      JOINT bn_l_tentacle1_thigh01_010
      {
        OFFSET 0.102562 -0.110122 0.075387
        CHANNELS 3 Zrotation Xrotation Yrotation
        JOINT bn_l_tentacle1_shin01_011
        {
          OFFSET 0.192350 -0.098450 0.167828
          CHANNELS 3 Zrotation Xrotation Yrotation
          End Site
          {
            OFFSET 0.048088 -0.024612 0.041957
          }
        }
      }
      JOINT bn_r_tentacle1_thigh01_012
      {
        OFFSET -0.102562 -0.110122 0.075387
        CHANNELS 3 Zrotation Xrotation Yrotation
        JOINT bn_r_tentacle1_shin01_013
        {
          OFFSET -0.192350 -0.098450 0.167830
          CHANNELS 3 Zrotation Xrotation Yrotation
          End Site
          {
            OFFSET -0.048087 -0.024613 0.041957
          }
        }
      }
    }
    JOINT bn_l_midleg_thigh01_014
    {
      OFFSET 0.178879 0.055203 0.064700
      CHANNELS 3 Zrotation Xrotation Yrotation
      JOINT bn_l_midleg_shin01_015
      {
        OFFSET 0.309716 -0.043222 -0.013181
        CHANNELS 3 Zrotation Xrotation Yrotation
        End Site
        {
          OFFSET 0.077429 -0.010805 -0.003295
        }
      }
    }
    JOINT bn_l_tentacle2_thigh01_017
    {
      OFFSET 0.092222 -0.027621 -0.046049
      CHANNELS 3 Zrotation Xrotation Yrotation
      JOINT bn_l_tentacle2_elbow01_018
      {
        OFFSET 0.273353 0.160394 0.272218
        CHANNELS 3 Zrotation Xrotation Yrotation
        JOINT bn_l_tentacle2_wrist01_019
        {
          OFFSET 0.040844 0.010226 0.051395
          CHANNELS 3 Zrotation Xrotation Yrotation
          End Site
          {
            OFFSET 0.010211 0.002556 0.012849
          }
        }
      }
    }
    JOINT bn_r_midleg_thigh01_020
    {
      OFFSET -0.178879 0.055203 0.064701
      CHANNELS 3 Zrotation Xrotation Yrotation
      JOINT bn_r_midleg_shin01_021
      {
        OFFSET -0.309823 -0.042966 -0.011393
        CHANNELS 3 Zrotation Xrotation Yrotation
        End Site
        {
          OFFSET -0.077456 -0.010741 -0.002848
        }
      }
    }
    JOINT bn_r_tentacle2_thigh01_023
    {
      OFFSET -0.092222 -0.027620 -0.046049
      CHANNELS 3 Zrotation Xrotation Yrotation
      JOINT bn_r_tentacle2_elbow01_024
      {
        OFFSET -0.273352 0.160394 0.272218
        CHANNELS 3 Zrotation Xrotation Yrotation
        JOINT bn_r_tentacle2_wrist01_025
        {
          OFFSET -0.040844 0.010225 0.051395
          CHANNELS 3 Zrotation Xrotation Yrotation
          End Site
          {
            OFFSET -0.010211 0.002556 0.012849
          }
        }
      }
    }
    JOINT bn_tail01_026
    {
      OFFSET 0.001158 0.096439 -0.008808
      CHANNELS 3 Zrotation Xrotation Yrotation
      End Site
      {
        OFFSET 0.000290 0.024110 -0.002202
      }
    }
  }
}
MOTION
Frames: 31
Frame Time: 0.03333333
0.001535 0.534160 -0.031827 0.360912 4.955950 0.860837 -0.703851 -2.407817 -4.020074 1.505310 -7.462732 -1.625170 4.142425 1.939176 1.956551 -16.870902 16.758197 10.328362 12.724322 -31.592631 -8.681710 1.150846 -2.034051 -5.582460 -2.442721 -2.301399 -0.107519 -0.417051 1.840230 -4.172286 2.637591 -4.760376 -2.642037 -1.187320 -5.171080 -3.617453 2.923658 -18.092534 -3.762288 -3.195077 -3.446637 2.497179 28.688909 -22.513721 -14.668022 5.863464 -2.860721 -16.737585 -1.215701 -6.729904 -3.348599 -19.761074 10.110257 -1.781265 -0.387380 -2.637029 -1.140833 -10.403301 -18.595101 10.157857 -4.966312 -4.498766 0.442423 6.031277 -7.711947 1.659997 16.884705 11.431816 9.333356 4.864429 -1.229884 4.123705 5.253971 -57.818430 0.748862
0.001553 0.540217 -0.033043 -0.027970 5.267669 1.043177 0.200954 -0.470882 -1.498874 1.679292 -6.069752 -0.368536 2.771547 6.975852 5.449174 -22.309214 19.624381 13.142684 16.767184 -42.236779 -4.507665 -1.536573 -1.833400 -5.891946 -2.321903 -1.994156 -0.371109 -0.257169 2.048248 -4.125717 2.174837 -5.610649 -3.091718 -0.256722 -4.168877 -3.566314 2.958770 -18.312211 -3.729092 -3.311161 -4.594180 2.386400 24.016832 -18.311182 -16.839686 10.997711 -3.365181 -15.186423 -1.022599 -7.329637 -3.736557 -14.754756 7.397513 -3.791159 -0.715136 -3.619561 -1.980610 -10.177646 -16.618242 8.745460 -5.128203 -8.363601 1.988437 5.236413 -7.709419 1.411293 11.390429 11.686723 7.135741 5.704692 -2.725132 4.917343 4.426591 -57.149355 -0.565053
-0.000351 0.550986 -0.033561 -0.451770 5.866107 1.284936 0.687555 1.462798 0.964541 3.349815 -2.935185 0.741993 2.904257 14.955437 10.389326 -25.503928 21.483605 15.179807 21.744771 -52.721203 4.939558 -5.088767 -0.096310 -6.231960 -1.747569 -1.932602 -0.718640 -0.636808 1.870680 -3.594323 1.755915 -5.880254 -3.340891 0.354351 -3.399476 -3.367856 3.319353 -17.925939 -3.768764 -3.521553 -4.770075 2.758701 22.992144 -14.592256 -15.418339 9.947025 -5.269131 -14.540122 -0.169619 -8.260364 -3.405527 -11.010404 4.822815 -3.319242 -1.861692 -3.477864 -2.375318 -9.332248 -15.746274 8.990691 -4.959906 -9.866113 3.785641 4.470343 -8.030974 1.449555 3.757316 9.407433 3.219983 3.048742 -3.057116 2.848615 3.778178 -56.659023 -2.075171
-0.001177 0.561353 -0.034364 -0.808810 6.226275 1.358533 1.179895 1.373541 2.863207 5.817315 2.183141 1.045971 3.174890 17.927987 12.091257 -24.060609 20.460053 17.468072 22.131764 -60.220847 10.172956 -5.426954 2.556300 -5.361828 -0.819714 -1.975324 -0.899837 -1.280613 1.001295 -2.987983 1.527756 -5.610467 -2.843367 0.175198 -3.333050 -3.234594 3.938899 -17.097191 -3.849124 -3.415161 -5.107260 2.660059 23.764364 -9.601849 -9.963920 4.080012 -3.052056 -13.081725 0.966467 -9.211455 -2.683688 -5.681915 1.792070 -0.585130 -2.922698 -1.974647 -2.335774 -9.386566 -14.920349 9.457246 -4.894103 -11.285634 4.813841 2.988252 -8.473726 1.533878 1.492074 6.853336 1.117179 2.465953 -3.077744 1.969938 1.137045 -57.478623 -5.438322
-0.000643 0.567990 -0.037852 -1.079509 5.846474 2.036431 0.647443 1.262013 4.449844 10.132198 7.369981 -0.022244 5.613984 20.001481 12.207207 -18.930432 17.056876 21.699019 11.358439 -65.346211 3.182747 -2.095031 7.424027 -9.802163 -0.048243 -1.523399 -1.416970 -1.549898 -0.213654 -2.762475 1.243093 -5.025273 -2.333627 -0.336973 -2.922092 -3.454168 4.154281 -16.484407 -3.674988 -2.711655 -5.232577 2.484791 23.644061 -6.674998 -5.433206 -4.560259 3.441313 -8.834021 2.487324 -10.105128 -2.415333 0.693939 0.530194 0.858184 -2.621809 -2.748969 -1.462175 -9.859966 -13.889293 9.111229 -4.900942 -14.338877 4.017965 0.968738 -8.859043 1.165641 0.723281 6.440122 -0.743644 2.213722 -2.822041 0.883316 -5.285707 -57.207426 -12.608934
-0.000624 0.573527 -0.035623 -1.509728 5.917356 2.151429 -0.604028 0.768425 5.387827 11.984353 9.205904 -0.961105 8.334609 27.190473 11.763204 -16.591309 15.579041 24.682445 4.298801 -68.621251 -0.863342 4.157987 10.266167 -11.884887 -0.340386 -1.992372 -1.388357 -0.394564 -2.350736 -2.718983 0.870601 -3.679221 -1.382162 -0.747565 -2.235491 -4.132689 3.862042 -14.833355 -3.387864 -2.079925 -6.122191 2.248018 22.241111 -4.746914 -2.200707 -7.176530 4.509798 -6.494540 2.634815 -10.766167 -3.258577 3.709357 -0.247573 0.080076 1.144045 -8.011979 -0.454445 -9.873376 -13.006513 8.253054 -4.449522 -16.980517 2.753441 -0.626106 -9.042665 0.123224 -0.256158 6.127458 -2.667963 2.969646 -2.671379 0.561198 -9.138353 -55.600872 -17.250833
0.002984 0.575371 -0.023265 -1.320128 6.925774 1.095405 -0.710180 -0.441274 2.844745 7.604069 8.193763 1.830994 15.315177 47.323426 8.887894 -14.220016 13.908330 22.828074 11.209231 -66.022790 10.359370 6.081471 3.366521 -7.364126 -0.707487 -4.030102 -0.258740 0.264095 -2.434512 -2.826539 0.612656 -2.825362 -1.035553 -1.165702 -1.342372 -5.105012 3.526076 -14.575913 -3.107846 -1.512591 -6.812206 2.290593 19.706452 -2.525925 -0.536409 -6.791460 1.855428 -2.495655 2.887963 -10.067307 -4.255990 5.291352 -4.931838 -1.153379 4.873517 -11.930534 0.225112 -11.575055 -11.686799 7.309076 -3.397039 -17.590073 2.726379 -0.707532 -6.882990 -1.935329 -3.078656 8.439711 -5.157315 4.327635 -1.932408 1.210211 -3.937801 -54.167466 -12.022027
0.007297 0.575849 -0.003183 -0.936856 6.884824 0.581271 -0.892507 -2.049430 -1.370516 4.782908 6.711462 5.028341 25.129820 67.370704 8.427150 -2.603593 8.427401 17.973604 0.447388 -50.149281 10.605319 5.994464 3.158229 -3.831759 -1.304776 -4.878324 0.188776 0.936413 -2.794197 -2.722175 0.433741 -1.848441 -0.736899 -1.250357 -0.698937 -5.527871 3.340271 -14.434624 -3.000321 -0.727522 -7.415281 2.552987 13.483966 -3.675344 -1.982525 -2.326679 -0.499283 -4.854342 3.012864 -10.074765 -4.533131 5.879097 -7.252185 -1.350542 6.056805 -11.771239 -0.169090 -13.793197 -10.769925 6.952974 -2.157084 -16.568951 3.072389 -0.448360 -4.677591 -3.931688 -5.290749 10.214019 -7.351454 5.467429 -1.076107 0.322662 5.719198 -54.528444 -1.776366
0.009007 0.576861 0.013250 -0.648167 5.231063 0.917350 -1.629294 -1.991437 -4.489523 6.682711 3.317805 4.019884 56.972555 79.276540 -13.861157 9.731383 -2.494780 10.613465 -10.137740 -28.585353 16.343956 6.201822 0.858155 -3.056810 -1.854201 -3.617596 -0.102689 1.621815 -4.639265 -2.512278 0.331316 -0.121174 -0.726127 -1.281209 -0.142876 -5.885776 2.714289 -13.219968 -3.423097 0.110133 -6.972281 3.345182 5.547427 -6.406186 -6.517228 3.785031 -1.283382 -6.585585 3.409422 -10.550423 -4.807118 5.573526 -8.027054 -1.104158 6.186929 -11.159490 -0.637855 -16.972615 -9.577875 6.726529 -0.678860 -15.202500 3.940093 -0.672793 -3.754117 -5.717332 -6.097488 8.434289 -7.490259 6.096889 0.214659 -0.609811 16.678978 -56.831115 9.997952
0.010301 0.573094 0.034360 -0.005705 3.396386 1.927799 -1.124890 -1.237299 -6.736934 14.338642 2.589648 -2.886822 65.697155 72.149964 -23.711464 14.210926 -14.392214 5.258194 -15.556660 -10.700926 19.018713 8.320984 -0.324459 -4.032189 -2.442006 -1.979115 -0.686632 1.666892 -6.982800 -2.741959 0.386386 1.701471 -1.156366 -1.736718 0.336848 -6.008226 2.038679 -12.147249 -4.696567 1.075285 -7.022116 4.564225 0.389535 -8.444205 -12.219181 9.280263 -2.537651 -8.190542 3.363847 -10.782928 -5.059847 4.204016 -8.154914 -1.215998 6.114282 -13.748594 -0.677626 -21.796136 -6.609889 6.570277 2.643579 -15.371593 5.020370 -1.655130 -2.828746 -6.845066 -6.518208 8.265380 -7.941019 6.958199 0.553358 -1.751488 32.846018 -62.114157 26.814041
0.011195 0.567666 0.055392 1.020997 2.231455 2.943597 2.499350 0.504228 -7.836619 16.633170 0.019495 -7.786615 44.500275 51.295221 -7.220189 15.178308 -18.596983 -0.023668 -21.500839 -0.610577 18.256769 9.289508 -3.553887 -1.714943 -3.112531 -0.797490 -1.353914 1.339520 -9.179455 -3.054066 0.791741 3.361087 -1.888424 -2.292943 0.079720 -6.388571 0.818426 -10.476291 -6.561217 1.668773 -7.339865 6.000742 -2.122726 -9.799613 -18.863972 16.407244 -2.667545 -10.268332 3.266503 -10.434217 -5.342928 3.935408 -8.725874 -1.936397 6.551197 -17.657218 -0.459472 -24.930696 -3.920622 6.862857 3.930124 -17.064569 5.428788 -3.243259 -1.993823 -7.187821 -8.451155 9.918487 -8.401353 8.606721 1.261717 -3.248077 46.938760 -66.362182 40.126975
0.012176 0.559920 0.072992 2.243450 1.209767 3.490389 8.046230 4.817408 -9.084834 16.810517 -4.302449 -9.933196 28.116954 35.049624 1.183460 14.320795 -16.212815 -5.064764 -25.703810 -0.394952 16.458456 11.107282 -1.111900 -0.448029 -3.700393 -0.062822 -1.884494 0.724586 -10.514277 -3.181055 1.174638 4.792058 -2.012155 -2.465812 0.189468 -6.282924 0.084890 -9.248931 -7.331152 1.719592 -8.835817 6.673962 -3.027664 -12.218340 -25.784291 19.263092 1.549575 -11.721919 2.712656 -9.854175 -5.546643 3.936301 -9.558943 -3.646978 8.271546 -23.270398 0.299193 -26.569583 -2.728875 7.523668 3.465814 -17.938268 6.179485 -4.674525 -1.936571 -5.988210 -10.628305 10.563269 -8.513533 10.213700 2.762175 -2.959016 48.734949 -70.536595 42.061202
0.010799 0.552457 0.087191 2.998182 0.713345 3.352656 12.901113 7.752053 -10.095196 16.364223 -6.400384 -10.363779 18.380408 39.497955 7.153639 14.191915 -12.564711 -7.185625 -27.411862 -5.262037 15.384520 11.398305 4.227337 0.298339 -3.961767 0.436116 -1.986770 0.222873 -10.857135 -3.109521 1.072082 5.935614 -1.596069 -1.830846 0.417462 -5.198828 -0.659286 -8.469646 -6.883002 1.030514 -9.787301 5.929970 -1.571554 -15.924197 -31.182376 17.585308 6.752207 -11.707687 2.003110 -9.677159 -5.461158 0.655917 -10.187942 -4.376361 8.599838 -23.611190 1.009197 -27.043512 -3.187956 8.190275 1.476033 -18.813371 7.250641 -5.007638 -2.507168 -4.944288 -8.291202 9.992634 -7.105412 8.551051 0.445746 -1.904619 39.279631 -76.319972 33.056970
0.008894 0.549257 0.095883 3.162615 0.459209 3.090246 16.669303 8.994682 -10.431421 13.985001 -9.613385 -11.747812 22.683706 48.015542 6.598981 16.448615 -8.623111 -7.742808 -29.182583 -19.812473 18.119921 13.704216 15.406187 -4.689979 -3.958368 0.878998 -2.058919 -0.179197 -10.356785 -3.024855 0.774507 6.154441 -1.163841 -1.597421 0.029040 -4.227732 -1.036481 -10.086938 -6.146759 1.126912 -10.675616 4.573651 3.351144 -18.727032 -33.469646 13.668812 9.964734 -9.848199 1.409014 -9.541429 -5.262538 -3.922335 -7.198463 -3.688737 3.307446 -18.193951 1.441290 -26.516104 -4.696559 8.515290 0.067488 -19.452929 7.968600 -5.357944 -4.132155 -4.382983 -3.574908 7.353490 -3.791740 6.933907 -1.170416 0.199283 6.890213 -81.729050 2.804861
0.009714 0.540585 0.099798 3.541411 0.638802 2.324641 17.745755 7.830854 -10.680557 14.788547 -10.200724 -13.872226 31.654126 52.155273 4.431427 28.902514 -8.376312 -8.569794 -55.652025 5.692007 13.972475 17.358640 -12.093641 4.245459 -4.192894 0.788485 -1.693556 -0.464124 -10.378302 -3.049965 0.538172 6.248918 -1.124694 -1.695823 -0.728263 -3.960483 -0.597874 -11.206536 -6.661259 1.485490 -12.598235 4.334641 8.994384 -20.171988 -33.368570 11.015083 11.748701 -8.440394 1.422680 -10.335694 -5.139765 -8.985456 -1.960908 -2.271778 -3.672344 -7.474923 0.185637 -25.512977 -6.502767 8.198228 -1.243191 -19.742839 7.340862 -7.172498 -7.151231 -5.034164 0.143673 3.546470 0.019077 7.682634 -2.382005 2.941531 -24.291060 -82.357199 -27.151734
0.004959 0.540073 0.096839 3.299197 0.733170 1.799057 18.226339 5.692836 -12.427127 14.674561 -10.465798 -15.195754 42.650339 45.772537 3.149890 26.569045 -10.877844 -9.545784 -54.433750 -2.684756 15.676794 16.998796 -6.765695 -0.850159 -3.981425 0.594724 -1.054634 -0.885603 -10.636612 -3.463367 0.640758 6.043662 -1.558925 -2.457480 -1.612149 -4.381741 -0.173775 -12.248850 -8.816406 0.467797 -15.719548 4.793391 12.440950 -22.587310 -33.050448 8.262678 12.490533 -7.302760 2.290401 -11.636197 -5.328684 -10.780920 1.345825 -2.843005 -5.738151 -0.661429 0.833829 -24.875293 -8.647507 7.434690 -2.185376 -19.908340 5.217861 -10.231274 -9.315593 -6.724807 1.438258 0.404435 1.823836 9.338655 -3.156753 4.004345 -32.377205 -83.121252 -35.688662
0.000666 0.539410 0.098140 3.105373 0.995164 1.148847 17.901399 4.359158 -14.868920 14.515290 -11.769312 -16.558774 47.480279 29.099627 2.403605 20.179067 -14.238029 -8.836723 -43.873686 -6.428188 16.986430 12.773783 1.001361 -4.090342 -3.719686 0.561094 0.086046 -1.167356 -10.736103 -3.691382 1.127268 5.436984 -2.545445 -4.067635 -1.681666 -4.906490 0.282372 -13.267766 -10.498284 0.419024 -15.083261 4.693824 13.343621 -25.679785 -32.815731 6.933059 12.103513 -7.625511 4.269272 -13.978180 -5.298753 -5.741687 6.686302 -3.428805 -7.731043 9.977389 6.164175 -25.057412 -11.892620 6.665025 -3.415045 -21.260960 0.312549 -15.637921 -10.852377 -9.371360 0.673138 1.247054 -1.695875 9.369549 -0.749508 3.390169 -60.879582 -85.347235 -64.381866
-0.004690 0.534111 0.100726 3.196684 1.910331 0.664685 16.989005 3.574001 -17.398936 14.530685 -15.263981 -17.837951 47.948270 12.779903 1.729467 14.733398 -16.001719 -6.961215 -35.320696 -6.801940 14.125967 9.032312 3.428430 -6.441167 -3.696558 0.381962 0.974561 -1.059244 -10.867624 -3.636913 1.045555 4.819897 -3.749061 -4.926298 -3.121483 -4.988040 0.538302 -12.930939 -10.212529 1.722622 -12.913969 4.945908 7.877218 -28.095272 -35.952136 8.212325 10.033428 -9.138952 4.809518 -15.390859 -5.310819 -4.009350 7.701117 -3.755680 -5.547776 10.300725 7.022852 -23.925231 -15.756951 6.088652 -5.139935 -25.096106 -8.555982 -17.345446 -11.757379 -9.924576 -1.541595 2.592276 -5.134173 9.473080 4.463738 3.469852 -129.065231 -82.219907 -132.105816
-0.009538 0.527138 0.099205 3.697424 3.592862 0.568062 14.467198 2.183603 -18.881694 13.874683 -21.840774 -22.878445 41.557615 4.387061 -3.006039 9.532694 -13.905182 -3.676560 -29.180588 -9.815374 7.206365 5.959544 5.172310 -6.309772 -3.985361 -0.460472 0.697360 -0.688900 -9.251633 -2.814159 0.483417 3.743812 -4.314969 -4.197030 -3.214433 -4.418122 0.049857 -13.228520 -8.823299 2.368291 -10.778552 4.414462 -3.018476 -27.271323 -41.672458 9.620915 7.069814 -12.852403 4.235392 -13.734191 -5.635950 -6.334930 7.406944 -3.492681 -5.252258 8.097184 7.228689 -13.975533 -19.955141 9.608110 -15.681979 -35.234316 -11.824902 -13.256980 -11.755883 -6.009674 1.309432 4.500932 -2.599859 6.953731 -2.494917 1.416076 -144.789658 -76.134462 -147.813240
-0.012514 0.534040 0.096325 3.964282 5.163639 0.555111 12.547412 0.005612 -19.461691 9.961433 -27.009514 -30.160451 33.942660 -2.410454 1.794223 4.349282 -8.104596 0.443756 -25.350739 -16.191892 -2.841878 6.138108 5.026918 -2.005651 -3.025890 -1.342978 -0.270831 -0.837445 -8.311396 -1.582809 -0.203751 2.694413 -4.239007 -3.833693 -3.407964 -4.764418 -1.148145 -14.245671 -7.923123 2.496111 -10.298989 3.808261 -4.330002 -20.548303 -41.746438 8.544412 -2.647715 -12.541869 3.386515 -11.475334 -5.453417 -10.090314 8.102261 -2.796726 -6.458688 7.401554 6.298278 -1.989417 -22.472303 17.368896 -24.137551 -41.947213 -18.195104 -9.766105 -13.508750 -1.190739 2.596997 3.122486 -0.067560 4.021289 -7.211274 -0.992633 -161.659431 -66.820729 -162.704490
-0.020941 0.563772 0.088453 3.402093 4.684644 0.494429 14.203337 -1.775162 -18.880706 1.658619 -28.765022 -38.343379 29.430599 -6.880451 11.134144 0.294727 -1.294374 2.755801 -18.769743 -23.655407 -5.171488 3.655235 5.422619 2.933126 -2.091479 -1.495793 -1.262494 -0.817308 -3.968228 -0.355153 0.157893 0.975924 -3.565887 -3.635987 -2.713593 -4.460965 -1.924999 -17.779481 -7.773646 2.874061 -9.566637 3.897186 -1.303881 -18.511285 -38.707675 6.637095 -7.339555 -3.579674 2.112016 -8.713056 -3.370817 -10.682981 9.937422 -2.781696 -9.629470 9.593571 5.831624 5.504351 -22.955065 24.561400 -21.755374 -39.194527 -15.423147 -6.475750 -13.622005 2.102655 2.836683 4.209607 1.413260 2.923547 -6.818820 -1.795879 -182.338625 -40.399495 -185.386283
-0.027407 0.581776 0.077042 2.238297 2.741764 0.470565 18.781759 -1.949815 -18.898363 -7.790027 -29.169162 -44.414033 28.264174 -8.601648 13.446905 -4.425779 5.164185 5.155228 -10.961676 -31.505353 -4.164042 1.207677 7.099923 4.360914 -1.268236 0.592424 -2.036985 -1.368168 -0.365099 0.110121 0.900524 -1.105826 -3.480724 -3.797275 -2.343342 -3.822694 -2.006195 -20.916804 -7.833791 4.455277 -10.409197 3.771446 0.897951 -20.668690 -36.882746 5.077526 -8.588938 0.037756 0.220820 -6.418152 -2.558761 -11.768704 10.100595 -3.564171 -9.138392 6.728282 6.672735 7.769029 -25.410689 27.668461 -14.797598 -31.196771 -7.633604 -2.633643 -13.659316 5.432717 0.742627 8.156047 3.183424 4.115805 -2.371117 -2.316763 -185.684926 -33.216592 -187.938965
-0.028966 0.577433 0.065274 1.766672 2.199988 0.188088 22.847002 -1.749877 -20.219341 -12.827995 -29.025745 -44.225455 25.020309 -9.861048 11.681540 -12.439291 11.462031 9.984122 -1.156718 -41.133812 -2.891988 -1.647062 8.856198 4.031899 -1.045272 1.569370 -1.662508 -2.083755 0.998427 -0.010193 0.564672 -1.538378 -4.908228 -3.478603 -0.957149 -3.546274 -0.731634 -21.347589 -7.507126 4.855408 -10.739512 3.463508 3.109791 -23.337735 -34.447322 4.016862 -11.424465 -4.583926 -2.440286 -5.299314 -3.388058 -15.514286 12.025705 -5.618264 -5.368809 4.805982 6.398666 6.174303 -27.116437 27.276425 -11.724340 -25.661334 -1.307348 1.212166 -12.146707 6.277015 4.983924 11.575476 4.415755 1.858843 -2.910239 -1.639507 -185.737173 -41.145700 -188.695927
-0.028307 0.552146 0.047333 1.024996 2.979905 0.370321 29.115717 -0.696359 -24.010842 -13.675010 -28.514991 -40.085152 22.906961 -12.933200 12.022832 -24.045954 17.931060 14.484352 14.639022 -51.480162 4.241677 -3.628489 9.466499 2.142184 -1.146121 0.969384 -0.662740 -2.379948 2.046542 -1.432648 0.227688 -2.182233 -6.700307 -2.018885 -2.548098 -3.288025 0.395584 -22.592972 -6.467729 3.743612 -9.093266 3.149105 5.457992 -18.760729 -30.719108 4.443009 -10.449833 -10.809176 -5.356664 -3.331945 -5.973911 -16.303788 11.539650 -7.470542 -0.863601 1.401183 2.672111 2.596346 -29.438111 25.488351 -9.983227 -21.813099 5.836636 3.515653 -11.199788 5.845395 8.766235 15.540637 4.714035 -0.119687 -3.758125 0.188616 -182.513012 -60.715675 -186.448046
-0.029334 0.523213 0.025677 0.591007 4.315958 0.771801 30.132426 2.123608 -27.575672 -12.500009 -34.504775 -36.128938 18.992935 -10.237762 6.479917 -28.250601 20.538101 16.416613 23.756952 -56.271608 10.205597 -2.488947 7.092230 -0.632649 -1.912572 -1.216618 0.076229 -1.783743 3.281624 -3.003744 -0.136347 -3.864851 -6.541237 -0.229665 -2.708013 -3.202834 1.180306 -24.234573 -4.857696 2.961748 -6.882791 3.130029 6.235341 -15.843684 -29.196983 7.628981 1.629377 -15.411224 -7.883639 -1.709243 -7.198629 -15.458717 10.574114 -8.143914 1.342555 -0.714126 0.030307 -1.244309 -31.262023 23.751844 -8.624628 -11.809152 11.355176 3.318969 -10.410747 4.874959 9.618876 15.563163 6.022590 -0.091941 -4.121312 1.570949 -173.817719 -83.732122 -175.898465
-0.027077 0.512917 0.018598 1.093708 5.384321 0.233852 26.443599 4.918043 -24.559894 -11.209130 -37.444749 -34.574582 16.719397 -8.960647 2.422286 -26.943722 20.669432 16.138729 24.767368 -58.092933 13.276797 3.923374 -0.496016 -3.810564 -2.935744 -2.567496 0.381741 -1.148520 2.960483 -3.293797 -0.477174 -3.725826 -5.913793 0.462460 -2.838970 -3.060164 0.908165 -23.973573 -4.401148 2.502579 -5.715854 2.932774 7.661973 -26.490911 -28.550658 11.303526 11.038288 -16.584133 -8.515979 -1.947505 -6.757574 -14.849025 9.135541 -8.649050 1.446300 -1.448467 -1.257824 -3.358009 -30.462358 21.883847 -7.900627 -6.479150 11.181041 2.701453 -10.385954 4.419567 13.525658 17.387384 10.425129 0.416840 -4.291343 2.911962 -34.442318 -86.753690 -36.443120
-0.027466 0.510477 0.013069 1.644779 5.669289 0.019329 21.435860 5.651767 -18.840800 -8.885345 -35.908992 -33.358981 15.436673 -9.552123 0.358067 -21.034992 19.124431 12.787507 13.577028 -51.377999 8.258241 4.810245 -3.228669 -2.808445 -3.829875 -3.374589 0.409765 -0.582042 2.811550 -3.273363 -0.397943 -3.139932 -5.144551 0.446931 -2.578435 -3.098175 0.876605 -23.390644 -4.224329 2.076178 -5.347764 2.223629 11.577870 -32.723453 -23.313411 15.946050 12.212740 -19.304769 -8.760394 -2.337904 -5.472129 -14.105271 7.734795 -9.695492 1.190561 -1.763142 -2.500322 -5.164118 -28.073206 19.633755 -7.210832 -4.491609 9.171912 2.654827 -10.345090 3.923272 16.281381 15.255123 11.611156 1.664430 -3.417622 3.337029 -11.612145 -82.659014 -13.922216
-0.030950 0.510553 0.005320 1.657145 5.079332 0.284863 17.396707 5.502494 -15.412023 -6.908586 -34.166957 -28.495277 15.155653 -6.776531 -1.386900 -10.020679 15.344270 8.031220 -0.751768 -39.804384 2.729923 5.877922 -0.702920 -0.636429 -3.918162 -2.968683 0.324863 -0.421950 2.960817 -3.193927 -0.042516 -3.288435 -4.694787 0.417646 -2.390402 -3.302542 0.370411 -21.864344 -4.104965 1.035352 -4.024020 2.460108 13.860509 -25.657970 -20.104262 15.033345 7.570538 -16.831313 -7.869189 -2.786756 -4.562225 -14.839947 6.788600 -9.820268 0.520902 -2.416137 -3.955784 -6.549546 -24.397901 17.209471 -7.085926 -5.993352 6.452844 2.645863 -9.507356 3.337914 16.756675 15.251017 11.549815 3.353349 -3.124248 4.157394 4.068351 -76.252457 0.726773
-0.031101 0.513242 -0.002279 1.496713 4.718628 0.525980 13.989917 4.272993 -12.966298 -5.897866 -31.335377 -20.224032 15.457948 -0.100447 -2.334304 -0.275246 9.538985 4.799926 -11.422615 -25.982651 -1.805727 7.553306 0.503875 1.372322 -3.705897 -2.273495 0.356953 -0.448690 2.716879 -3.194969 -0.066081 -3.272017 -4.491986 0.863221 -2.353899 -4.344910 -0.034271 -18.885720 -3.895494 -1.004575 -1.955741 4.178294 15.247506 -15.341681 -20.060792 11.306040 1.007787 -13.801135 -6.674048 -3.584386 -4.341050 -15.576420 6.664626 -8.586862 -0.511240 -2.989287 -5.258603 -7.975536 -20.952603 14.478939 -8.451945 -9.753117 2.878767 2.687322 -8.774079 2.782679 15.461432 16.608437 10.860465 3.573219 -3.561823 4.272636 6.668662 -68.518626 1.931325
-0.030981 0.519191 -0.009512 1.310766 4.340589 0.871502 10.536909 3.514688 -10.248044 -4.754747 -25.060568 -9.991804 15.728067 6.850031 -3.451098 3.956589 6.964170 3.198344 -17.102582 -17.562629 -6.424675 10.233462 1.766787 -0.551126 -3.578319 -1.565462 0.244316 -0.506553 2.354060 -3.160248 0.059582 -3.697581 -4.177213 0.631555 -2.023092 -4.981317 -0.413291 -17.485512 -4.040962 -1.732050 -1.634354 4.718743 16.049742 -8.302594 -21.402690 7.974260 -4.326609 -13.614690 -4.696341 -5.177297 -4.246676 -15.326367 6.914389 -7.186672 -1.754189 -2.531153 -5.283559 -10.230847 -17.860309 11.232926 -11.175577 -13.500830 -0.331312 2.742608 -8.690284 2.159861 15.110559 17.419476 9.840677 3.371339 -3.763670 4.085578 6.696778 -61.804770 0.529519
-0.030379 0.529136 -0.017613 0.932592 4.430711 1.471512 5.892541 1.774595 -6.840439 -2.501073 -14.545613 -3.182268 14.363693 5.129118 -3.055822 3.907855 6.362435 2.698396 -17.146857 -16.634764 -8.443182 9.966817 0.300702 0.627741 -3.396976 -1.752371 -0.081129 -0.584284 2.532736 -3.303998 0.507927 -3.957919 -3.957487 0.559494 -2.018904 -5.255648 -0.752614 -15.889374 -4.376724 -2.637930 -1.642517 5.027343 17.026823 -4.030650 -22.678220 4.289256 -8.743155 -14.947339 -3.192589 -5.791619 -4.221235 -14.801072 7.050938 -6.005972 -2.759908 -1.340779 -5.021238 -12.775149 -15.391965 8.322127 -13.945092 -16.082939 -3.410503 2.788229 -8.088119 1.578759 15.759795 18.164095 9.473483 3.865750 -3.968582 4.529632 6.769475 -58.906822 -0.804906
